"POSTCODE","ADDRESS","CITY","STATE"
"05000","Jalan Istana Lama","Alor Setar","KDH"
"05000","Jalan Kampung Baru","Alor Setar","KDH"
"05000","Jalan Kanchut","Alor Setar","KDH"
"05000","Jalan Kolam Air","Alor Setar","KDH"
"05000","Jalan Kolam","Alor Setar","KDH"
"05000","Jalan Kota","Alor Setar","KDH"
"05000","Jalan Limbong Kapal","Alor Setar","KDH"
"05000","Jalan Mahdali","Alor Setar","KDH"
"05000","Jalan Mahsuri","Alor Setar","KDH"
"05000","Jalan Malinja","Alor Setar","KDH"
"05000","Jalan Market Cina","Alor Setar","KDH"
"05000","Jalan Nagor","Alor Setar","KDH"
"05000","Jalan Pekan China","Alor Setar","KDH"
"05000","Jalan Pekan Melayu","Alor Setar","KDH"
"05000","Jalan Pengkalan Kapal","Alor Setar","KDH"
"05000","Jalan Penjara Lama","Alor Setar","KDH"
"05000","Jalan SetiaJaya","Alor Setar","KDH"
"05000","Jalan Stesyen","Alor Setar","KDH"
"05000","Jalan Tunku Ibrahim","Alor Setar","KDH"
"05000","Kompleks Jalan Raja","Alor Setar","KDH"
"05000","Kuala Sanglang (Perlis)","Alor Setar","KDH"
"05000","Lorong Merah","Alor Setar","KDH"
"05000","Lorong Padi","Alor Setar","KDH"
"05000","Lorong Puteh","Alor Setar","KDH"
"05000","Lorong Puyoh","Alor Setar","KDH"
"05000","Lorong Setar","Alor Setar","KDH"
"05000","Lorong Tangki","Alor Setar","KDH"
"05000","Lorong Thean Kee","Alor Setar","KDH"
"05000","Lorong Timur","Alor Setar","KDH"
"05000","Menara MPKS","Alor Setar","KDH"
"05000","Pekan Cina","Alor Setar","KDH"
"05000","Pekan Melayu","Alor Setar","KDH"
"05000","Pengkalan Kapal","Alor Setar","KDH"
"05000","Wisma Darulaman","Alor Setar","KDH"
"05000","Wisma PKNK","Alor Setar","KDH"
"05000","Wisma Persekutuan","Alor Setar","KDH"
"05050","Jalan Ampang Jajar","Alor Setar","KDH"
"05050","Jalan Bunga Raya Hujung","Alor Setar","KDH"
"05050","Jalan Bunga Raya","Alor Setar","KDH"
"05050","Jalan Cahaya","Alor Setar","KDH"
"05050","Jalan Inai","Alor Setar","KDH"
"05050","Jalan Kilang Tebu","Alor Setar","KDH"
"05050","Jalan Kota Tanah","Alor Setar","KDH"
"05050","Jalan Pegawai","Alor Setar","KDH"
"05050","Jalan Sultan Badlishah","Alor Setar","KDH"
"05050","Jalan Teratai Jingga","Alor Setar","KDH"
"05050","Kampung Benggali","Alor Setar","KDH"
"05050","Kampung Dahlia","Alor Setar","KDH"
"05050","Kampung Kastam","Alor Setar","KDH"
"05050","Kampung Kilang Tebu","Alor Setar","KDH"
"05050","Kampung Padang","Alor Setar","KDH"
"05050","Kampung Peremba","Alor Setar","KDH"
"05050","Kampung Piew","Alor Setar","KDH"
"05050","Kampung Seberang Perak","Alor Setar","KDH"
"05050","Komplek Perniagaan Sultan A.Hamid","Alor Setar","KDH"
"05050","Lorong Air Puteh","Alor Setar","KDH"
"05050","Lorong Bertam","Alor Setar","KDH"
"05050","Lorong Bidara","Alor Setar","KDH"
"05050","Lorong Chempaka","Alor Setar","KDH"
"05050","Lorong Dahlia","Alor Setar","KDH"
"05050","Lorong Hilir","Alor Setar","KDH"
"05050","Lorong Kemuning","Alor Setar","KDH"
"05050","Lorong Kenanga","Alor Setar","KDH"
"05050","Lorong Melati","Alor Setar","KDH"
"05050","Lorong Melor","Alor Setar","KDH"
"05050","Lorong Nipah","Alor Setar","KDH"
"05050","Lorong Nyior Setali","Alor Setar","KDH"
"05050","Lorong Padang","Alor Setar","KDH"
"05050","Lorong Peremba","Alor Setar","KDH"
"05050","Lorong Peteri","Alor Setar","KDH"
"05050","Lorong Rose","Alor Setar","KDH"
"05050","Lorong Tongkang Yard","Alor Setar","KDH"
"05050","Seberang Perak","Alor Setar","KDH"
"05050","Taman Abdul Aziz","Alor Setar","KDH"
"05050","Taman Air Puteh","Alor Setar","KDH"
"05050","Taman Anggerik","Alor Setar","KDH"
"05050","Taman Bahagia","Alor Setar","KDH"
"05050","Taman Berjaya","Alor Setar","KDH"
"05050","Taman Bunga Raya","Alor Setar","KDH"
"05050","Taman Cemara","Alor Setar","KDH"
"05050","Taman Datin Nurulkiah","Alor Setar","KDH"
"05050","Taman Desa","Alor Setar","KDH"
"05050","Taman Hartamas","Alor Setar","KDH"
"05050","Taman Hujung Bunga Raya","Alor Setar","KDH"
"05050","Taman Inai","Alor Setar","KDH"
"05050","Taman Komuda","Alor Setar","KDH"
"05050","Taman Lam Fong","Alor Setar","KDH"
"05050","Taman Malik","Alor Setar","KDH"
"05050","Taman Nurul Kiah","Alor Setar","KDH"
"05050","Taman Nyior Setali","Alor Setar","KDH"
"05050","Taman Purnama (1 & 2)","Alor Setar","KDH"
"05050","Taman Ria","Alor Setar","KDH"
"05050","Taman Selamat","Alor Setar","KDH"
"05050","Taman Seri Aman","Alor Setar","KDH"
"05050","Taman Seri Ampang","Alor Setar","KDH"
"05050","Taman Seri Bandar","Alor Setar","KDH"
"05050","Taman Seri Indah","Alor Setar","KDH"
"05050","Taman Seri Jaya","Alor Setar","KDH"
"05050","Taman Seri Manis","Alor Setar","KDH"
"05050","Taman Setia (A - D)","Alor Setar","KDH"
"05050","Taman Sinaran","Alor Setar","KDH"
"05050","Taman Sultan Badlishah","Alor Setar","KDH"
"05050","Taman Teratai Jingga","Alor Setar","KDH"
"05050","Tongkang Yard","Alor Setar","KDH"
"05100","Jalan Bakar Bata","Alor Setar","KDH"
"05100","Jalan Kampung Perak","Alor Setar","KDH"
"05100","Jalan Kampung Pisang","Alor Setar","KDH"
"05100","Jalan Kolam Renang","Alor Setar","KDH"
"05100","Jalan Loh Joh Huat","Alor Setar","KDH"
"05100","Jalan Lumpur","Alor Setar","KDH"
"05100","Jalan Mahkota","Alor Setar","KDH"
"05100","Jalan Menanti","Alor Setar","KDH"
"05100","Jalan Nuri","Alor Setar","KDH"
"05100","Jalan Pintu Sepuluh","Alor Setar","KDH"
"05100","Jalan Sekerat","Alor Setar","KDH"
"05100","Jalan Serai","Alor Setar","KDH"
"05100","Jalan Stadium","Alor Setar","KDH"
"05100","Jalan Tambang Badak","Alor Setar","KDH"
"05100","Jalan Telok Sena","Alor Setar","KDH"
"05100","Jalan Tengah","Alor Setar","KDH"
"05100","Jalan Tengku Habsah","Alor Setar","KDH"
"05100","Jalan Terang","Alor Setar","KDH"
"05100","Jalan Tunku Abdul Halim","Alor Setar","KDH"
"05100","Jalan Yakin","Alor Setar","KDH"
"05100","Kampung Belakang Stadium","Alor Setar","KDH"
"05100","Lebuhraya Darulaman","Alor Setar","KDH"
"05100","Lorong Asap","Alor Setar","KDH"
"05100","Lorong Balai Jam","Alor Setar","KDH"
"05100","Lorong Bayan","Alor Setar","KDH"
"05100","Lorong Delima","Alor Setar","KDH"
"05100","Lorong Joo Huat","Alor Setar","KDH"
"05100","Lorong Kampung Pisang","Alor Setar","KDH"
"05100","Lorong Kelompang","Alor Setar","KDH"
"05100","Lorong Liku","Alor Setar","KDH"
"05100","Lorong Mahdali","Alor Setar","KDH"
"05100","Lorong Mahkota","Alor Setar","KDH"
"05100","Lorong Nuri","Alor Setar","KDH"
"05100","Lorong Pekaka","Alor Setar","KDH"
"05100","Lorong Peringgi","Alor Setar","KDH"
"05100","Lorong Pipit","Alor Setar","KDH"
"05100","Lorong Rambang","Alor Setar","KDH"
"05100","Lorong Seberang Perak","Alor Setar","KDH"
"05100","Lorong Sena","Alor Setar","KDH"
"05100","Lorong Serai","Alor Setar","KDH"
"05100","Lorong Sukaramai","Alor Setar","KDH"
"05100","Lorong Sungai","Alor Setar","KDH"
"05100","Lorong Tengah","Alor Setar","KDH"
"05100","Lorong Terang","Alor Setar","KDH"
"05100","Lorong Titi Siam","Alor Setar","KDH"
"05100","Lorong Watt Siam","Alor Setar","KDH"
"05100","Sempadan Sungai Anak Bukit","Alor Setar","KDH"
"05100","Taman Alor Malai","Alor Setar","KDH"
"05100","Taman Darulaman","Alor Setar","KDH"
"05100","Taman Habsah","Alor Setar","KDH"
"05100","Taman Jaya Kami","Alor Setar","KDH"
"05100","Taman Loh Joo Huat","Alor Setar","KDH"
"05100","Taman Mahkota","Alor Setar","KDH"
"05100","Taman Seri Idaman","Alor Setar","KDH"
"05100","Taman Stadium","Alor Setar","KDH"
"05100","Taman Tunku Majid","Alor Setar","KDH"
"05150","Alor Melintang Anak","Alor Setar","KDH"
"05150","Alor Melintang Gunung","Alor Setar","KDH"
"05150","Bangunan Asas Jaya","Alor Setar","KDH"
"05150","Flat Tok Batin","Alor Setar","KDH"
"05150","Gunung Sali","Alor Setar","KDH"
"05150","Jalan Emas","Alor Setar","KDH"
"05150","Jalan Gangsa","Alor Setar","KDH"
"05150","Jalan Kampung Berjaya","Alor Setar","KDH"
"05150","Jalan Lengkongan Barat","Alor Setar","KDH"
"05150","Jalan Pendidikan","Alor Setar","KDH"
"05150","Jalan Perak","Alor Setar","KDH"
"05150","Jalan Putera","Alor Setar","KDH"
"05150","Jalan Putih","Alor Setar","KDH"
"05150","Jalan Seberang Putera Kanan","Alor Setar","KDH"
"05150","Jalan Seberang Putera Kiri","Alor Setar","KDH"
"05150","Jalan Seberang Terus","Alor Setar","KDH"
"05150","Jalan Teluk Yan","Alor Setar","KDH"
"05150","Jalan Tembaga","Alor Setar","KDH"
"05150","Jalan Tuanku Abdul Rahman","Alor Setar","KDH"
"05150","Jalan Utara","Alor Setar","KDH"
"05150","Kampung Alor Berah","Alor Setar","KDH"
"05150","Kampung Alor Gunong","Alor Setar","KDH"
"05150","Kampung Alor Madi","Alor Setar","KDH"
"05150","Kampung Alor Melintang","Alor Setar","KDH"
"05150","Kampung Alor Pasir","Alor Setar","KDH"
"05150","Kampung Alor Pea","Alor Setar","KDH"
"05150","Kampung Berjaya","Alor Setar","KDH"
"05150","Kampung Chegar","Alor Setar","KDH"
"05150","Kampung Gunung Sali","Alor Setar","KDH"
"05150","Kampung Gunung Sau","Alor Setar","KDH"
"05150","Kampung Jerangan","Alor Setar","KDH"
"05150","Kampung Kelompang (Mergong)","Alor Setar","KDH"
"05150","Kampung Kilang","Alor Setar","KDH"
"05150","Kampung Legar Pantai Johor","Alor Setar","KDH"
"05150","Kampung Lubok Peringgi","Alor Setar","KDH"
"05150","Kampung Pulau Kerengga","Alor Setar","KDH"
"05150","Kampung Seberang Anak Bukit","Alor Setar","KDH"
"05150","Kampung Seberang Kelompang","Alor Setar","KDH"
"05150","Kampung Seberang Nyonya","Alor Setar","KDH"
"05150","Kampung Seberang Pantai Johor","Alor Setar","KDH"
"05150","Kampung Seberang Pumpong","Alor Setar","KDH"
"05150","Kampung Seberang Terus","Alor Setar","KDH"
"05150","Kampung Simpang Empat Gunong","Alor Setar","KDH"
"05150","Kampung Suka Menanti","Alor Setar","KDH"
"05150","Kampung Sungai Baru Hilir","Alor Setar","KDH"
"05150","Kampung Sungai Baru Tengah","Alor Setar","KDH"
"05150","Kampung Sungai Baru","Alor Setar","KDH"
"05150","Kampung Tanjong Bedil","Alor Setar","KDH"
"05150","Kampung Tanjung","Alor Setar","KDH"
"05150","Kampung Telok Yan","Alor Setar","KDH"
"05150","Kampung Tok Ku Kiah","Alor Setar","KDH"
"05150","Kampung Wadilhana","Alor Setar","KDH"
"05150","Kompleks Perniagaan Utama","Alor Setar","KDH"
"05150","Lorong 1 - 8 (Kampung Berjaya)","Alor Setar","KDH"
"05150","Lorong Emas","Alor Setar","KDH"
"05150","Lorong Kampung Berjaya","Alor Setar","KDH"
"05150","Lorong Perak","Alor Setar","KDH"
"05150","Mergong","Alor Setar","KDH"
"05150","Mukim Pumpung","Alor Setar","KDH"
"05150","Seberang Cegar","Alor Setar","KDH"
"05150","Seberang Jalan Putera","Alor Setar","KDH"
"05150","Seberang Putra","Alor Setar","KDH"
"05150","Seberang Tambang Badak","Alor Setar","KDH"
"05150","Sungai Baru Gunung","Alor Setar","KDH"
"05150","Sungai Baru Tengah","Alor Setar","KDH"
"05150","Sungai Baru Tok Keramat","Alor Setar","KDH"
"05150","Taman Aman","Alor Setar","KDH"
"05150","Taman Barat","Alor Setar","KDH"
"05150","Taman Bawai","Alor Setar","KDH"
"05150","Taman Desa Anggerik","Alor Setar","KDH"
"05150","Taman Desa Impiana","Alor Setar","KDH"
"05150","Taman Emas","Alor Setar","KDH"
"05150","Taman Gemilang","Alor Setar","KDH"
"05150","Taman Industri Ringan","Alor Setar","KDH"
"05150","Taman Kancil","Alor Setar","KDH"
"05150","Taman Kelisa Emas","Alor Setar","KDH"
"05150","Taman Kelisa","Alor Setar","KDH"
"05150","Taman Kenanga","Alor Setar","KDH"
"05150","Taman Kita","Alor Setar","KDH"
"05150","Taman Kristal","Alor Setar","KDH"
"05150","Taman Mahawangsa","Alor Setar","KDH"
"05150","Taman Merah Jambu","Alor Setar","KDH"
"05150","Taman Mergong Indah","Alor Setar","KDH"
"05150","Taman Mergong Jaya","Alor Setar","KDH"
"05150","Taman Pandan","Alor Setar","KDH"
"05150","Taman Pelangi","Alor Setar","KDH"
"05150","Taman Pemodal","Alor Setar","KDH"
"05150","Taman Rakyat (Seberang Jalan Putra)","Alor Setar","KDH"
"05150","Taman Rakyat","Alor Setar","KDH"
"05150","Taman Seberang (Jalan Putra)","Alor Setar","KDH"
"05150","Taman Selatan","Alor Setar","KDH"
"05150","Taman Selayang","Alor Setar","KDH"
"05150","Taman Senangin","Alor Setar","KDH"
"05150","Taman Serampang (1 & 2)","Alor Setar","KDH"
"05150","Taman Seri Empangan","Alor Setar","KDH"
"05150","Taman Seri Impian","Alor Setar","KDH"
"05150","Taman Seri Indah (Mergong)","Alor Setar","KDH"
"05150","Taman Seri Menanti","Alor Setar","KDH"
"05150","Taman Sri Puyu","Alor Setar","KDH"
"05150","Taman Talapia","Alor Setar","KDH"
"05150","Taman Thean Peng","Alor Setar","KDH"
"05150","Taman Timah","Alor Setar","KDH"
"05150","Taman Tunku Jabor","Alor Setar","KDH"
"05150","Taman Utama","Alor Setar","KDH"
"05150","Tanjong Bedil","Alor Setar","KDH"
"05200","Jalan Ambar","Alor Setar","KDH"
"05200","Jalan Gunong","Alor Setar","KDH"
"05200","Jalan Taman Lum Sun","Alor Setar","KDH"
"05200","Jalan Teluk Wanjah Kiri","Alor Setar","KDH"
"05200","Jalan Teluk Wanjah","Alor Setar","KDH"
"05200","Jalan Tun Abdul Razak","Alor Setar","KDH"
"05200","Kampung Kubur","Alor Setar","KDH"
"05200","Kampung Tok Bidan","Alor Setar","KDH"
"05200","Kampung Tok Murad","Alor Setar","KDH"
"05200","Lorong Aman","Alor Setar","KDH"
"05200","Lorong Bentara","Alor Setar","KDH"
"05200","Lorong Datok Keramat","Alor Setar","KDH"
"05200","Lorong Dewan","Alor Setar","KDH"
"05200","Lorong Laksamana","Alor Setar","KDH"
"05200","Lorong Lintang","Alor Setar","KDH"
"05200","Lorong Merpati","Alor Setar","KDH"
"05200","Lorong Pahlawan","Alor Setar","KDH"
"05200","Lorong Panglima","Alor Setar","KDH"
"05200","Lorong Pendekar","Alor Setar","KDH"
"05200","Lorong Petani","Alor Setar","KDH"
"05200","Lorong Pewira","Alor Setar","KDH"
"05200","Lorong Seri Kedah","Alor Setar","KDH"
"05200","Lorong Shariff","Alor Setar","KDH"
"05200","Lorong Temenggong","Alor Setar","KDH"
"05200","Lorong Tiong","Alor Setar","KDH"
"05200","Lorong Tok Bidan","Alor Setar","KDH"
"05200","Menara Zakat","Alor Setar","KDH"
"05200","Sempadan Jalan Keretapi","Alor Setar","KDH"
"05200","Taman Ambar","Alor Setar","KDH"
"05200","Taman Desa Kenangan","Alor Setar","KDH"
"05200","Taman Hup Huat","Alor Setar","KDH"
"05200","Taman Kenari Biru","Alor Setar","KDH"
"05200","Taman Koperasi","Alor Setar","KDH"
"05200","Taman Lam Sun","Alor Setar","KDH"
"05200","Taman Mawar","Alor Setar","KDH"
"05200","Taman Merbok","Alor Setar","KDH"
"05200","Taman Mercu Jaya","Alor Setar","KDH"
"05200","Taman PKNK","Alor Setar","KDH"
"05200","Taman Sentosa (Telok Wanjah)","Alor Setar","KDH"
"05200","Taman Seri Ilham","Alor Setar","KDH"
"05200","Taman Seroja","Alor Setar","KDH"
"05200","Taman Setia Berjaya","Alor Setar","KDH"
"05200","Taman Suria Jaya","Alor Setar","KDH"
"05200","Taman Syed Omar","Alor Setar","KDH"
"05250","Alor Merah","Alor Setar","KDH"
"05250","Jalan Alor Semadum","Alor Setar","KDH"
"05250","Jalan Datuk Syed Ahmad","Alor Setar","KDH"
"05250","Jalan Hujong Alor Merah","Alor Setar","KDH"
"05250","Jalan Kelab Kedah","Alor Setar","KDH"
"05250","Jalan Lorong Kilang Kopi","Alor Setar","KDH"
"05250","Jalan Lumba Kuda","Alor Setar","KDH"
"05250","Jalan Mayang","Alor Setar","KDH"
"05250","Jalan Mentaloon","Alor Setar","KDH"
"05250","Jalan Menteri","Alor Setar","KDH"
"05250","Jalan Pumpong","Alor Setar","KDH"
"05250","Jalan Sekolah","Alor Setar","KDH"
"05250","Jalan Seri Taman","Alor Setar","KDH"
"05250","Jalan Taman Golf","Alor Setar","KDH"
"05250","Jalan Taman Malaysia","Alor Setar","KDH"
"05250","Jalan Terus","Alor Setar","KDH"
"05250","Jalan Tun Syed Sheikh Shahbudin","Alor Setar","KDH"
"05250","Jalan Tunku Bendahara","Alor Setar","KDH"
"05250","Kampung Alor Semadun","Alor Setar","KDH"
"05250","Kampung Alur Malai","Alor Setar","KDH"
"05250","Kampung Haji Saoud","Alor Setar","KDH"
"05250","Kampung Hashim Lebai Din","Alor Setar","KDH"
"05250","Kampung Hujong Alor Merah","Alor Setar","KDH"
"05250","Kampung KCS","Alor Setar","KDH"
"05250","Kampung Mentalon","Alor Setar","KDH"
"05250","Lorong Alor Semadom","Alor Setar","KDH"
"05250","Lorong Haji Bahar","Alor Setar","KDH"
"05250","Lorong Madrasah","Alor Setar","KDH"
"05250","Lorong Penjara","Alor Setar","KDH"
"05250","Lorong Seri Taman","Alor Setar","KDH"
"05250","Lorong Suria","Alor Setar","KDH"
"05250","Lorong Terus","Alor Setar","KDH"
"05250","Pantai Johor","Alor Setar","KDH"
"05250","Pumpong","Alor Setar","KDH"
"05250","Taman Golf","Alor Setar","KDH"
"05250","Taman Lumba Kuda","Alor Setar","KDH"
"05250","Taman Malaysia","Alor Setar","KDH"
"05250","Taman Pumpong","Alor Setar","KDH"
"05250","Taman Seri Amar Di Raja","Alor Setar","KDH"
"05250","Taman Seri Mentalon","Alor Setar","KDH"
"05250","Taman Seri Pantai","Alor Setar","KDH"
"05250","Taman Suria","Alor Setar","KDH"
"05300","Jalan Alor Melong","Alor Setar","KDH"
"05300","Jalan Datok Kumbar","Alor Setar","KDH"
"05300","Jalan Kampung Tanjung Bendahara","Alor Setar","KDH"
"05300","Jalan Tanjong Bendahara","Alor Setar","KDH"
"05300","Kampung Alor Buloh","Alor Setar","KDH"
"05300","Kampung Alor Gandak","Alor Setar","KDH"
"05300","Kampung Alor Melong","Alor Setar","KDH"
"05300","Kampung Alor Semela","Alor Setar","KDH"
"05300","Kampung Alor Teja","Alor Setar","KDH"
"05300","Kampung Chepoh","Alor Setar","KDH"
"05300","Kampung Derga","Alor Setar","KDH"
"05300","Kampung Gelam","Alor Setar","KDH"
"05300","Kampung Gerigis","Alor Setar","KDH"
"05300","Kampung Jalan Dato Kumbar","Alor Setar","KDH"
"05300","Kampung Kubang Buaya","Alor Setar","KDH"
"05300","Kampung Pengapit Batu","Alor Setar","KDH"
"05300","Kampung Sakan","Alor Setar","KDH"
"05300","Kampung Tanjong Bendahara","Alor Setar","KDH"
"05300","Kampung Tanjong Seri","Alor Setar","KDH"
"05300","Lorong Asma","Alor Setar","KDH"
"05300","Lorong Bendahara","Alor Setar","KDH"
"05300","Lorong Bersatu","Alor Setar","KDH"
"05300","Lorong Derga","Alor Setar","KDH"
"05300","Lorong Ganding","Alor Setar","KDH"
"05300","Lorong Gedebang","Alor Setar","KDH"
"05300","Lorong Haji Mohd Ali","Alor Setar","KDH"
"05300","Lorong Keriang","Alor Setar","KDH"
"05300","Lorong Pauh","Alor Setar","KDH"
"05300","Lorong Seri Ujong","Alor Setar","KDH"
"05300","Lorong Seri","Alor Setar","KDH"
"05300","Lorong Shangmugam","Alor Setar","KDH"
"05300","Lorong Tanjong","Alor Setar","KDH"
"05300","Taman Damai","Alor Setar","KDH"
"05300","Taman Intan","Alor Setar","KDH"
"05300","Taman Kenari Merah (Telok Wanjah)","Alor Setar","KDH"
"05300","Taman Kolej","Alor Setar","KDH"
"05300","Taman Nuri","Alor Setar","KDH"
"05300","Taman Putra Jaya","Alor Setar","KDH"
"05300","Taman Seri Belimbing","Alor Setar","KDH"
"05300","Taman Seri Tanjong","Alor Setar","KDH"
"05300","Taman Sultan Abdul Halim","Alor Setar","KDH"
"05300","Taman Tanjung Bendahara","Alor Setar","KDH"
"05350","Hutan Kampung","Alor Setar","KDH"
"05350","Jalan Dato Syed Mohamed","Alor Setar","KDH"
"05350","Jalan Fajar","Alor Setar","KDH"
"05350","Jalan Hutan Kampung","Alor Setar","KDH"
"05350","Jalan Kencana (Taman Muhibbah)","Alor Setar","KDH"
"05350","Jalan Masjid Lama","Alor Setar","KDH"
"05350","Jalan Sultanah","Alor Setar","KDH"
"05350","Jalan Syed Mohamed","Alor Setar","KDH"
"05350","Kampung Belukar","Alor Setar","KDH"
"05350","Kampung Bohor","Alor Setar","KDH"
"05350","Kampung Dalam Kota","Alor Setar","KDH"
"05350","Kampung Darat","Alor Setar","KDH"
"05350","Kampung Hilir","Alor Setar","KDH"
"05350","Kampung Hutan Kandeh","Alor Setar","KDH"
"05350","Kampung Hutan Pulai","Alor Setar","KDH"
"05350","Kampung Kandang Kuda","Alor Setar","KDH"
"05350","Kampung Kubang Lintah","Alor Setar","KDH"
"05350","Kampung Kubang Tampang","Alor Setar","KDH"
"05350","Kampung Maseh","Alor Setar","KDH"
"05350","Kampung Masjid Lama","Alor Setar","KDH"
"05350","Kampung Pengkalan Keriang","Alor Setar","KDH"
"05350","Kampung Pulai","Alor Setar","KDH"
"05350","Kampung Tebu (Hutan Kampung)","Alor Setar","KDH"
"05350","Kampung Tok Kassim","Alor Setar","KDH"
"05350","Kampung Tok Resat","Alor Setar","KDH"
"05350","Kampung Tok Sakar","Alor Setar","KDH"
"05350","Lepai","Alor Setar","KDH"
"05350","Lorong Bayu","Alor Setar","KDH"
"05350","Lorong Kampung Padang","Alor Setar","KDH"
"05350","Lorong Pelangi","Alor Setar","KDH"
"05350","Lorong Syed Mohd","Alor Setar","KDH"
"05350","Taman Bayu Baru","Alor Setar","KDH"
"05350","Taman Bayu","Alor Setar","KDH"
"05350","Taman Cahaya","Alor Setar","KDH"
"05350","Taman Dato Syed Omar","Alor Setar","KDH"
"05350","Taman Fajar","Alor Setar","KDH"
"05350","Taman Hidayah","Alor Setar","KDH"
"05350","Taman Jalan Sultanah","Alor Setar","KDH"
"05350","Taman Muhibbah","Alor Setar","KDH"
"05350","Taman Mulia","Alor Setar","KDH"
"05350","Taman Mustika","Alor Setar","KDH"
"05350","Taman Mutiara","Alor Setar","KDH"
"05350","Taman Nabira","Alor Setar","KDH"
"05350","Taman Rakyat","Alor Setar","KDH"
"05350","Taman Sara","Alor Setar","KDH"
"05350","Taman Senangin","Alor Setar","KDH"
"05350","Taman Syed Mohamed","Alor Setar","KDH"
"05350","Taman Tunku Abdul Rahman","Alor Setar","KDH"
"05350","Taman Uda","Alor Setar","KDH"
"05400","Alor Gelegah","Alor Setar","KDH"
"05400","Alor Selut","Alor Setar","KDH"
"05400","Bangunan Peruda (Seberang Perak)","Alor Setar","KDH"
"05400","Jalan Alor Mengkudu","Alor Setar","KDH"
"05400","Jalan Bulan","Alor Setar","KDH"
"05400","Jalan Dato Syed Omar","Alor Setar","KDH"
"05400","Jalan Kuala Kedah","Alor Setar","KDH"
"05400","Jalan Kundur","Alor Setar","KDH"
"05400","Jalan Masjid","Alor Setar","KDH"
"05400","Jalan Seberang Keretapi","Alor Setar","KDH"
"05400","Jalan Seberang Perak","Alor Setar","KDH"
"05400","Jalan Sungai Korok","Alor Setar","KDH"
"05400","Jalan Sungai Petani (Km 5)","Alor Setar","KDH"
"05400","Kampung Alor Belat","Alor Setar","KDH"
"05400","Kampung Alor Gelegah","Alor Setar","KDH"
"05400","Kampung Alor Keriang","Alor Setar","KDH"
"05400","Kampung Alor Mengkudu","Alor Setar","KDH"
"05400","Kampung Alor Pangsa","Alor Setar","KDH"
"05400","Kampung Alor Penyengat","Alor Setar","KDH"
"05400","Kampung Alor Selut","Alor Setar","KDH"
"05400","Kampung Alor Terong","Alor Setar","KDH"
"05400","Kampung Bok Bok","Alor Setar","KDH"
"05400","Kampung Ganding","Alor Setar","KDH"
"05400","Kampung Hutan Gelagah","Alor Setar","KDH"
"05400","Kampung Kebun Pinang","Alor Setar","KDH"
"05400","Kampung Kelompang (Mukim Derga)","Alor Setar","KDH"
"05400","Kampung Keriang Pulau","Alor Setar","KDH"
"05400","Kampung Kilat","Alor Setar","KDH"
"05400","Kampung Kolam","Alor Setar","KDH"
"05400","Kampung Kuala Alor","Alor Setar","KDH"
"05400","Kampung Lahar Buaya","Alor Setar","KDH"
"05400","Kampung Lehar Budi","Alor Setar","KDH"
"05400","Kampung Luar","Alor Setar","KDH"
"05400","Kampung Padang (Mukim Derga)","Alor Setar","KDH"
"05400","Kampung Padang Besar","Alor Setar","KDH"
"05400","Kampung Padang Capa","Alor Setar","KDH"
"05400","Kampung Padang Mengkudu","Alor Setar","KDH"
"05400","Kampung Padang Raja","Alor Setar","KDH"
"05400","Kampung Pegawai","Alor Setar","KDH"
"05400","Kampung Penghulu Hashim","Alor Setar","KDH"
"05400","Kampung Penghulu Lama","Alor Setar","KDH"
"05400","Kampung Pengkalan Putat","Alor Setar","KDH"
"05400","Kampung Seberang Alor (Tandop)","Alor Setar","KDH"
"05400","Kampung Selarong Lalang Kanan","Alor Setar","KDH"
"05400","Kampung Selarong Lalang Kiri","Alor Setar","KDH"
"05400","Kampung Selarong Lalang","Alor Setar","KDH"
"05400","Kampung Tanjong Bayam","Alor Setar","KDH"
"05400","Kampung Telok Bagan","Alor Setar","KDH"
"05400","Kampung Telok Kandih","Alor Setar","KDH"
"05400","Kampung Telok","Alor Setar","KDH"
"05400","Kampung Tengah (Teluk Bagan)","Alor Setar","KDH"
"05400","Kampung Titi Keling","Alor Setar","KDH"
"05400","Kampung Tok Jering","Alor Setar","KDH"
"05400","Kampung Tok Keling","Alor Setar","KDH"
"05400","Kampung Tok Layang","Alor Setar","KDH"
"05400","Kampung Tok Sabil","Alor Setar","KDH"
"05400","Kampung Tok Sadu","Alor Setar","KDH"
"05400","Kampung Tok Seron","Alor Setar","KDH"
"05400","Lebuhraya Sultan Abdul Halim","Alor Setar","KDH"
"05400","Lorong Batek","Alor Setar","KDH"
"05400","Lorong Kelab","Alor Setar","KDH"
"05400","Lorong Kilang Papan","Alor Setar","KDH"
"05400","Lorong Layang-Layang","Alor Setar","KDH"
"05400","Lorong Merdeka","Alor Setar","KDH"
"05400","Lorong Najjah","Alor Setar","KDH"
"05400","Lorong Siak","Alor Setar","KDH"
"05400","Lorong Tok Kong","Alor Setar","KDH"
"05400","Lorong Tunku Muhammad","Alor Setar","KDH"
"05400","Lorong Wan Muhammad Saman","Alor Setar","KDH"
"05400","Sempadan Sungai Kedah","Alor Setar","KDH"
"05400","Simpang Kuala","Alor Setar","KDH"
"05400","Taman Bee Bee","Alor Setar","KDH"
"05400","Taman Bersatu Jaya","Alor Setar","KDH"
"05400","Taman Dahlia","Alor Setar","KDH"
"05400","Taman Desa Barat","Alor Setar","KDH"
"05400","Taman Desa Damai","Alor Setar","KDH"
"05400","Taman Desa Kamalia","Alor Setar","KDH"
"05400","Taman Desa Wawasan","Alor Setar","KDH"
"05400","Taman Desarena","Alor Setar","KDH"
"05400","Taman Gunong Jerai","Alor Setar","KDH"
"05400","Taman Gunong Tahan","Alor Setar","KDH"
"05400","Taman Gunung Bayu B","Alor Setar","KDH"
"05400","Taman Gunung Inas","Alor Setar","KDH"
"05400","Taman Gunung Indah","Alor Setar","KDH"
"05400","Taman Gunung Perak","Alor Setar","KDH"
"05400","Taman Keranji (Jalan Alor Mengkudu)","Alor Setar","KDH"
"05400","Taman Kiara","Alor Setar","KDH"
"05400","Taman Mewah Jaya","Alor Setar","KDH"
"05400","Taman Padi Emas","Alor Setar","KDH"
"05400","Taman Pulasan","Alor Setar","KDH"
"05400","Taman Rasa Sayang","Alor Setar","KDH"
"05400","Taman Saga","Alor Setar","KDH"
"05400","Taman Sawa","Alor Setar","KDH"
"05400","Taman Selesa","Alor Setar","KDH"
"05400","Taman Sentosa","Alor Setar","KDH"
"05400","Taman Seri Bagan","Alor Setar","KDH"
"05400","Taman Seri Fajar","Alor Setar","KDH"
"05400","Taman Seri Mengkudu","Alor Setar","KDH"
"05400","Taman Seri Mewah","Alor Setar","KDH"
"05400","Taman Seri Taman","Alor Setar","KDH"
"05400","Taman Sophia","Alor Setar","KDH"
"05400","Taman Sopiah","Alor Setar","KDH"
"05400","Taman Sri Pagi","Alor Setar","KDH"
"05400","Taman Star","Alor Setar","KDH"
"05400","Taman Tengku Yakoob","Alor Setar","KDH"
"05400","Taman Titiwangsa","Alor Setar","KDH"
"05400","Tandop","Alor Setar","KDH"
"05400","Titi Keling","Alor Setar","KDH"
"05460","Alor Malai","Alor Setar","KDH"
"05460","Jalan Kampung Haji Burhan","Alor Setar","KDH"
"05460","Jalan Langgar","Alor Setar","KDH"
"05460","Jalan Raja","Alor Setar","KDH"
"05460","Jalan Tengku Ibrahim","Alor Setar","KDH"
"05460","Kampung Baru Alor Malai","Alor Setar","KDH"
"05460","Kampung Batu Tiga","Alor Setar","KDH"
"05460","Kampung Burhan","Alor Setar","KDH"
"05460","Kampung Che Poh","Alor Setar","KDH"
"05460","Kampung Macik Manjalara","Alor Setar","KDH"
"05460","Kampung Mak Chik","Alor Setar","KDH"
"05460","Kampung Sakar","Alor Setar","KDH"
"05460","Kampung Simpang Tiga (Langgar)","Alor Setar","KDH"
"05460","Kampung Tengah Padang","Alor Setar","KDH"
"05460","Kampung Tenteram","Alor Setar","KDH"
"05460","Lorong Haji Hassan","Alor Setar","KDH"
"05460","Lorong Kampung Borhan","Alor Setar","KDH"
"05460","Lorong Sepakat","Alor Setar","KDH"
"05460","Perumahan Awam Alor Malai","Alor Setar","KDH"
"05460","Taman Amal","Alor Setar","KDH"
"05460","Taman Ariff Jaya","Alor Setar","KDH"
"05460","Taman Cenderawasih","Alor Setar","KDH"
"05460","Taman Chenggal","Alor Setar","KDH"
"05460","Taman Dato Kumbar","Alor Setar","KDH"
"05460","Taman Datuk Jaya","Alor Setar","KDH"
"05460","Taman Delima Jaya","Alor Setar","KDH"
"05460","Taman Delima","Alor Setar","KDH"
"05460","Taman Derga Jaya","Alor Setar","KDH"
"05460","Taman Glorious","Alor Setar","KDH"
"05460","Taman Gloris","Alor Setar","KDH"
"05460","Taman Gunung Ledang (Jalan Kuala Kedah)","Alor Setar","KDH"
"05460","Taman Jati","Alor Setar","KDH"
"05460","Taman Jaya","Alor Setar","KDH"
"05460","Taman Kelana","Alor Setar","KDH"
"05460","Taman Kiara","Alor Setar","KDH"
"05460","Taman Malai","Alor Setar","KDH"
"05460","Taman Melor","Alor Setar","KDH"
"05460","Taman Mesra","Alor Setar","KDH"
"05460","Taman Mewah","Alor Setar","KDH"
"05460","Taman Nakishah","Alor Setar","KDH"
"05460","Taman Nilam","Alor Setar","KDH"
"05460","Taman Pulai Jaya Baru","Alor Setar","KDH"
"05460","Taman Pulai Jaya","Alor Setar","KDH"
"05460","Taman Puspa Kencana","Alor Setar","KDH"
"05460","Taman Raja Wali Indah","Alor Setar","KDH"
"05460","Taman Sahab","Alor Setar","KDH"
"05460","Taman Seri Derga","Alor Setar","KDH"
"05460","Taman Seri Mewah (Jalan Langar)","Alor Setar","KDH"
"05460","Taman Seri Permai","Alor Setar","KDH"
"05460","Taman Seri Setia","Alor Setar","KDH"
"05460","Taman Setia Jaya","Alor Setar","KDH"
"05460","Taman Shahab","Alor Setar","KDH"
"05460","Taman Soon Thye","Alor Setar","KDH"
"05460","Taman Tunku Husna","Alor Setar","KDH"
"05500","DYMM Sultan Kedah","Alor Setar","KDH"
"05502","Penyelia Bangunan Persekutuan","Alor Setar","KDH"
"05502","YAB Menteri Besar Kedah","Alor Setar","KDH"
"05503","Setiausaha Kerajaan Negeri","Alor Setar","KDH"
"05504","Biro Bantuan Guaman","Alor Setar","KDH"
"05505","Biro Pengaduan Awam","Alor Setar","KDH"
"05506","Mahkamah Tinggi","Alor Setar","KDH"
"05508","Amanah Raya Berhad","Alor Setar","KDH"
"05512","Penasihat Undang-Undang Negeri","Alor Setar","KDH"
"05514","Jabatan Perangkaan","Alor Setar","KDH"
"05516","Jabatan Pemegang Harta","Alor Setar","KDH"
"05517","Jabatan Perpaduan Negara","Alor Setar","KDH"
"05518","Jabatan Audit Negeri","Alor Setar","KDH"
"05520","Suruhanjaya Perkhidmatan Awam","Alor Setar","KDH"
"05532","Jabatan Sumber Manusia","Alor Setar","KDH"
"05534","Jabatan Kilang & Jentera","Alor Setar","KDH"
"05536","Jabatan Perhubungan Perusahaan","Alor Setar","KDH"
"05538","Jabatan Keselamatan Sosial (Perkeso)","Alor Setar","KDH"
"05550","Jabatan Imigresen","Alor Setar","KDH"
"05551","Jabatan Pendaftaran Negara","Alor Setar","KDH"
"05552","Jabatan Pendaftar Pertubuhan","Alor Setar","KDH"
"05556","Jabatan Pertahanan Awam","Alor Setar","KDH"
"05558","Jabatan Penjara","Alor Setar","KDH"
"05560","Ketua Polis Negeri","Alor Setar","KDH"
"05564","Jabatan Kebajikan Masyarakat","Alor Setar","KDH"
"05576","Jabatan Tanah & Galian","Alor Setar","KDH"
"05578","Jabatan Ukur & Pemetaan","Alor Setar","KDH"
"05580","Jabatan Kerja Air","Alor Setar","KDH"
"05582","Jabatan Kerja Raya","Alor Setar","KDH"
"05586","Hospital Alor Setar","Alor Setar","KDH"
"05590","Jabatan Kesihatan","Alor Setar","KDH"
"05592","Jabatan Penilaian Harta","Alor Setar","KDH"
"05592","Jabatan PerBendaharaan","Alor Setar","KDH"
"05594","Akauntan Negeri","Alor Setar","KDH"
"05600","Lembaga Hasil Dalam Negeri","Alor Setar","KDH"
"05604","Jabatan Pendidikan","Alor Setar","KDH"
"05610","Bahagian Perlesenan - Kementerian Penerangan","Alor Setar","KDH"
"05612","Jabatan Penerangan","Alor Setar","KDH"
"05614","Jabatan Penyiaran","Alor Setar","KDH"
"05620","Jabatan Pengangkutan Jalan","Alor Setar","KDH"
"05621","Pejabat Pentadbiran KTM (Alor Setar)","Alor Setar","KDH"
"05622","Jabatan Pendaftar Perniagaan","Alor Setar","KDH"
"05626","Jabatan Pengairan & Saliran","Alor Setar","KDH"
"05628","Jabatan Perikanan","Alor Setar","KDH"
"05630","Jabatan Haiwan","Alor Setar","KDH"
"05632","Jabatan Pertanian","Alor Setar","KDH"
"05644","Jabatan Perumahan Negara","Alor Setar","KDH"
"05660","Jabatan Perhutanan","Alor Setar","KDH"
"05661","Padi & Beras Nasional (Bernas)","Alor Setar","KDH"
"05664","Jabatan Perhilitan","Alor Setar","KDH"
"05670","Pos Malaysia Berhad","Alor Setar","KDH"
"05672","Telekom Malaysia Berhad","Alor Setar","KDH"
"05673","Tenaga Nasional Berhad","Alor Setar","KDH"
"05674","Pegawai Kemajuan Negeri","Alor Setar","KDH"
"05675","Majlis Perbandaran Kota Setar","Alor Setar","KDH"
"05676","Jabatan Agama Islam Kedah","Alor Setar","KDH"
"05680","Dewan Undangan Negeri","Alor Setar","KDH"
"05690","Suruhanjaya Pilihanraya Negeri","Alor Setar","KDH"
"05696","Jabatan Kastam & Eksais Di Raja","Alor Setar","KDH"
"05700","Alor Setar - Peti surat 1 - 80","Alor Setar","KDH"
"05710","Alor Setar - Peti surat 81 - 160","Alor Setar","KDH"
"05720","Alor Setar - Peti surat 161 & ke atas","Alor Setar","KDH"
"05990","Alor Setar - Beg berkunci","Alor Setar","KDH"
"06000","Ason","Jitra","KDH"
"06000","Bandar Baru Darulaman","Jitra","KDH"
"06000","Cherok Ketiak","Jitra","KDH"
"06000","Flat Kelubi","Jitra","KDH"
"06000","Guar Napai","Jitra","KDH"
"06000","Jitra Jaya","Jitra","KDH"
"06000","Jitra","Jitra","KDH"
"06000","Kampung Alor Batu","Jitra","KDH"
"06000","Kampung Alor Janggus","Jitra","KDH"
"06000","Kampung Alor Rambai","Jitra","KDH"
"06000","Kampung Alor Tok Chik","Jitra","KDH"
"06000","Kampung Aman","Jitra","KDH"
"06000","Kampung Ason","Jitra","KDH"
"06000","Kampung Bagan Jeram","Jitra","KDH"
"06000","Kampung Bagan","Jitra","KDH"
"06000","Kampung Banai","Jitra","KDH"
"06000","Kampung Baru Jeram","Jitra","KDH"
"06000","Kampung Bata","Jitra","KDH"
"06000","Kampung Batu 17 (Jalan Kodiang)","Jitra","KDH"
"06000","Kampung Belukar","Jitra","KDH"
"06000","Kampung Bemban","Jitra","KDH"
"06000","Kampung Bendang Dalam","Jitra","KDH"
"06000","Kampung Biak","Jitra","KDH"
"06000","Kampung Binjal","Jitra","KDH"
"06000","Kampung Budi","Jitra","KDH"
"06000","Kampung Bukit Berangan","Jitra","KDH"
"06000","Kampung Bukit Beruas","Jitra","KDH"
"06000","Kampung Bukit","Jitra","KDH"
"06000","Kampung Buluh Nipis","Jitra","KDH"
"06000","Kampung Celam","Jitra","KDH"
"06000","Kampung Celong","Jitra","KDH"
"06000","Kampung Changkat Tok Raman","Jitra","KDH"
"06000","Kampung Changkat","Jitra","KDH"
"06000","Kampung Chegar Jeram","Jitra","KDH"
"06000","Kampung Chegar","Jitra","KDH"
"06000","Kampung Cherok Latah","Jitra","KDH"
"06000","Kampung Cherok Mokan","Jitra","KDH"
"06000","Kampung Darat","Jitra","KDH"
"06000","Kampung Gelong Rambai","Jitra","KDH"
"06000","Kampung Guar Jeram","Jitra","KDH"
"06000","Kampung Guar Tanah Rancangan","Jitra","KDH"
"06000","Kampung Guar Tanah Rang","Jitra","KDH"
"06000","Kampung Hosba","Jitra","KDH"
"06000","Kampung Huma","Jitra","KDH"
"06000","Kampung Hutan Getah","Jitra","KDH"
"06000","Kampung Hutan Setali","Jitra","KDH"
"06000","Kampung Hutan Terabak","Jitra","KDH"
"06000","Kampung Iman","Jitra","KDH"
"06000","Kampung Jenalik","Jitra","KDH"
"06000","Kampung Jeram","Jitra","KDH"
"06000","Kampung Jerangan","Jitra","KDH"
"06000","Kampung Kandis","Jitra","KDH"
"06000","Kampung Kebun Jalil","Jitra","KDH"
"06000","Kampung Kelubi","Jitra","KDH"
"06000","Kampung Kemunting","Jitra","KDH"
"06000","Kampung Kepala Batu","Jitra","KDH"
"06000","Kampung Kepala Bukit","Jitra","KDH"
"06000","Kampung Ketul","Jitra","KDH"
"06000","Kampung Kota Mengkuang","Jitra","KDH"
"06000","Kampung Kota Rentang","Jitra","KDH"
"06000","Kampung Kubang Betong","Jitra","KDH"
"06000","Kampung Kubang Lembu","Jitra","KDH"
"06000","Kampung Kubang Lintah","Jitra","KDH"
"06000","Kampung Kubang Pasu","Jitra","KDH"
"06000","Kampung Kubu","Jitra","KDH"
"06000","Kampung Kun Luang","Jitra","KDH"
"06000","Kampung Lahar","Jitra","KDH"
"06000","Kampung Lama","Jitra","KDH"
"06000","Kampung Lembah Abu","Jitra","KDH"
"06000","Kampung Lembah Arang","Jitra","KDH"
"06000","Kampung Lembah Bata","Jitra","KDH"
"06000","Kampung Lembah","Jitra","KDH"
"06000","Kampung Lubok Batu","Jitra","KDH"
"06000","Kampung Lubok Ipoh","Jitra","KDH"
"06000","Kampung Lubok Kawah","Jitra","KDH"
"06000","Kampung Lubok","Jitra","KDH"
"06000","Kampung Macang","Jitra","KDH"
"06000","Kampung Makpap","Jitra","KDH"
"06000","Kampung Malau Jitra","Jitra","KDH"
"06000","Kampung Manggol","Jitra","KDH"
"06000","Kampung Matang Keriang","Jitra","KDH"
"06000","Kampung Matang Nibong","Jitra","KDH"
"06000","Kampung Matang Pinang","Jitra","KDH"
"06000","Kampung Muhibah","Jitra","KDH"
"06000","Kampung Napor","Jitra","KDH"
"06000","Kampung Natoi","Jitra","KDH"
"06000","Kampung Nongka","Jitra","KDH"
"06000","Kampung Padang Asam","Jitra","KDH"
"06000","Kampung Padang Asun","Jitra","KDH"
"06000","Kampung Padang Belanga","Jitra","KDH"
"06000","Kampung Padang Curah","Jitra","KDH"
"06000","Kampung Padang Lalang","Jitra","KDH"
"06000","Kampung Padang Luar","Jitra","KDH"
"06000","Kampung Padang Ludap","Jitra","KDH"
"06000","Kampung Padang Panjang","Jitra","KDH"
"06000","Kampung Padang Pekan","Jitra","KDH"
"06000","Kampung Padang Perahu","Jitra","KDH"
"06000","Kampung Pahana","Jitra","KDH"
"06000","Kampung Panchor","Jitra","KDH"
"06000","Kampung Pantai Halban","Jitra","KDH"
"06000","Kampung Parit Tok Lam","Jitra","KDH"
"06000","Kampung Pasir Tambun","Jitra","KDH"
"06000","Kampung Paya Kecut","Jitra","KDH"
"06000","Kampung Paya Kerchut","Jitra","KDH"
"06000","Kampung Paya Keriang","Jitra","KDH"
"06000","Kampung Paya Pulau Dudur","Jitra","KDH"
"06000","Kampung Paya Tok The","Jitra","KDH"
"06000","Kampung Paya","Jitra","KDH"
"06000","Kampung Pedang Pekan","Jitra","KDH"
"06000","Kampung Pelubang","Jitra","KDH"
"06000","Kampung Penia","Jitra","KDH"
"06000","Kampung Perupuk","Jitra","KDH"
"06000","Kampung Pochong","Jitra","KDH"
"06000","Kampung Pulau Capa","Jitra","KDH"
"06000","Kampung Pulau Kain","Jitra","KDH"
"06000","Kampung Pulau Kecil","Jitra","KDH"
"06000","Kampung Pulau Ketam","Jitra","KDH"
"06000","Kampung Pulau Maharaja","Jitra","KDH"
"06000","Kampung Pulau Nyior","Jitra","KDH"
"06000","Kampung Pulau Pak Ubin","Jitra","KDH"
"06000","Kampung Pulau Pisang","Jitra","KDH"
"06000","Kampung Pulau Timbul","Jitra","KDH"
"06000","Kampung Putat","Jitra","KDH"
"06000","Kampung Raja","Jitra","KDH"
"06000","Kampung Salib","Jitra","KDH"
"06000","Kampung Seberang Alor","Jitra","KDH"
"06000","Kampung Selarong","Jitra","KDH"
"06000","Kampung Sungai Baru","Jitra","KDH"
"06000","Kampung Tandop Baru Matang Kena","Jitra","KDH"
"06000","Kampung Tandop","Jitra","KDH"
"06000","Kampung Tanjong Kapor","Jitra","KDH"
"06000","Kampung Tanjong Putus","Jitra","KDH"
"06000","Kampung Tanjong","Jitra","KDH"
"06000","Kampung Tebing","Jitra","KDH"
"06000","Kampung Telok Ara","Jitra","KDH"
"06000","Kampung Telok Berangan","Jitra","KDH"
"06000","Kampung Telok Gelam","Jitra","KDH"
"06000","Kampung Telok Keluang","Jitra","KDH"
"06000","Kampung Telok Malik","Jitra","KDH"
"06000","Kampung Telok Nibong","Jitra","KDH"
"06000","Kampung Telok Tengiri","Jitra","KDH"
"06000","Kampung Telok","Jitra","KDH"
"06000","Kampung Temalang","Jitra","KDH"
"06000","Kampung Tengah","Jitra","KDH"
"06000","Kampung Titi Panjang","Jitra","KDH"
"06000","Kampung Tok Jalai","Jitra","KDH"
"06000","Kampung Tok Kesop","Jitra","KDH"
"06000","Kampung Tok Tambak","Jitra","KDH"
"06000","Kampung Tok Ya","Jitra","KDH"
"06000","Kampung Tualang","Jitra","KDH"
"06000","Kampung Wan Perah","Jitra","KDH"
"06000","Kampung Wang Tepus","Jitra","KDH"
"06000","Kolej Darulaman Height","Jitra","KDH"
"06000","Kota Mengkuang","Jitra","KDH"
"06000","Kota Siam","Jitra","KDH"
"06000","Lembah Arang","Jitra","KDH"
"06000","Pelubang","Jitra","KDH"
"06000","Pida 3 Batu 17","Jitra","KDH"
"06000","Taman Bahagia 2","Jitra","KDH"
"06000","Taman Bahagia","Jitra","KDH"
"06000","Taman Bersatu 2","Jitra","KDH"
"06000","Taman Bersatu","Jitra","KDH"
"06000","Taman Bunga Raya","Jitra","KDH"
"06000","Taman Cahaya","Jitra","KDH"
"06000","Taman Cempaka","Jitra","KDH"
"06000","Taman Chermai","Jitra","KDH"
"06000","Taman Damai Jaya","Jitra","KDH"
"06000","Taman Darulaman Jaya (1 & 2)","Jitra","KDH"
"06000","Taman Darulaman","Jitra","KDH"
"06000","Taman Delima","Jitra","KDH"
"06000","Taman Desa Damai","Jitra","KDH"
"06000","Taman Desa Darulaman","Jitra","KDH"
"06000","Taman Desa Halban","Jitra","KDH"
"06000","Taman Desa Murni","Jitra","KDH"
"06000","Taman Desa Perdana","Jitra","KDH"
"06000","Taman Desa Tanjung","Jitra","KDH"
"06000","Taman Gemilang","Jitra","KDH"
"06000","Taman Hosba","Jitra","KDH"
"06000","Taman Ihsan","Jitra","KDH"
"06000","Taman Indera","Jitra","KDH"
"06000","Taman Jalai Jaya","Jitra","KDH"
"06000","Taman Jitra 1","Jitra","KDH"
"06000","Taman Jitra 2","Jitra","KDH"
"06000","Taman Jitra Indah","Jitra","KDH"
"06000","Taman Kantan","Jitra","KDH"
"06000","Taman Keda Binjal","Jitra","KDH"
"06000","Taman Kelisa","Jitra","KDH"
"06000","Taman Kenanga 2","Jitra","KDH"
"06000","Taman Kenanga","Jitra","KDH"
"06000","Taman Kubang Pasu 2","Jitra","KDH"
"06000","Taman Kubang Pasu","Jitra","KDH"
"06000","Taman Mahkota","Jitra","KDH"
"06000","Taman Mahsuri","Jitra","KDH"
"06000","Taman Makmur","Jitra","KDH"
"06000","Taman Malinja","Jitra","KDH"
"06000","Taman Maluri","Jitra","KDH"
"06000","Taman Mawar","Jitra","KDH"
"06000","Taman Melati Tunjang","Jitra","KDH"
"06000","Taman Melor","Jitra","KDH"
"06000","Taman Muhibbah","Jitra","KDH"
"06000","Taman Mutiara Naga","Jitra","KDH"
"06000","Taman Mutiara","Jitra","KDH"
"06000","Taman Pasu","Jitra","KDH"
"06000","Taman Perdana","Jitra","KDH"
"06000","Taman Permata","Jitra","KDH"
"06000","Taman Perumahan Awam Tanah Merah","Jitra","KDH"
"06000","Taman Pulasan","Jitra","KDH"
"06000","Taman Rahmat","Jitra","KDH"
"06000","Taman Rasa Sayang","Jitra","KDH"
"06000","Taman Rhu","Jitra","KDH"
"06000","Taman Ria","Jitra","KDH"
"06000","Taman Saujana","Jitra","KDH"
"06000","Taman Sepadu","Jitra","KDH"
"06000","Taman Seri Damai","Jitra","KDH"
"06000","Taman Seri Indah","Jitra","KDH"
"06000","Taman Seri Jitra","Jitra","KDH"
"06000","Taman Seri Kemuning (1 & 2)","Jitra","KDH"
"06000","Taman Seri Makmur","Jitra","KDH"
"06000","Taman Seri Nyior","Jitra","KDH"
"06000","Taman Seri Pelangi","Jitra","KDH"
"06000","Taman Seri Utama","Jitra","KDH"
"06000","Taman Setia Jaya","Jitra","KDH"
"06000","Taman Setiaja","Jitra","KDH"
"06000","Taman Sinaran","Jitra","KDH"
"06000","Taman Sireh","Jitra","KDH"
"06000","Taman Sri Cempaka","Jitra","KDH"
"06000","Taman Sri Halban","Jitra","KDH"
"06000","Taman Sri Murni","Jitra","KDH"
"06000","Taman Sri Nyiur 2","Jitra","KDH"
"06000","Taman Sri Utama","Jitra","KDH"
"06000","Taman Suasana Damai","Jitra","KDH"
"06000","Taman Suasana Indah","Jitra","KDH"
"06000","Taman Suria (1,2,3 & 5)","Jitra","KDH"
"06000","Taman Suria","Jitra","KDH"
"06000","Taman Tanjung","Jitra","KDH"
"06000","Taman Tengku Anum","Jitra","KDH"
"06000","Taman Tengku Maheran","Jitra","KDH"
"06000","Taman Tengku Sarina","Jitra","KDH"
"06000","Taman Teratai","Jitra","KDH"
"06000","Taman Tiong","Jitra","KDH"
"06000","Taman Wira Mas","Jitra","KDH"
"06000","Tanah Merah","Jitra","KDH"
"06000","Tanjung Pauh","Jitra","KDH"
"06000","Tok Jalai","Jitra","KDH"
"06000","Tunjang","Jitra","KDH"
"06007","Jitra - Peti surat","Jitra","KDH"
"06009","Jitra - Beg berkunci","Jitra","KDH"
"06010","Changloon","Changloon","KDH"
"06010","Kampung Teradisi Lembah Arang ","Changloon","KDH"
"06010","Taman Cengal","Changloon","KDH"
"06010","Taman Sayang","Changloon","KDH"
"06010","Taman Sri Menanti","Changloon","KDH"
"06010","Taman Teja","Changloon","KDH"
"06010","Universiti Utara Malaysia","Universiti Utara Malaysia","KDH"
"06050","Bukit Kayu Hitam","Bukit Kayu Hitam","KDH"
"06050","Felda Batu 8","Bukit Kayu Hitam","KDH"
"06050","Felda Bukit Tangga","Bukit Kayu Hitam","KDH"
"06050","Kampung Baru Changai","Bukit Kayu Hitam","KDH"
"06050","Kampung Batas","Bukit Kayu Hitam","KDH"
"06050","Kampung Bendang Cherok","Bukit Kayu Hitam","KDH"
"06050","Kampung Bendang Nerang","Bukit Kayu Hitam","KDH"
"06050","Kampung Bendang Tok Leh","Bukit Kayu Hitam","KDH"
"06050","Kampung Bendang","Bukit Kayu Hitam","KDH"
"06050","Kampung Changkat Selat","Bukit Kayu Hitam","KDH"
"06050","Kampung Changkat Setol","Bukit Kayu Hitam","KDH"
"06050","Kampung Guar Jenalik","Bukit Kayu Hitam","KDH"
"06050","Kampung Kangar","Bukit Kayu Hitam","KDH"
"06050","Kampung Kepala Kerbau","Bukit Kayu Hitam","KDH"
"06050","Kampung Kubang Nerang","Bukit Kayu Hitam","KDH"
"06050","Kampung Lanterom","Bukit Kayu Hitam","KDH"
"06050","Kampung Lembah Palas","Bukit Kayu Hitam","KDH"
"06050","Kampung Masjid","Bukit Kayu Hitam","KDH"
"06050","Kampung Padang Halban","Bukit Kayu Hitam","KDH"
"06050","Kampung Padang Pasir","Bukit Kayu Hitam","KDH"
"06050","Kampung Paya Lantan","Bukit Kayu Hitam","KDH"
"06050","Kampung Paya Nongmi","Bukit Kayu Hitam","KDH"
"06050","Kampung Sungai Kelian","Bukit Kayu Hitam","KDH"
"06050","Kampung Sungai Petani","Bukit Kayu Hitam","KDH"
"06050","Kampung Tanjong Ganting","Bukit Kayu Hitam","KDH"
"06050","Kampung Titi Kerbau","Bukit Kayu Hitam","KDH"
"06050","Kampung Tok Paroh","Bukit Kayu Hitam","KDH"
"06050","Ladang Kiap Loong","Bukit Kayu Hitam","KDH"
"06050","Ladang Rakyat","Bukit Kayu Hitam","KDH"
"06100","Jalan Kodiang (Batu 20 - 22)","Kodiang","KDH"
"06100","Jalan Kodiang (Km 37)","Kodiang","KDH"
"06100","Kampung Alor","Kodiang","KDH"
"06100","Kampung Baru","Kodiang","KDH"
"06100","Kampung Batu 1 Sanglang","Kodiang","KDH"
"06100","Kampung Batu 4 (Jalan Sanglang)","Kodiang","KDH"
"06100","Kampung Batu 5","Kodiang","KDH"
"06100","Kampung Belukar","Kodiang","KDH"
"06100","Kampung Bendahara","Kodiang","KDH"
"06100","Kampung Bukit Hantu","Kodiang","KDH"
"06100","Kampung Changkat Bulang","Kodiang","KDH"
"06100","Kampung Changkat Logan","Kodiang","KDH"
"06100","Kampung Damai","Kodiang","KDH"
"06100","Kampung Gajah Puteh","Kodiang","KDH"
"06100","Kampung Guar (Jalan Changloon)","Kodiang","KDH"
"06100","Kampung Guar Batu Hitam","Kodiang","KDH"
"06100","Kampung Hutan Palas","Kodiang","KDH"
"06100","Kampung Kandis","Kodiang","KDH"
"06100","Kampung Kodiang Dalam","Kodiang","KDH"
"06100","Kampung Kodiang Luar","Kodiang","KDH"
"06100","Kampung Kolam","Kodiang","KDH"
"06100","Kampung Kota","Kodiang","KDH"
"06100","Kampung Kubang Beruang","Kodiang","KDH"
"06100","Kampung Kubang Chenok","Kodiang","KDH"
"06100","Kampung Kubang Menerong Dalam","Kodiang","KDH"
"06100","Kampung Kubang Menerong","Kodiang","KDH"
"06100","Kampung Lubok Remia","Kodiang","KDH"
"06100","Kampung Melele","Kodiang","KDH"
"06100","Kampung Meribut","Kodiang","KDH"
"06100","Kampung Pak Chik","Kodiang","KDH"
"06100","Kampung Paya","Kodiang","KDH"
"06100","Kampung Periang","Kodiang","KDH"
"06100","Kampung Pering","Kodiang","KDH"
"06100","Kampung Pulau Kabu","Kodiang","KDH"
"06100","Kampung Pulau Siputeh","Kodiang","KDH"
"06100","Kampung Raja","Kodiang","KDH"
"06100","Kampung SC","Kodiang","KDH"
"06100","Kampung Seberang","Kodiang","KDH"
"06100","Kampung Siputeh","Kodiang","KDH"
"06100","Kampung Tengah","Kodiang","KDH"
"06100","Kampung Tok Arang","Kodiang","KDH"
"06100","Kampung Tok Kepak","Kodiang","KDH"
"06100","Kampung Tok Kong","Kodiang","KDH"
"06100","Kampung Wang","Kodiang","KDH"
"06100","Kodiang","Kodiang","KDH"
"06100","Megat Dewa","Kodiang","KDH"
"06100","Padang Sera","Kodiang","KDH"
"06100","Pekan Stesyen Kodiang","Kodiang","KDH"
"06100","Pida 1 - 12","Kodiang","KDH"
"06100","Pida 1 - 2 (Mukim Ah)","Kodiang","KDH"
"06100","Pida 1 - 5 (Mukim Putat)","Kodiang","KDH"
"06100","Pida 10 (Mukim Ah)","Kodiang","KDH"
"06100","Sintok","Kodiang","KDH"
"06150","Ayer Hitam","Ayer Hitam","KDH"
"06150","Jalan Sungai Korok (Batu 9 1/2)","Ayer Hitam","KDH"
"06150","Kampung Alor Biak","Ayer Hitam","KDH"
"06150","Kampung Baru Kuala Sanglang","Ayer Hitam","KDH"
"06150","Kampung Batas Bengkok","Ayer Hitam","KDH"
"06150","Kampung Batu 6 1/2","Ayer Hitam","KDH"
"06150","Kampung Batu 6","Ayer Hitam","KDH"
"06150","Kampung Batu 7","Ayer Hitam","KDH"
"06150","Kampung Bohor Karang","Ayer Hitam","KDH"
"06150","Kampung Gandai","Ayer Hitam","KDH"
"06150","Kampung Gerbi","Ayer Hitam","KDH"
"06150","Kampung Golok Putting","Ayer Hitam","KDH"
"06150","Kampung Gurindam","Ayer Hitam","KDH"
"06150","Kampung Jerlun","Ayer Hitam","KDH"
"06150","Kampung Jeruju","Ayer Hitam","KDH"
"06150","Kampung Kerpan Kechil","Ayer Hitam","KDH"
"06150","Kampung Kuala Jerlun","Ayer Hitam","KDH"
"06150","Kampung Kuala Kerpan","Ayer Hitam","KDH"
"06150","Kampung Kubang Nipah","Ayer Hitam","KDH"
"06150","Kampung Kubang Sepat","Ayer Hitam","KDH"
"06150","Kampung Lana Bulu","Ayer Hitam","KDH"
"06150","Kampung Lubok Ayer","Ayer Hitam","KDH"
"06150","Kampung Lubok Gokgek","Ayer Hitam","KDH"
"06150","Kampung Lubok Pinang","Ayer Hitam","KDH"
"06150","Kampung Padang China","Ayer Hitam","KDH"
"06150","Kampung Padang Gelanggang","Ayer Hitam","KDH"
"06150","Kampung Padang Lalang","Ayer Hitam","KDH"
"06150","Kampung Permatang Bonglai","Ayer Hitam","KDH"
"06150","Kampung Permatang Kerengga","Ayer Hitam","KDH"
"06150","Kampung Pida 13","Ayer Hitam","KDH"
"06150","Kampung Pida 14","Ayer Hitam","KDH"
"06150","Kampung Pida 15","Ayer Hitam","KDH"
"06150","Kampung Sanglang","Ayer Hitam","KDH"
"06150","Kampung Sematang Kerpan","Ayer Hitam","KDH"
"06150","Kampung Telaga Batu","Ayer Hitam","KDH"
"06150","Kampung Telok Tui","Ayer Hitam","KDH"
"06150","Kampung Tok Mengkula","Ayer Hitam","KDH"
"06150","Kuala Sanglang","Ayer Hitam","KDH"
"06150","Lana Bulu","Ayer Hitam","KDH"
"06150","Pida 14","Ayer Hitam","KDH"
"06150","Pida 5 - 8","Ayer Hitam","KDH"
"06150","Pida 8 (Mukim Ah)","Ayer Hitam","KDH"
"06150","Simpang Empat Kerpan","Ayer Hitam","KDH"
"06150","Sungai Baru Kuala Sanglang","Ayer Hitam","KDH"
"06150","Sungai Korok","Ayer Hitam","KDH"
"06150","Taman Seri Sanglang","Ayer Hitam","KDH"
"06200","Bukit Pinang","Kepala Batas","KDH"
"06200","Jalan Kepala Batas","Kepala Batas","KDH"
"06200","Kampung Alor Ganu","Kepala Batas","KDH"
"06200","Kampung Baru (Jalan Padang Tembak)","Kepala Batas","KDH"
"06200","Kampung Batu 8 1/2 (Tok Jelai)","Kepala Batas","KDH"
"06200","Kampung Bukit Inas","Kepala Batas","KDH"
"06200","Kampung Bukit Pala","Kepala Batas","KDH"
"06200","Kampung Bukit Tinggi","Kepala Batas","KDH"
"06200","Kampung Cherok Ayer Pasang","Kepala Batas","KDH"
"06200","Kampung Hilir","Kepala Batas","KDH"
"06200","Kampung Kepala Bendang","Kepala Batas","KDH"
"06200","Kampung Kepala Bukit","Kepala Batas","KDH"
"06200","Kampung Lengkuas","Kepala Batas","KDH"
"06200","Kampung Naga","Kepala Batas","KDH"
"06200","Kampung Padang Gelam","Kepala Batas","KDH"
"06200","Kampung Padang Hassan","Kepala Batas","KDH"
"06200","Kampung Padang Pekan","Kepala Batas","KDH"
"06200","Kampung Padang Sejana","Kepala Batas","KDH"
"06200","Kampung Padang","Kepala Batas","KDH"
"06200","Kampung Pasir","Kepala Batas","KDH"
"06200","Kampung Pengkalan Gelong","Kepala Batas","KDH"
"06200","Kampung Seberang Paya","Kepala Batas","KDH"
"06200","Kampung Telok","Kepala Batas","KDH"
"06200","Kampung Tepi Alor","Kepala Batas","KDH"
"06200","Kampung Titi Baru","Kepala Batas","KDH"
"06200","Kampung Titi Besi","Kepala Batas","KDH"
"06200","Kampung Tok Bugil","Kepala Batas","KDH"
"06200","Kepala Batas","Kepala Batas","KDH"
"06200","Matang Pukang","Kepala Batas","KDH"
"06200","Taman Desa Bukit Tinggi","Kepala Batas","KDH"
"06200","Taman Jalai Jaya","Kepala Batas","KDH"
"06200","Taman Merak","Kepala Batas","KDH"
"06200","Taman Mutiara","Kepala Batas","KDH"
"06200","Taman Pinang Jaya","Kepala Batas","KDH"
"06200","Taman Pinang Merah","Kepala Batas","KDH"
"06200","Taman Sirih","Kepala Batas","KDH"
"06200","Taman Sri Naga","Kepala Batas","KDH"
"06200","Taman Wira Emas","Kepala Batas","KDH"
"06207","Kepala Batas - Peti surat","Kepala Batas","KDH"
"06209","Kepala Batas - Beg berkunci","Kepala Batas","KDH"
"06250","Alor Janggus","Alor Setar","KDH"
"06250","Hujong Mergong","Alor Setar","KDH"
"06250","Jalan Pondok","Alor Setar","KDH"
"06250","Jalan Putra (Km 3 - 14)","Alor Setar","KDH"
"06250","Kampung Alor Janggos","Alor Setar","KDH"
"06250","Kampung Baru Keluncor","Alor Setar","KDH"
"06250","Kampung Besar","Alor Setar","KDH"
"06250","Kampung Hilir Tandop","Alor Setar","KDH"
"06250","Kampung Huma","Alor Setar","KDH"
"06250","Kampung Hutan","Alor Setar","KDH"
"06250","Kampung Jawa","Alor Setar","KDH"
"06250","Kampung Kelompang (Alor Janggus)","Alor Setar","KDH"
"06250","Kampung Kuala Kuar","Alor Setar","KDH"
"06250","Kampung Kuar Jawa","Alor Setar","KDH"
"06250","Kampung Kubang Bongor","Alor Setar","KDH"
"06250","Kampung Kubang Jambu","Alor Setar","KDH"
"06250","Kampung Kubang Lintah","Alor Setar","KDH"
"06250","Kampung Kubang Pangas","Alor Setar","KDH"
"06250","Kampung Kubang Rotan","Alor Setar","KDH"
"06250","Kampung Kubang Siam","Alor Setar","KDH"
"06250","Kampung Lemping","Alor Setar","KDH"
"06250","Kampung Lentang Kubang Jawi","Alor Setar","KDH"
"06250","Kampung Masjid Luar","Alor Setar","KDH"
"06250","Kampung Masjid Luyung","Alor Setar","KDH"
"06250","Kampung Masjid","Alor Setar","KDH"
"06250","Kampung Mempelam","Alor Setar","KDH"
"06250","Kampung Mergong Hilir","Alor Setar","KDH"
"06250","Kampung Mergong","Alor Setar","KDH"
"06250","Kampung Padang Gunong","Alor Setar","KDH"
"06250","Kampung Padang Hang","Alor Setar","KDH"
"06250","Kampung Padang Perak","Alor Setar","KDH"
"06250","Kampung Padang Wat","Alor Setar","KDH"
"06250","Kampung Parit Buaya","Alor Setar","KDH"
"06250","Kampung Permatang Gunung","Alor Setar","KDH"
"06250","Kampung Pondok","Alor Setar","KDH"
"06250","Kampung Seberang Alur","Alor Setar","KDH"
"06250","Kampung Sematang Bogak","Alor Setar","KDH"
"06250","Kampung Simpang Tiga","Alor Setar","KDH"
"06250","Kampung Tandop Kuala Sungai","Alor Setar","KDH"
"06250","Kampung Telaga Tengah","Alor Setar","KDH"
"06250","Kampung Telok Jawa","Alor Setar","KDH"
"06250","Kampung Tengah A","Alor Setar","KDH"
"06250","Kampung Tengah B","Alor Setar","KDH"
"06250","Kuala Sungai Baru","Alor Setar","KDH"
"06250","Kuala Sungai Kubang Rotan","Alor Setar","KDH"
"06250","Kuala Sungai","Alor Setar","KDH"
"06250","Kubang Bonggor","Alor Setar","KDH"
"06250","Kubang Jambu","Alor Setar","KDH"
"06250","Lorong Alor Sematang","Alor Setar","KDH"
"06250","Lorong Kilang","Alor Setar","KDH"
"06250","Lorong Sekolah","Alor Setar","KDH"
"06250","Padang Lalang","Alor Setar","KDH"
"06250","Pecah Batu","Alor Setar","KDH"
"06250","Seberang Kampung Hilir","Alor Setar","KDH"
"06250","Seberang Kampung Masjid","Alor Setar","KDH"
"06250","Sematang Bogak","Alor Setar","KDH"
"06250","Sematang Budi","Alor Setar","KDH"
"06250","Sematang Kubu","Alor Setar","KDH"
"06250","Simpang Empat Kuar","Alor Setar","KDH"
"06250","Sungai Baru (Alor Janggus)","Alor Setar","KDH"
"06250","Sungai Dua","Alor Setar","KDH"
"06250","Sungai Lentang","Alor Setar","KDH"
"06250","Taman Alor Janggus","Alor Setar","KDH"
"06250","Taman Arwana","Alor Setar","KDH"
"06250","Taman Cencaru","Alor Setar","KDH"
"06250","Taman Desa Aman","Alor Setar","KDH"
"06250","Taman Flora","Alor Setar","KDH"
"06250","Taman Inang","Alor Setar","KDH"
"06250","Taman Janggus 2","Alor Setar","KDH"
"06250","Taman Kubang Rotan Fasa 2","Alor Setar","KDH"
"06250","Taman Kubang Rotan","Alor Setar","KDH"
"06250","Taman Maju","Alor Setar","KDH"
"06250","Taman Mergong Indah (Alor Janggus)","Alor Setar","KDH"
"06250","Taman Mergong Jaya 1","Alor Setar","KDH"
"06250","Taman Mergong Jaya 2","Alor Setar","KDH"
"06250","Taman Murni","Alor Setar","KDH"
"06250","Taman Mutiara (Alor Janggus)","Alor Setar","KDH"
"06250","Taman Pesona","Alor Setar","KDH"
"06250","Taman Sayang","Alor Setar","KDH"
"06250","Taman Serampang","Alor Setar","KDH"
"06250","Telaga Juan","Alor Setar","KDH"
"06250","Telok Talipon","Alor Setar","KDH"
"06300","Ampangan Pedu","Kuala Nerang","KDH"
"06300","Anjung Pedu Lake","Kuala Nerang","KDH"
"06300","Desa Utara","Kuala Nerang","KDH"
"06300","Felcra Belimbing Tolak","Kuala Nerang","KDH"
"06300","Felcra Bukit Tampoi","Kuala Nerang","KDH"
"06300","Felcra Kubang Palas","Kuala Nerang","KDH"
"06300","Felda Bukit Tembaga","Kuala Nerang","KDH"
"06300","Kampung Aceh","Kuala Nerang","KDH"
"06300","Kampung Apel","Kuala Nerang","KDH"
"06300","Kampung Bakong","Kuala Nerang","KDH"
"06300","Kampung Banggol Dogol","Kuala Nerang","KDH"
"06300","Kampung Banggol Pong","Kuala Nerang","KDH"
"06300","Kampung Banggol","Kuala Nerang","KDH"
"06300","Kampung Baru Belimbing Kanan","Kuala Nerang","KDH"
"06300","Kampung Baru Khas","Kuala Nerang","KDH"
"06300","Kampung Baru Lembah Permai","Kuala Nerang","KDH"
"06300","Kampung Baru Padang Lalang","Kuala Nerang","KDH"
"06300","Kampung Baru Padang Sanai","Kuala Nerang","KDH"
"06300","Kampung Baru Tualak","Kuala Nerang","KDH"
"06300","Kampung Belimbing","Kuala Nerang","KDH"
"06300","Kampung Belukar","Kuala Nerang","KDH"
"06300","Kampung Bendang Raja","Kuala Nerang","KDH"
"06300","Kampung Bendang","Kuala Nerang","KDH"
"06300","Kampung Bukit Buluh","Kuala Nerang","KDH"
"06300","Kampung Bukit Kura","Kuala Nerang","KDH"
"06300","Kampung Bukit Larik","Kuala Nerang","KDH"
"06300","Kampung Bukit Nambua","Kuala Nerang","KDH"
"06300","Kampung Bukit Nyamok","Kuala Nerang","KDH"
"06300","Kampung Bukit Tembaga Selatan","Kuala Nerang","KDH"
"06300","Kampung Bukit Tembaga Timur","Kuala Nerang","KDH"
"06300","Kampung Bukit","Kuala Nerang","KDH"
"06300","Kampung Charok Manora","Kuala Nerang","KDH"
"06300","Kampung Dalam","Kuala Nerang","KDH"
"06300","Kampung Durian Burrong","Kuala Nerang","KDH"
"06300","Kampung Genting Palas","Kuala Nerang","KDH"
"06300","Kampung Hijrah","Kuala Nerang","KDH"
"06300","Kampung Jelutong","Kuala Nerang","KDH"
"06300","Kampung Kejai","Kuala Nerang","KDH"
"06300","Kampung Kepala Batas","Kuala Nerang","KDH"
"06300","Kampung Kuala Janing","Kuala Nerang","KDH"
"06300","Kampung Kuala Nibong","Kuala Nerang","KDH"
"06300","Kampung Kuala Pai","Kuala Nerang","KDH"
"06300","Kampung Kuala Tekai","Kuala Nerang","KDH"
"06300","Kampung Kuala Tualak","Kuala Nerang","KDH"
"06300","Kampung Kubang Lintah","Kuala Nerang","KDH"
"06300","Kampung Kubang Palas","Kuala Nerang","KDH"
"06300","Kampung Kubu","Kuala Nerang","KDH"
"06300","Kampung Labi","Kuala Nerang","KDH"
"06300","Kampung Lubok Ipoh","Kuala Nerang","KDH"
"06300","Kampung Lubok Labi","Kuala Nerang","KDH"
"06300","Kampung Lubok Merbau","Kuala Nerang","KDH"
"06300","Kampung Lubok Tok Wi","Kuala Nerang","KDH"
"06300","Kampung Macang","Kuala Nerang","KDH"
"06300","Kampung Magak","Kuala Nerang","KDH"
"06300","Kampung Malau","Kuala Nerang","KDH"
"06300","Kampung Mani","Kuala Nerang","KDH"
"06300","Kampung Masjid Tualak","Kuala Nerang","KDH"
"06300","Kampung Masjid","Kuala Nerang","KDH"
"06300","Kampung Musa","Kuala Nerang","KDH"
"06300","Kampung Naiteh","Kuala Nerang","KDH"
"06300","Kampung Nako","Kuala Nerang","KDH"
"06300","Kampung Padang Balai","Kuala Nerang","KDH"
"06300","Kampung Padang Chanderai","Kuala Nerang","KDH"
"06300","Kampung Padang Gelanggang","Kuala Nerang","KDH"
"06300","Kampung Padang Lanjut","Kuala Nerang","KDH"
"06300","Kampung Padang Setol","Kuala Nerang","KDH"
"06300","Kampung Pasir Puteh","Kuala Nerang","KDH"
"06300","Kampung Paya Terap","Kuala Nerang","KDH"
"06300","Kampung Pecah Gadong","Kuala Nerang","KDH"
"06300","Kampung Pengkalan Tok Puteh","Kuala Nerang","KDH"
"06300","Kampung Perik","Kuala Nerang","KDH"
"06300","Kampung Perupuk","Kuala Nerang","KDH"
"06300","Kampung Pinang","Kuala Nerang","KDH"
"06300","Kampung Pisang","Kuala Nerang","KDH"
"06300","Kampung Pokka","Kuala Nerang","KDH"
"06300","Kampung Pokok Machang","Kuala Nerang","KDH"
"06300","Kampung Pong Utara","Kuala Nerang","KDH"
"06300","Kampung Pulau Kijang","Kuala Nerang","KDH"
"06300","Kampung Rambutan","Kuala Nerang","KDH"
"06300","Kampung Rumia Manis","Kuala Nerang","KDH"
"06300","Kampung Seberang Paya","Kuala Nerang","KDH"
"06300","Kampung Seberang","Kuala Nerang","KDH"
"06300","Kampung Seladang Rebah","Kuala Nerang","KDH"
"06300","Kampung Semeliang","Kuala Nerang","KDH"
"06300","Kampung Sena","Kuala Nerang","KDH"
"06300","Kampung Sungai Kecil","Kuala Nerang","KDH"
"06300","Kampung Surau","Kuala Nerang","KDH"
"06300","Kampung Tanah Merah","Kuala Nerang","KDH"
"06300","Kampung Tanjong Luar","Kuala Nerang","KDH"
"06300","Kampung Tanjong Putus","Kuala Nerang","KDH"
"06300","Kampung Tanjong Siam","Kuala Nerang","KDH"
"06300","Kampung Tanjong","Kuala Nerang","KDH"
"06300","Kampung Telok Belanga","Kuala Nerang","KDH"
"06300","Kampung Tengah","Kuala Nerang","KDH"
"06300","Kampung Tong Plu","Kuala Nerang","KDH"
"06300","Kampung Wawasan","Kuala Nerang","KDH"
"06300","Keda Bukit Ular","Kuala Nerang","KDH"
"06300","Kem Sahara (Kem Askar)","Kuala Nerang","KDH"
"06300","Kilang Gula Padang Terap","Kuala Nerang","KDH"
"06300","Kuala Nerang","Kuala Nerang","KDH"
"06300","Ladang Tunku Abdul Rahman","Kuala Nerang","KDH"
"06300","Mutiara Pedu Lake","Kuala Nerang","KDH"
"06300","Padang Sanai","Kuala Nerang","KDH"
"06300","Pedu","Kuala Nerang","KDH"
"06300","Rumah Keda Kampung Belukar","Kuala Nerang","KDH"
"06300","Rumah Keda Pasir Puteh","Kuala Nerang","KDH"
"06300","Taman Belimbing Indah","Kuala Nerang","KDH"
"06300","Taman Bersatu","Kuala Nerang","KDH"
"06300","Taman Desa Kenangan","Kuala Nerang","KDH"
"06300","Taman Desa Sapura","Kuala Nerang","KDH"
"06300","Taman Jati","Kuala Nerang","KDH"
"06300","Taman Jelutang Fasa 2","Kuala Nerang","KDH"
"06300","Taman Kemangi","Kuala Nerang","KDH"
"06300","Taman Merbau","Kuala Nerang","KDH"
"06300","Taman Mesra 2","Kuala Nerang","KDH"
"06300","Taman Pelangi","Kuala Nerang","KDH"
"06300","Taman Perumahan Imigresen","Kuala Nerang","KDH"
"06300","Taman Saujana","Kuala Nerang","KDH"
"06300","Taman Seri Tampoi","Kuala Nerang","KDH"
"06300","Taman Sri Desa","Kuala Nerang","KDH"
"06300","Taman Sri Emas","Kuala Nerang","KDH"
"06300","Taman Sri Kenangan","Kuala Nerang","KDH"
"06300","Teluk Binasa","Kuala Nerang","KDH"
"06350","Jalan Naka (Batu 18 1/2)","Pokok Sena","KDH"
"06350","Kampung Baru Naka","Pokok Sena","KDH"
"06350","Kampung Bendang Baru","Pokok Sena","KDH"
"06350","Kampung Bukit","Pokok Sena","KDH"
"06350","Kampung Kubang Kenyeng","Pokok Sena","KDH"
"06350","Kampung Lamdin","Pokok Sena","KDH"
"06350","Kampung Lubok Perong","Pokok Sena","KDH"
"06350","Kampung Padang Kasak","Pokok Sena","KDH"
"06350","Kampung Tandop Besar","Pokok Sena","KDH"
"06350","Kampung Tandop","Pokok Sena","KDH"
"06350","Taman Sri Nerang","Pokok Sena","KDH"
"06400","Bukit Panjang","Pokok Sena","KDH"
"06400","Jabi","Pokok Sena","KDH"
"06400","Kampung Alor China","Pokok Sena","KDH"
"06400","Kampung Atong","Pokok Sena","KDH"
"06400","Kampung Banggol Chengal","Pokok Sena","KDH"
"06400","Kampung Banggol","Pokok Sena","KDH"
"06400","Kampung Batu 11","Pokok Sena","KDH"
"06400","Kampung Belat","Pokok Sena","KDH"
"06400","Kampung Belukar","Pokok Sena","KDH"
"06400","Kampung Bendang Bukit","Pokok Sena","KDH"
"06400","Kampung Bendang Raja","Pokok Sena","KDH"
"06400","Kampung Bukit Berangan","Pokok Sena","KDH"
"06400","Kampung Bukit Derang","Pokok Sena","KDH"
"06400","Kampung Bukit Hijau","Pokok Sena","KDH"
"06400","Kampung Bukit Lada","Pokok Sena","KDH"
"06400","Kampung Bukit Lala","Pokok Sena","KDH"
"06400","Kampung Bukit Pak Kiau","Pokok Sena","KDH"
"06400","Kampung Bukit Pak Pom","Pokok Sena","KDH"
"06400","Kampung Bukit Patong","Pokok Sena","KDH"
"06400","Kampung Bukit Telaga Emas","Pokok Sena","KDH"
"06400","Kampung Bukit Teriak","Pokok Sena","KDH"
"06400","Kampung Derang","Pokok Sena","KDH"
"06400","Kampung Empa","Pokok Sena","KDH"
"06400","Kampung Ga","Pokok Sena","KDH"
"06400","Kampung Gajah Mati","Pokok Sena","KDH"
"06400","Kampung Gelong Gajah","Pokok Sena","KDH"
"06400","Kampung Gua Ginu","Pokok Sena","KDH"
"06400","Kampung Huma Besar","Pokok Sena","KDH"
"06400","Kampung Huma","Pokok Sena","KDH"
"06400","Kampung Kedondong","Pokok Sena","KDH"
"06400","Kampung Kelut","Pokok Sena","KDH"
"06400","Kampung Kepala Bendang","Pokok Sena","KDH"
"06400","Kampung Kepala Bukit","Pokok Sena","KDH"
"06400","Kampung Keranji","Pokok Sena","KDH"
"06400","Kampung Khotan","Pokok Sena","KDH"
"06400","Kampung Kiew","Pokok Sena","KDH"
"06400","Kampung Kolam","Pokok Sena","KDH"
"06400","Kampung Kolon","Pokok Sena","KDH"
"06400","Kampung Kolot","Pokok Sena","KDH"
"06400","Kampung Kuala Lanjut","Pokok Sena","KDH"
"06400","Kampung Kuang Buang","Pokok Sena","KDH"
"06400","Kampung Kubang Pisang","Pokok Sena","KDH"
"06400","Kampung Lahar Tunjang","Pokok Sena","KDH"
"06400","Kampung Lamdam","Pokok Sena","KDH"
"06400","Kampung Lanjut Malau","Pokok Sena","KDH"
"06400","Kampung Lubok Batu","Pokok Sena","KDH"
"06400","Kampung Machang Kudong","Pokok Sena","KDH"
"06400","Kampung Masjid Lama","Pokok Sena","KDH"
"06400","Kampung Menerong","Pokok Sena","KDH"
"06400","Kampung Minangkabau","Pokok Sena","KDH"
"06400","Kampung Nangka Melayu","Pokok Sena","KDH"
"06400","Kampung Nangka Siam","Pokok Sena","KDH"
"06400","Kampung Nawa","Pokok Sena","KDH"
"06400","Kampung Padang Serai","Pokok Sena","KDH"
"06400","Kampung Padang Tembusu","Pokok Sena","KDH"
"06400","Kampung Padang","Pokok Sena","KDH"
"06400","Kampung Panchor","Pokok Sena","KDH"
"06400","Kampung Pelanduk Jatuh","Pokok Sena","KDH"
"06400","Kampung Perupuk","Pokok Sena","KDH"
"06400","Kampung Pokok Pauh","Pokok Sena","KDH"
"06400","Kampung Pulau Bidin","Pokok Sena","KDH"
"06400","Kampung Senara","Pokok Sena","KDH"
"06400","Kampung Tanjong Musang","Pokok Sena","KDH"
"06400","Kampung Telaga Mas","Pokok Sena","KDH"
"06400","Kampung Telok Jamat","Pokok Sena","KDH"
"06400","Kampung Tok Dam","Pokok Sena","KDH"
"06400","Kampung Tok Kun","Pokok Sena","KDH"
"06400","Kampung Tualang","Pokok Sena","KDH"
"06400","Kampung Tuba","Pokok Sena","KDH"
"06400","Kampung Yoi","Pokok Sena","KDH"
"06400","Kebun 500","Pokok Sena","KDH"
"06400","Kubor Panjang","Pokok Sena","KDH"
"06400","Naka","Pokok Sena","KDH"
"06400","Pekan Baru","Pokok Sena","KDH"
"06400","Pokok Sena","Pokok Sena","KDH"
"06400","Taman Angsana 2","Pokok Sena","KDH"
"06400","Taman Balak Baru 2","Pokok Sena","KDH"
"06400","Taman Bunga Sena","Pokok Sena","KDH"
"06400","Taman Kempas","Pokok Sena","KDH"
"06400","Taman Nangka Madu","Pendang","KDH"
"06400","Taman Sena Impian","Pokok Sena","KDH"
"06500","Jalan Datuk Kumbar (Batu 4 3/4 - 10)","Langgar","KDH"
"06500","Jalan Masjid","Langgar","KDH"
"06500","Kampung Alor Besar","Langgar","KDH"
"06500","Kampung Alor Gandak","Langgar","KDH"
"06500","Kampung Alor Gelam","Langgar","KDH"
"06500","Kampung Alor Jawi","Langgar","KDH"
"06500","Kampung Alor Keladi","Langgar","KDH"
"06500","Kampung Alor Melentang","Langgar","KDH"
"06500","Kampung Alor Pak Ngah","Langgar","KDH"
"06500","Kampung Alor Raja","Langgar","KDH"
"06500","Kampung Alor Rela","Langgar","KDH"
"06500","Kampung Alor Saga","Langgar","KDH"
"06500","Kampung Alor Sekawan","Langgar","KDH"
"06500","Kampung Alor Senibong","Langgar","KDH"
"06500","Kampung Alor Setol","Langgar","KDH"
"06500","Kampung Alor Tebuan","Langgar","KDH"
"06500","Kampung Baru Kepala Kota","Langgar","KDH"
"06500","Kampung Haji Naik Kayu","Langgar","KDH"
"06500","Kampung Hijrah","Langgar","KDH"
"06500","Kampung Hutan Gelam","Langgar","KDH"
"06500","Kampung Jelai (Simpang 4)","Langgar","KDH"
"06500","Kampung Juara Tua","Langgar","KDH"
"06500","Kampung Kandai","Langgar","KDH"
"06500","Kampung Keramat","Langgar","KDH"
"06500","Kampung Kuar","Langgar","KDH"
"06500","Kampung Limbong","Langgar","KDH"
"06500","Kampung Lubok Keriang","Langgar","KDH"
"06500","Kampung Makam","Langgar","KDH"
"06500","Kampung Padang Petani","Langgar","KDH"
"06500","Kampung Padang Tajar","Langgar","KDH"
"06500","Kampung Padang Tepus","Langgar","KDH"
"06500","Kampung Pagar Ayer","Langgar","KDH"
"06500","Kampung Pantai Jamai","Langgar","KDH"
"06500","Kampung Permatang Limau","Langgar","KDH"
"06500","Kampung Pokok Asam","Langgar","KDH"
"06500","Kampung Pondok Tasak","Langgar","KDH"
"06500","Kampung Pulau Binjal","Langgar","KDH"
"06500","Kampung Sungai Mati","Langgar","KDH"
"06500","Kampung Tajar","Langgar","KDH"
"06500","Kampung Tanjong Inggeris","Langgar","KDH"
"06500","Kampung Telaga Bata","Langgar","KDH"
"06500","Kampung Terong Asam","Langgar","KDH"
"06500","Kampung Tok Pauh","Langgar","KDH"
"06500","Kampung Tok Sibil","Langgar","KDH"
"06500","Kampung Tok Temenggong","Langgar","KDH"
"06500","Langgar","Langgar","KDH"
"06500","Taman Indah","Langgar","KDH"
"06500","Taman Lelasari","Langgar","KDH"
"06500","Taman Malinja Fasa 2","Langgar","KDH"
"06500","Taman Malinja","Langgar","KDH"
"06500","Taman Sri Kota","Langgar","KDH"
"06500","Taman Suri","Langgar","KDH"
"06500","Taman Terantai","Langgar","KDH"
"06500","Taman Vistana Fasa 2","Langgar","KDH"
"06500","Taman Vistana","Langgar","KDH"
"06500","Titi Haji Idris","Langgar","KDH"
"06507","Langgar - Peti surat","Langgar","KDH"
"06509","Langgar - Beg berkunci","Alor Setar","KDH"
"06550","Anak Bukit","Alor Setar","KDH"
"06550","Jalan Anak Bukit","Alor Setar","KDH"
"06550","Kampung Alor Senjaya","Alor Setar","KDH"
"06550","Kampung Pak Putih","Alor Setar","KDH"
"06550","Kampung Titi Gajah","Alor Setar","KDH"
"06550","Kampung Tok Din","Alor Setar","KDH"
"06550","Kampung Tunku Lat","Alor Setar","KDH"
"06550","Laman Lumba Kuda","Alor Setar","KDH"
"06550","Lorong Seri Kota","Alor Setar","KDH"
"06550","Taman Berlian","Alor Setar","KDH"
"06550","Taman Desa Mutiara","Alor Setar","KDH"
"06550","Taman Kancil","Alor Setar","KDH"
"06550","Taman Laman Kuda","Alor Setar","KDH"
"06550","Taman Mas Merah","Alor Setar","KDH"
"06550","Taman Seri Aman","Alor Setar","KDH"
"06550","Taman Seri Jelapang","Alor Setar","KDH"
"06550","Taman Tengku Bendahara","Alor Setar","KDH"
"06550","Taman Titi Gajah","Alor Setar","KDH"
"06550","Taman Tunku Bendahara","Alor Setar","KDH"
"06570","Gunung Keriang","Alor Setar","KDH"
"06570","Jalan Permatang Gunung","Alor Setar","KDH"
"06570","Kampung Alor Gonchar","Alor Setar","KDH"
"06570","Kampung Gelong Ayer","Alor Setar","KDH"
"06570","Kampung Kubang Raja","Alor Setar","KDH"
"06570","Kampung Kubang Teduh","Alor Setar","KDH"
"06570","Kampung Matang Kong Atas","Alor Setar","KDH"
"06570","Matang Kong Bawah Kampung Teluk Junus","Alor Setar","KDH"
"06570","Matang Kong","Alor Setar","KDH"
"06570","Teluk Junus","Alor Setar","KDH"
"06570","Titi Gajah (Batu 6 1/2)","Alor Setar","KDH"
"06600","Alor Ibus Tepi Laut","Kuala Kedah","KDH"
"06600","Kampung Alor Ibus","Kuala Kedah","KDH"
"06600","Kampung Alor Pulai","Kuala Kedah","KDH"
"06600","Kampung Balai","Kuala Kedah","KDH"
"06600","Kampung Batas Paip","Kuala Kedah","KDH"
"06600","Kampung Berembang Panjang","Kuala Kedah","KDH"
"06600","Kampung Cina","Kuala Kedah","KDH"
"06600","Kampung Darat","Kuala Kedah","KDH"
"06600","Kampung Hujong","Kuala Kedah","KDH"
"06600","Kampung Hujung Sungai","Kuala Kedah","KDH"
"06600","Kampung Hulu","Kuala Kedah","KDH"
"06600","Kampung Hutan Putus","Kuala Kedah","KDH"
"06600","Kampung Kilang Ice","Kuala Kedah","KDH"
"06600","Kampung Madrasah","Kuala Kedah","KDH"
"06600","Kampung Masjid Lama","Kuala Kedah","KDH"
"06600","Kampung Megat Ali","Kuala Kedah","KDH"
"06600","Kampung Padang Garam","Kuala Kedah","KDH"
"06600","Kampung Padang Raja","Kuala Kedah","KDH"
"06600","Kampung Padang","Kuala Kedah","KDH"
"06600","Kampung Pajak","Kuala Kedah","KDH"
"06600","Kampung Pergam","Kuala Kedah","KDH"
"06600","Kampung Perlis","Kuala Kedah","KDH"
"06600","Kampung Seberang Alor","Kuala Kedah","KDH"
"06600","Kampung Seberang Kota","Kuala Kedah","KDH"
"06600","Kampung Selarong Batak","Kuala Kedah","KDH"
"06600","Kampung Sematang Pinang","Kuala Kedah","KDH"
"06600","Kampung Sematang","Kuala Kedah","KDH"
"06600","Kampung Sungai Badang","Kuala Kedah","KDH"
"06600","Kampung Sungai Mati","Kuala Kedah","KDH"
"06600","Kampung Sungai Nonang","Kuala Kedah","KDH"
"06600","Kampung Sungai Papan","Kuala Kedah","KDH"
"06600","Kampung Tebengau","Kuala Kedah","KDH"
"06600","Kampung Telok Bulang","Kuala Kedah","KDH"
"06600","Kampung Telok Layang","Kuala Kedah","KDH"
"06600","Kampung Tengah (Telok Kechai)","Kuala Kedah","KDH"
"06600","Kampung Tengah","Kuala Kedah","KDH"
"06600","Kampung Tepi Laut","Kuala Kedah","KDH"
"06600","Kampung Tok Pasai","Kuala Kedah","KDH"
"06600","Kampung Tok Song","Kuala Kedah","KDH"
"06600","Kompleks Peruda","Kuala Kedah","KDH"
"06600","Kuala Kedah","Kuala Kedah","KDH"
"06600","Lorong Air Masin","Kuala Kedah","KDH"
"06600","Seberang Kampung Baru","Kuala Kedah","KDH"
"06600","Sementang Tepi Laut","Kuala Kedah","KDH"
"06600","Taman Bahtera","Kuala Kedah","KDH"
"06600","Taman Bersatu (Fasa A dan B)","Kuala Kedah","KDH"
"06600","Taman Desa Cengai Indah","Kuala Kedah","KDH"
"06600","Taman Desa Rena 2","Kuala Kedah","KDH"
"06600","Taman Desarina 2","Kuala Kedah","KDH"
"06600","Taman Harapan","Kuala Kedah","KDH"
"06600","Taman Indah","Kuala Kedah","KDH"
"06600","Taman Juragan","Kuala Kedah","KDH"
"06600","Taman Kekwa","Kuala Kedah","KDH"
"06600","Taman Kemudi","Kuala Kedah","KDH"
"06600","Taman Layar","Kuala Kedah","KDH"
"06600","Taman Marina","Kuala Kedah","KDH"
"06600","Taman Melati","Kuala Kedah","KDH"
"06600","Taman Merpati","Kuala Kedah","KDH"
"06600","Taman Nakhoda","Kuala Kedah","KDH"
"06600","Taman Nusantara","Kuala Kedah","KDH"
"06600","Taman Perpaduan (1 - 2)","Kuala Kedah","KDH"
"06600","Taman Restu","Kuala Kedah","KDH"
"06600","Taman Ria (Jalan Kuala Kedah)","Kuala Kedah","KDH"
"06600","Taman Ria","Kuala Kedah","KDH"
"06600","Taman Sepakat","Kuala Kedah","KDH"
"06600","Taman Seri Putra","Kuala Kedah","KDH"
"06600","Taman Sri Abadi","Kuala Kedah","KDH"
"06600","Taman Sri Idaman","Kuala Kedah","KDH"
"06600","Taman Terumbu Indah","Kuala Kedah","KDH"
"06600","Telok Telipon","Kuala Kedah","KDH"
"06600","Teluk Chengai","Kuala Kedah","KDH"
"06600","Teluk Kechai","Kuala Kedah","KDH"
"06600","Teluk Seme","Kuala Kedah","KDH"
"06650","Jalan Tokai (Batu 7 - 8)","Simpang Empat","KDH"
"06650","Kampung 15 Relong","Simpang Empat","KDH"
"06650","Kampung 20 Relong","Simpang Empat","KDH"
"06650","Kampung 30 Relong","Simpang Empat","KDH"
"06650","Kampung Ah Piew","Simpang Empat","KDH"
"06650","Kampung Alor Ali","Simpang Empat","KDH"
"06650","Kampung Alor Mengkuang","Simpang Empat","KDH"
"06650","Kampung Baru Tokai","Simpang Empat","KDH"
"06650","Kampung Batu 8 Tokai","Simpang Empat","KDH"
"06650","Kampung Benua","Simpang Empat","KDH"
"06650","Kampung Dalam Baroh","Simpang Empat","KDH"
"06650","Kampung Jelai","Simpang Empat","KDH"
"06650","Kampung Kepala Parit","Simpang Empat","KDH"
"06650","Kampung Kubang Jelai","Simpang Empat","KDH"
"06650","Kampung Kubang Pasu","Simpang Empat","KDH"
"06650","Kampung Masjid Tokai","Simpang Empat","KDH"
"06650","Kampung Padang Jambu","Simpang Empat","KDH"
"06650","Kampung Permatang Iblis","Simpang Empat","KDH"
"06650","Kampung Pisang","Simpang Empat","KDH"
"06650","Kampung Pulai (Simpang Empat)","Simpang Empat","KDH"
"06650","Kampung Rambai","Simpang Empat","KDH"
"06650","Kampung Sala Kecil","Simpang Empat","KDH"
"06650","Kampung Senggora","Simpang Empat","KDH"
"06650","Kampung Tok Pauh","Simpang Empat","KDH"
"06650","Kampung Tokai","Simpang Empat","KDH"
"06650","Kangkong","Simpang Empat","KDH"
"06650","Kota Kangkong","Simpang Empat","KDH"
"06650","Simpang Empat","Simpang Empat","KDH"
"06650","Taman Bersatu (Kuala Kedah)","Simpang Empat","KDH"
"06650","Taman Bersatu (Simpang Empat)","Simpang Empat","KDH"
"06650","Taman Bersatu","Simpang Empat","KDH"
"06660","Tokai","Alor Setar","KDH"
"06700","Bukit Raya","Pendang","KDH"
"06700","Guar Kepayang","Pendang","KDH"
"06700","Kampung Alor Berhala","Pendang","KDH"
"06700","Kampung Alor Parit","Pendang","KDH"
"06700","Kampung Alor Pauh","Pendang","KDH"
"06700","Kampung Alor Pering","Pendang","KDH"
"06700","Kampung Alor Pudak","Pendang","KDH"
"06700","Kampung Alor Punti","Pendang","KDH"
"06700","Kampung Asam Jawa","Pendang","KDH"
"06700","Kampung Ayer Puteh","Pendang","KDH"
"06700","Kampung Bahagia","Pendang","KDH"
"06700","Kampung Balik Bukit","Pendang","KDH"
"06700","Kampung Banggok Kambing","Pendang","KDH"
"06700","Kampung Banggol Belimbing","Pendang","KDH"
"06700","Kampung Banggol Besi","Pendang","KDH"
"06700","Kampung Banggol Ibus","Pendang","KDH"
"06700","Kampung Banggol Jali","Pendang","KDH"
"06700","Kampung Banggol Kambing","Pendang","KDH"
"06700","Kampung Banggol Keling","Pendang","KDH"
"06700","Kampung Banggol Masjid","Pendang","KDH"
"06700","Kampung Banggol Pauh","Pendang","KDH"
"06700","Kampung Banggol Petai","Pendang","KDH"
"06700","Kampung Banggol Senu","Pendang","KDH"
"06700","Kampung Banggol Temak","Pendang","KDH"
"06700","Kampung Banggol Tengah","Pendang","KDH"
"06700","Kampung Banggol Terus","Pendang","KDH"
"06700","Kampung Banggol","Pendang","KDH"
"06700","Kampung Baru Asam Jawa","Pendang","KDH"
"06700","Kampung Batu 14 - 16 (Pendang)","Pendang","KDH"
"06700","Kampung Batu 20","Pendang","KDH"
"06700","Kampung Batu Hampar","Pendang","KDH"
"06700","Kampung Batu Menunggul","Pendang","KDH"
"06700","Kampung Becah","Pendang","KDH"
"06700","Kampung Belukar","Pendang","KDH"
"06700","Kampung Bukit Bubus","Pendang","KDH"
"06700","Kampung Bukit Jagong","Pendang","KDH"
"06700","Kampung Bukit Kecil","Pendang","KDH"
"06700","Kampung Bukit Lanjut","Pendang","KDH"
"06700","Kampung Bukit Murai","Pendang","KDH"
"06700","Kampung Bukit Sekechong","Pendang","KDH"
"06700","Kampung Bukit Seni","Pendang","KDH"
"06700","Kampung Changkat Nering","Pendang","KDH"
"06700","Kampung Charok Keladi","Pendang","KDH"
"06700","Kampung Charok Kering","Pendang","KDH"
"06700","Kampung Charok Kubong","Pendang","KDH"
"06700","Kampung Charok Kudong","Pendang","KDH"
"06700","Kampung Chegar","Pendang","KDH"
"06700","Kampung Chekong","Pendang","KDH"
"06700","Kampung Cherok Pinang","Pendang","KDH"
"06700","Kampung Cherok Umar","Pendang","KDH"
"06700","Kampung Dundang","Pendang","KDH"
"06700","Kampung Durian","Pendang","KDH"
"06700","Kampung Gajah Mati","Pendang","KDH"
"06700","Kampung Gelong Gajah","Pendang","KDH"
"06700","Kampung Haji Bunga","Pendang","KDH"
"06700","Kampung Haji Darus","Pendang","KDH"
"06700","Kampung Jelutong","Pendang","KDH"
"06700","Kampung Kedah","Pendang","KDH"
"06700","Kampung Kepala Bukit","Pendang","KDH"
"06700","Kampung Keranji","Pendang","KDH"
"06700","Kampung Kerkau","Pendang","KDH"
"06700","Kampung Kolam","Pendang","KDH"
"06700","Kampung Kuala Mawa","Pendang","KDH"
"06700","Kampung Kubang Anak Gajah","Pendang","KDH"
"06700","Kampung Kubang Badak","Pendang","KDH"
"06700","Kampung Kubang Kuar","Pendang","KDH"
"06700","Kampung Kubang Teradan","Pendang","KDH"
"06700","Kampung Kubang Teradeh","Pendang","KDH"
"06700","Kampung Lahar Batu","Pendang","KDH"
"06700","Kampung Lahar Buaya","Pendang","KDH"
"06700","Kampung Lang Merah","Pendang","KDH"
"06700","Kampung Lubok Gajah","Pendang","KDH"
"06700","Kampung Lubok Getah","Pendang","KDH"
"06700","Kampung Lubok Rambutan","Pendang","KDH"
"06700","Kampung Menja Pahit","Pendang","KDH"
"06700","Kampung Padang Kasak","Pendang","KDH"
"06700","Kampung Padang Nyior","Pendang","KDH"
"06700","Kampung Padang Pusing","Pendang","KDH"
"06700","Kampung Padang Temucut","Pendang","KDH"
"06700","Kampung Palas","Pendang","KDH"
"06700","Kampung Panchor","Pendang","KDH"
"06700","Kampung Paya Kelubi","Pendang","KDH"
"06700","Kampung Paya Kerchut","Pendang","KDH"
"06700","Kampung Paya Nedam","Pendang","KDH"
"06700","Kampung Paya Rawa","Pendang","KDH"
"06700","Kampung Paya Saga","Pendang","KDH"
"06700","Kampung Paya Sena","Pendang","KDH"
"06700","Kampung Paya Sulaiman","Pendang","KDH"
"06700","Kampung Penyarom","Pendang","KDH"
"06700","Kampung Petani","Pendang","KDH"
"06700","Kampung Pokok Gajah Mati","Pendang","KDH"
"06700","Kampung Pondok Chegar","Pendang","KDH"
"06700","Kampung Pondok Guar Kepayang","Pendang","KDH"
"06700","Kampung Pondok Haji Aziz","Pendang","KDH"
"06700","Kampung Pondok Haji Hussain","Pendang","KDH"
"06700","Kampung Pondok Sawa","Pendang","KDH"
"06700","Kampung Pondok Tanah Merah","Pendang","KDH"
"06700","Kampung Pulau Machang","Pendang","KDH"
"06700","Kampung Sawa Besar","Pendang","KDH"
"06700","Kampung Sawa","Pendang","KDH"
"06700","Kampung Seberang Pendang","Pendang","KDH"
"06700","Kampung Sena","Pendang","KDH"
"06700","Kampung Sera","Pendang","KDH"
"06700","Kampung Simpang Tiga Tobiar","Pendang","KDH"
"06700","Kampung Sukamari","Pendang","KDH"
"06700","Kampung Sungai Jagong","Pendang","KDH"
"06700","Kampung Sungai Mati","Pendang","KDH"
"06700","Kampung Sungai Pudak","Pendang","KDH"
"06700","Kampung Tanjong Radin","Pendang","KDH"
"06700","Kampung Telok Wang","Pendang","KDH"
"06700","Kampung Tempoyak","Pendang","KDH"
"06700","Kampung Titi Kera","Pendang","KDH"
"06700","Kampung Titi Teras","Pendang","KDH"
"06700","Kampung Tok Besah","Pendang","KDH"
"06700","Kampung Tok La","Pendang","KDH"
"06700","Kampung Wat Padang Pusing","Pendang","KDH"
"06700","Padang Pusing","Pendang","KDH"
"06700","Pendang","Pendang","KDH"
"06700","Taman Mawar","Pendang","KDH"
"06700","Taman Seri Pendang","Pendang","KDH"
"06700","Tanah Merah","Pendang","KDH"
"06700","Tobiar","Pendang","KDH"
"06707","Pendang - Peti surat","Pendang","KDH"
"06709","Pendang - Beg berkunci","Pendang","KDH"
"06710","Felda Lubuk Merbau","Pendang","KDH"
"06710","Kampung Baru Lubuk Merbau","Pendang","KDH"
"06710","Kampung Baru Tapang","Pendang","KDH"
"06710","Kampung Berjaya","Pendang","KDH"
"06710","Kampung Mahawangsa","Pendang","KDH"
"06710","Kampung Sukamari Lubok Merbau","Pendang","KDH"
"06710","Kampung Sungai Pisang","Pendang","KDH"
"06710","Kampung Sungai Siput Dalam","Pendang","KDH"
"06710","Kampung Sungai Siput","Pendang","KDH"
"06720","Bukit Genting Estate","Pendang","KDH"
"06720","Bukit Junun","Pendang","KDH"
"06720","Kampung Alor Kubang","Pendang","KDH"
"06720","Kampung Alor Kumbang","Pendang","KDH"
"06720","Kampung Alor Pulai","Pendang","KDH"
"06720","Kampung Baloh","Pendang","KDH"
"06720","Kampung Banggol Besin","Pendang","KDH"
"06720","Kampung Banggol Sanai","Pendang","KDH"
"06720","Kampung Banggol Sawa","Pendang","KDH"
"06720","Kampung Banggol Senai","Pendang","KDH"
"06720","Kampung Bukit Jambul","Pendang","KDH"
"06720","Kampung Bukit Mak Inson","Pendang","KDH"
"06720","Kampung Bukit Nibong","Pendang","KDH"
"06720","Kampung Bukit Pinang","Pendang","KDH"
"06720","Kampung Doket","Pendang","KDH"
"06720","Kampung Guar Stesyen","Pendang","KDH"
"06720","Kampung Kilang Bata","Pendang","KDH"
"06720","Kampung Kilang Besar","Pendang","KDH"
"06720","Kampung Kilang Kecik","Pendang","KDH"
"06720","Kampung Kongsi Tujuh","Pendang","KDH"
"06720","Kampung Kuala Rimau","Pendang","KDH"
"06720","Kampung Lanchok Bunjai","Pendang","KDH"
"06720","Kampung Lubok Reba","Pendang","KDH"
"06720","Kampung Lubok Ular","Pendang","KDH"
"06720","Kampung Manggol Tambak Luar","Pendang","KDH"
"06720","Kampung Manggul Tambak","Pendang","KDH"
"06720","Kampung Padang Panjang","Pendang","KDH"
"06720","Kampung Panjang","Pendang","KDH"
"06720","Kampung Paya Besar","Pendang","KDH"
"06720","Kampung Paya Mak Inson","Pendang","KDH"
"06720","Kampung Paya Palas","Pendang","KDH"
"06720","Kampung Paya Serdang","Pendang","KDH"
"06720","Kampung Pokok Tai","Pendang","KDH"
"06720","Kampung Sungai Baru","Pendang","KDH"
"06720","Kampung Sungai Durian","Pendang","KDH"
"06720","Kampung Sungai Rotan","Pendang","KDH"
"06720","Kampung Tanjong Setol","Pendang","KDH"
"06720","Kampung Wat Siam","Pendang","KDH"
"06720","Ladang Bukit Genting","Pendang","KDH"
"06720","Ladang Heng Seng","Pendang","KDH"
"06720","Ladang Poh Seng","Pendang","KDH"
"06720","Lubok Merbau","Pendang","KDH"
"06720","Pusat Perniagaan Kiara Mas","Pendang","KDH"
"06720","Taman Gemilang (Fasa 1 & 2)","Pendang","KDH"
"06720","Taman Harmoni","Pendang","KDH"
"06720","Taman Kiara Mas","Pendang","KDH"
"06720","Taman Murni","Pendang","KDH"
"06720","Taman Orkid","Pendang","KDH"
"06720","Taman Seri Putih","Pendang","KDH"
"06720","Taman Seri Wawasan","Pendang","KDH"
"06720","Taman Teratai (Fasa 1 & Fasa 2)","Pendang","KDH"
"06720","Wisma Haji Salleh","Pendang","KDH"
"06750","Kampung Bendang Petani","Pendang","KDH"
"06750","Kampung Bendang Pulai","Pendang","KDH"
"06750","Kampung Bukit Kerek","Pendang","KDH"
"06750","Kampung Bukit Tegur","Pendang","KDH"
"06750","Kampung Bukit Tok Aji","Pendang","KDH"
"06750","Kampung Chelong","Pendang","KDH"
"06750","Kampung Cina","Pendang","KDH"
"06750","Kampung Hujong Keton","Pendang","KDH"
"06750","Kampung Kayu Tiga","Pendang","KDH"
"06750","Kampung Kebun 4 Relong","Pendang","KDH"
"06750","Kampung Kota","Pendang","KDH"
"06750","Kampung Linchan","Pendang","KDH"
"06750","Kampung Nam Dam","Pendang","KDH"
"06750","Kampung Padang Durian","Pendang","KDH"
"06750","Kampung Padang Kabu","Pendang","KDH"
"06750","Kampung Padang Tok Sedan","Pendang","KDH"
"06750","Kampung Paya Lepai","Pendang","KDH"
"06750","Kampung Pokok Asam","Pendang","KDH"
"06750","Kampung Pulau Tengah","Pendang","KDH"
"06750","Kampung Rasau","Pendang","KDH"
"06750","Kampung Sungai Korok","Pendang","KDH"
"06750","Kampung Sungai Ma","Pendang","KDH"
"06750","Kampung Tanjong Berolah","Pendang","KDH"
"06750","Kampung Titi Akar","Pendang","KDH"
"06750","Kampung Titi Siam","Pendang","KDH"
"06750","Kampung Tok Sek","Pendang","KDH"
"06750","Kampung Tong Prok","Pendang","KDH"
"06750","Kampung Wan Lah","Pendang","KDH"
"06750","Kampung Wat Siam Padang Pelian","Pendang","KDH"
"06750","Kampung Wat","Pendang","KDH"
"06750","Ladang Bukit Perak","Pendang","KDH"
"06750","Ladang Su Poh","Pendang","KDH"
"06750","Padang Durian","Pendang","KDH"
"06750","Sungai Tiang","Pendang","KDH"
"06800","Batu 11 1/2 Jalan Sungai Petani","Kota Sarang Semut","KDH"
"06800","Batu 11- 12 Bukit Besar","Kota Sarang Semut","KDH"
"06800","Batu 14 Jalan Sungai Petani","Kota Sarang Semut","KDH"
"06800","Batu 15 Padang Lumat","Kota Sarang Semut","KDH"
"06800","Batu 9","Kota Sarang Semut","KDH"
"06800","Bukit Besar","Kota Sarang Semut","KDH"
"06800","Jalan Kolam Air (Bukit Besar)","Kota Sarang Semut","KDH"
"06800","Jalan Kuala Sala","Kota Sarang Semut","KDH"
"06800","Jalan Padang Besar","Kota Sarang Semut","KDH"
"06800","Jalan Pengkalan","Kota Sarang Semut","KDH"
"06800","Jalan Sekolah","Kota Sarang Semut","KDH"
"06800","Jalan Tokong","Kota Sarang Semut","KDH"
"06800","Kampung Alor Besar","Kota Sarang Semut","KDH"
"06800","Kampung Alor Gelanggang","Kota Sarang Semut","KDH"
"06800","Kampung Alor Nan","Kota Sarang Semut","KDH"
"06800","Kampung Alor Nibong","Kota Sarang Semut","KDH"
"06800","Kampung Alor Pinggu","Kota Sarang Semut","KDH"
"06800","Kampung Alor Pudak","Kota Sarang Semut","KDH"
"06800","Kampung Alor Serdang","Kota Sarang Semut","KDH"
"06800","Kampung Alor Terjun","Kota Sarang Semut","KDH"
"06800","Kampung Alor Tok Ya","Kota Sarang Semut","KDH"
"06800","Kampung Bakong","Kota Sarang Semut","KDH"
"06800","Kampung Banggol Haji Seman","Kota Sarang Semut","KDH"
"06800","Kampung Banggol Wan AWang","Kota Sarang Semut","KDH"
"06800","Kampung Baru (Jalan Pendang)","Kota Sarang Semut","KDH"
"06800","Kampung Batas Baru","Kota Sarang Semut","KDH"
"06800","Kampung Bukit Chepat","Kota Sarang Semut","KDH"
"06800","Kampung Bukit Choras","Kota Sarang Semut","KDH"
"06800","Kampung Bukit Kokbah","Kota Sarang Semut","KDH"
"06800","Kampung Bukit Tok Chun","Kota Sarang Semut","KDH"
"06800","Kampung Buluh Lima Dalam","Kota Sarang Semut","KDH"
"06800","Kampung Buluh Lima","Kota Sarang Semut","KDH"
"06800","Kampung Datok Abdullah","Kota Sarang Semut","KDH"
"06800","Kampung Gelam Tiga","Kota Sarang Semut","KDH"
"06800","Kampung Haji Mehat","Kota Sarang Semut","KDH"
"06800","Kampung Jawa","Kota Sarang Semut","KDH"
"06800","Kampung Jemerlang","Kota Sarang Semut","KDH"
"06800","Kampung Jerang Belanga","Kota Sarang Semut","KDH"
"06800","Kampung Kilang Baru","Kota Sarang Semut","KDH"
"06800","Kampung Kuala Sala","Kota Sarang Semut","KDH"
"06800","Kampung Kuala Sula","Kota Sarang Semut","KDH"
"06800","Kampung Kuala Sungai Daun Tengah","Kota Sarang Semut","KDH"
"06800","Kampung Kubang Pasu","Kota Sarang Semut","KDH"
"06800","Kampung Manggol","Kota Sarang Semut","KDH"
"06800","Kampung Padang Besar","Kota Sarang Semut","KDH"
"06800","Kampung Padang Peninjau","Kota Sarang Semut","KDH"
"06800","Kampung Permatang Bongor","Kota Sarang Semut","KDH"
"06800","Kampung Permatang Buluh","Kota Sarang Semut","KDH"
"06800","Kampung Permatang Kecil","Kota Sarang Semut","KDH"
"06800","Kampung Permatang Tepi Laut","Kota Sarang Semut","KDH"
"06800","Kampung Perpat","Kota Sarang Semut","KDH"
"06800","Kampung Pisang","Kota Sarang Semut","KDH"
"06800","Kampung Pulau Jerat","Kota Sarang Semut","KDH"
"06800","Kampung Pulau Mas","Kota Sarang Semut","KDH"
"06800","Kampung Pulau Nyiur","Kota Sarang Semut","KDH"
"06800","Kampung Sala Kecil","Kota Sarang Semut","KDH"
"06800","Kampung Selamat","Kota Sarang Semut","KDH"
"06800","Kampung Simpang 3 (Sungai Daun)","Kota Sarang Semut","KDH"
"06800","Kampung Simpang 4 (Sungai Daun)","Kota Sarang Semut","KDH"
"06800","Kampung Sungai Daun Atas","Kota Sarang Semut","KDH"
"06800","Kampung Sungai Daun Tengah","Kota Sarang Semut","KDH"
"06800","Kampung Sungai Daun","Kota Sarang Semut","KDH"
"06800","Kampung Sungai Dedap","Kota Sarang Semut","KDH"
"06800","Kampung Telok Chentang","Kota Sarang Semut","KDH"
"06800","Kampung Telok Chentong","Kota Sarang Semut","KDH"
"06800","Kampung Telok","Kota Sarang Semut","KDH"
"06800","Kampung Tualang","Kota Sarang Semut","KDH"
"06800","Kepala 10 Simpang Tiga","Kota Sarang Semut","KDH"
"06800","Kepala 10 Sungai Daun","Kota Sarang Semut","KDH"
"06800","Kobah","Kota Sarang Semut","KDH"
"06800","Kuala Bangka","Kota Sarang Semut","KDH"
"06800","Kuala Sala","Kota Sarang Semut","KDH"
"06800","Pekan Kota Sarang Semut","Kota Sarang Semut","KDH"
"06800","Perumahan Awam Kuala Sala","Kota Sarang Semut","KDH"
"06800","Perumahan Baru Kelubi","Kota Sarang Semut","KDH"
"06800","Seberang Kuala Sala","Kota Sarang Semut","KDH"
"06800","Seberang Tandop","Kota Sarang Semut","KDH"
"06800","Simpang 3 (Sungai Limau)","Kota Sarang Semut","KDH"
"06800","Simpang Tiga","Kota Sarang Semut","KDH"
"06800","Sungai Tiang Luar","Kota Sarang Semut","KDH"
"06800","Taman Gemilang","Kota Sarang Semut","KDH"
"06800","Taman Impian","Kota Sarang Semut","KDH"
"06800","Taman Kota Jaya","Kota Sarang Semut","KDH"
"06800","Taman Kota Sarang Semut","Kota Sarang Semut","KDH"
"06900","Batu 21 1/4 - 24 3/4 Jalan Yan","Yan","KDH"
"06900","Dulang Kechik","Yan","KDH"
"06900","Jalan Market (Yan)","Yan","KDH"
"06900","Jalan Masjid (Yan)","Yan","KDH"
"06900","Jalan Pantai Murni","Yan","KDH"
"06900","Jalan Pegawai (Yan)","Yan","KDH"
"06900","Kampung Acheh","Yan","KDH"
"06900","Kampung Bakar Bata","Yan","KDH"
"06900","Kampung Batas Ubi","Yan","KDH"
"06900","Kampung Batu 22 1/2 (Dulang Kechil)","Yan","KDH"
"06900","Kampung Batu 22","Yan","KDH"
"06900","Kampung Bukit Belida","Yan","KDH"
"06900","Kampung Bukit Tumbuh","Yan","KDH"
"06900","Kampung Dulang Besar","Yan","KDH"
"06900","Kampung Dulang Kechil Tengah","Yan","KDH"
"06900","Kampung Dulang Kechil","Yan","KDH"
"06900","Kampung Jawa","Yan","KDH"
"06900","Kampung Keda (PPRT Sungai Udang)","Yan","KDH"
"06900","Kampung Kelantan","Yan","KDH"
"06900","Kampung Kepala 10 Sedaka","Yan","KDH"
"06900","Kampung Km 32 (Ulu Sedaka)","Yan","KDH"
"06900","Kampung Kuala Dulang Besar","Yan","KDH"
"06900","Kampung Kuala Dulang Kechil","Yan","KDH"
"06900","Kampung Kuala Raga","Yan","KDH"
"06900","Kampung Kuala Sedaka","Yan","KDH"
"06900","Kampung Kuala Sungai Udang","Yan","KDH"
"06900","Kampung Lubok Boi","Yan","KDH"
"06900","Kampung Lubuk Kasai","Yan","KDH"
"06900","Kampung Pantai Murni","Yan","KDH"
"06900","Kampung Pauh","Yan","KDH"
"06900","Kampung Perigi","Yan","KDH"
"06900","Kampung Permatang Chengai","Yan","KDH"
"06900","Kampung Permatang Keramat","Yan","KDH"
"06900","Kampung Permatang Serantang","Yan","KDH"
"06900","Kampung Permatang Serentang (Sungai Udang)","Yan","KDH"
"06900","Kampung Permatang Tok Alim","Yan","KDH"
"06900","Kampung Perupuk","Yan","KDH"
"06900","Kampung Raga","Yan","KDH"
"06900","Kampung Rendang Pasir","Yan","KDH"
"06900","Kampung Ruat","Yan","KDH"
"06900","Kampung Seberang Pekan Yan","Yan","KDH"
"06900","Kampung Sedaka Tengah","Yan","KDH"
"06900","Kampung Sedaka","Yan","KDH"
"06900","Kampung Serong","Yan","KDH"
"06900","Kampung Setar","Yan","KDH"
"06900","Kampung Seter","Yan","KDH"
"06900","Kampung Setol","Yan","KDH"
"06900","Kampung Simpang Empat Sedaka","Yan","KDH"
"06900","Kampung Simpang Empat Sungai Lintang","Yan","KDH"
"06900","Kampung Sungai Lintang (Sungai Limau Dalam)","Yan","KDH"
"06900","Kampung Sungai Malai","Yan","KDH"
"06900","Kampung Sungai Pagar","Yan","KDH"
"06900","Kampung Sungai Udang Atas","Yan","KDH"
"06900","Kampung Sungai Udang","Yan","KDH"
"06900","Kampung Sungai Yan","Yan","KDH"
"06900","Kampung Telok Mat Acheh","Yan","KDH"
"06900","Kampung Tengah Yan Kechil","Yan","KDH"
"06900","Kampung Tengah","Yan","KDH"
"06900","Kampung Teroi","Yan","KDH"
"06900","Kampung Titi Bakong","Yan","KDH"
"06900","Kampung Titi Raga","Yan","KDH"
"06900","Kampung Tohor","Yan","KDH"
"06900","Kampung Ulu Dulang Besar","Yan","KDH"
"06900","Kampung Ulu Dulang Kechil","Yan","KDH"
"06900","Kampung Ulu Sedaka","Yan","KDH"
"06900","Kuala Sungai Yan","Yan","KDH"
"06900","Permatang Serentang","Yan","KDH"
"06900","Pondok Fauzi","Yan","KDH"
"06900","Rumah Awam Titi Barong","Yan","KDH"
"06900","Sedaka","Yan","KDH"
"06900","Taman Guru","Yan","KDH"
"06900","Taman Pantai Murni","Yan","KDH"
"06900","Taman Perniagaan","Yan","KDH"
"06900","Taman Rumah Murah Pantai Murni","Yan","KDH"
"06900","Taman Samudera (Yan)","Yan","KDH"
"06900","Taman Samudera Ruat","Yan","KDH"
"06900","Taman Setia Jaya","Yan","KDH"
"06900","Taman Yan","Yan","KDH"
"06900","Titi Serong (Jalan Dulang)","Yan","KDH"
"06900","Yan","Yan","KDH"
"06910","Kampung Hutan Gelam","Yan","KDH"
"06910","Kampung Kubu 10","Yan","KDH"
"06910","Kampung Permatang Kecil","Yan","KDH"
"06910","Kampung Pulau Tambun","Yan","KDH"
"06910","Kampung Selat Selengkoh","Yan","KDH"
"06910","Kampung Selengkoh Tengah","Yan","KDH"
"06910","Kampung Selengkoh","Yan","KDH"
"06910","Kampung Sungai Air Hitam","Yan","KDH"
"06910","Kampung Sungai Bujur","Yan","KDH"
"06910","Kampung Sungai Kering","Yan","KDH"
"06910","Kampung Sungai Kuala Sungai Lim","Yan","KDH"
"06910","Kampung Sungai Tongkang","Yan","KDH"
"06910","Kampung Telok Tawar","Yan","KDH"
"06910","Kampung Tengah (Sungai Limau Dalam)","Yan","KDH"
"06910","Kampung Ulu Selengkoh","Yan","KDH"
"06910","Simpang Empat","Yan","KDH"
"06910","Yan Kechil","Yan","KDH"
"07000","Ayer Hangat","Langkawi","KDH"
"07000","Bayas","Langkawi","KDH"
"07000","Bukit Malut","Langkawi","KDH"
"07000","Desa Kemboja","Langkawi","KDH"
"07000","Ewa","Langkawi","KDH"
"07000","Kampung Atas","Langkawi","KDH"
"07000","Kampung Bagan Asam","Langkawi","KDH"
"07000","Kampung Bagan Pauh","Langkawi","KDH"
"07000","Kampung Bakau Kelibang","Langkawi","KDH"
"07000","Kampung Baru Ewa","Langkawi","KDH"
"07000","Kampung Baru Ulu Melaka","Langkawi","KDH"
"07000","Kampung Batu Ara","Langkawi","KDH"
"07000","Kampung Batu Asah","Langkawi","KDH"
"07000","Kampung Batu Gajah","Langkawi","KDH"
"07000","Kampung Bawah","Langkawi","KDH"
"07000","Kampung Belak","Langkawi","KDH"
"07000","Kampung Belanga Pecah","Langkawi","KDH"
"07000","Kampung Belibis","Langkawi","KDH"
"07000","Kampung Bendang Baru","Langkawi","KDH"
"07000","Kampung Berjaya","Langkawi","KDH"
"07000","Kampung Bohor Berendam","Langkawi","KDH"
"07000","Kampung Bohor Chantek","Langkawi","KDH"
"07000","Kampung Bohor Chempedak","Langkawi","KDH"
"07000","Kampung Bohor Darat","Langkawi","KDH"
"07000","Kampung Bohor Masjid","Langkawi","KDH"
"07000","Kampung Bohor Merah","Langkawi","KDH"
"07000","Kampung Bohor Raja","Langkawi","KDH"
"07000","Kampung Bohor Tempoyak","Langkawi","KDH"
"07000","Kampung Bubor","Langkawi","KDH"
"07000","Kampung Bukit Benggali","Langkawi","KDH"
"07000","Kampung Bukit Cengkuan","Langkawi","KDH"
"07000","Kampung Bukit Hantu","Langkawi","KDH"
"07000","Kampung Bukit Kemboja","Langkawi","KDH"
"07000","Kampung Bukit Lembu","Langkawi","KDH"
"07000","Kampung Bukit Morang","Langkawi","KDH"
"07000","Kampung Bukit Nau","Langkawi","KDH"
"07000","Kampung Bukit Puteh","Langkawi","KDH"
"07000","Kampung Bukit Puteri","Langkawi","KDH"
"07000","Kampung Bukit Tekoh","Langkawi","KDH"
"07000","Kampung Bukit Temin","Langkawi","KDH"
"07000","Kampung Chenarong","Langkawi","KDH"
"07000","Kampung Chendek Kura","Langkawi","KDH"
"07000","Kampung Darat Benta","Langkawi","KDH"
"07000","Kampung Darat Padang Matsirat","Langkawi","KDH"
"07000","Kampung Dato Bakar","Langkawi","KDH"
"07000","Kampung Durian Perangin","Langkawi","KDH"
"07000","Kampung Dusun","Langkawi","KDH"
"07000","Kampung Felcra Kok","Langkawi","KDH"
"07000","Kampung Gelam","Langkawi","KDH"
"07000","Kampung Geronggang","Langkawi","KDH"
"07000","Kampung Huma","Langkawi","KDH"
"07000","Kampung Kelibang","Langkawi","KDH"
"07000","Kampung Kelubi","Langkawi","KDH"
"07000","Kampung Kenyum","Langkawi","KDH"
"07000","Kampung Ketapang Tapang","Langkawi","KDH"
"07000","Kampung Kilim","Langkawi","KDH"
"07000","Kampung Kisap","Langkawi","KDH"
"07000","Kampung Kok","Langkawi","KDH"
"07000","Kampung Kuah","Langkawi","KDH"
"07000","Kampung Kuala Chenang","Langkawi","KDH"
"07000","Kampung Kuala Melaka","Langkawi","KDH"
"07000","Kampung Kuala Muda","Langkawi","KDH"
"07000","Kampung Kuala Sungai","Langkawi","KDH"
"07000","Kampung Kubang Badak","Langkawi","KDH"
"07000","Kampung Kumpulan","Langkawi","KDH"
"07000","Kampung Lawer","Langkawi","KDH"
"07000","Kampung Linchai","Langkawi","KDH"
"07000","Kampung Lubok Buaya","Langkawi","KDH"
"07000","Kampung Lubok Cempedak","Langkawi","KDH"
"07000","Kampung Lubok Etok","Langkawi","KDH"
"07000","Kampung Lubok Setol","Langkawi","KDH"
"07000","Kampung Lubuk Cempedak","Langkawi","KDH"
"07000","Kampung Lubuk Etok","Langkawi","KDH"
"07000","Kampung Mata Ayer","Langkawi","KDH"
"07000","Kampung Mawat","Langkawi","KDH"
"07000","Kampung Nyior Chabang","Langkawi","KDH"
"07000","Kampung Padang Gaung","Langkawi","KDH"
"07000","Kampung Padang Kandang","Langkawi","KDH"
"07000","Kampung Padang Lunas","Langkawi","KDH"
"07000","Kampung Padang Putih","Langkawi","KDH"
"07000","Kampung Padang Saga","Langkawi","KDH"
"07000","Kampung Padang Wahid","Langkawi","KDH"
"07000","Kampung Pasir Hitam","Langkawi","KDH"
"07000","Kampung Pasir Ok","Langkawi","KDH"
"07000","Kampung Paya Jin","Langkawi","KDH"
"07000","Kampung Paya Kuala Triang","Langkawi","KDH"
"07000","Kampung Paya Mempelam","Langkawi","KDH"
"07000","Kampung Paya Mengkuang","Langkawi","KDH"
"07000","Kampung Paya Padang Mat Sirat","Langkawi","KDH"
"07000","Kampung Penarik","Langkawi","KDH"
"07000","Kampung Perana","Langkawi","KDH"
"07000","Kampung Pokok Asam","Langkawi","KDH"
"07000","Kampung Raja","Langkawi","KDH"
"07000","Kampung Ranggut","Langkawi","KDH"
"07000","Kampung Seberang KedaWang","Langkawi","KDH"
"07000","Kampung Seberang Kelibang","Langkawi","KDH"
"07000","Kampung Seberang Ulu Melaka","Langkawi","KDH"
"07000","Kampung Selat Bagan Asam","Langkawi","KDH"
"07000","Kampung Selat Bagan Nyior","Langkawi","KDH"
"07000","Kampung Simpang Empat","Langkawi","KDH"
"07000","Kampung Sungai Itau","Langkawi","KDH"
"07000","Kampung Sungai Kedak","Langkawi","KDH"
"07000","Kampung Sungai Mati Akar","Langkawi","KDH"
"07000","Kampung Sungai Menghulu","Langkawi","KDH"
"07000","Kampung Sungai Nahar","Langkawi","KDH"
"07000","Kampung Tanjong Kedawang","Langkawi","KDH"
"07000","Kampung Tanjong Mali","Langkawi","KDH"
"07000","Kampung Tanjong Rhu","Langkawi","KDH"
"07000","Kampung Tanjung Pandan","Langkawi","KDH"
"07000","Kampung Telok Apau","Langkawi","KDH"
"07000","Kampung Telok Berembang","Langkawi","KDH"
"07000","Kampung Telok Kedak","Langkawi","KDH"
"07000","Kampung Telok Kisap","Langkawi","KDH"
"07000","Kampung Telok Kumbar","Langkawi","KDH"
"07000","Kampung Telok Ulu Melaka","Langkawi","KDH"
"07000","Kampung Telok Yu","Langkawi","KDH"
"07000","Kampung Teluk Berembang","Langkawi","KDH"
"07000","Kampung Teluk Bujur","Langkawi","KDH"
"07000","Kampung Tengah","Langkawi","KDH"
"07000","Kampung Tepa","Langkawi","KDH"
"07000","Kampung Tepi Laut","Langkawi","KDH"
"07000","Kampung Titi Chanwang","Langkawi","KDH"
"07000","Kampung Titi Tinggi","Langkawi","KDH"
"07000","Kampung Wang Tok Rendong","Langkawi","KDH"
"07000","Kampung Yooi","Langkawi","KDH"
"07000","Kedawang","Langkawi","KDH"
"07000","Kelab Desa Langkawi","Langkawi","KDH"
"07000","Kompleks LADA","Langkawi","KDH"
"07000","Kompleks Perumahan Guuru","Langkawi","KDH"
"07000","Kompleks Perumahan Sri Negeri","Langkawi","KDH"
"07000","Kondi Sri Idaman","Langkawi","KDH"
"07000","Kuah","Langkawi","KDH"
"07000","Kuala Teriang","Langkawi","KDH"
"07000","Langkawi","Langkawi","KDH"
"07000","Oriental Village","Langkawi","KDH"
"07000","Padang Matsirat","Langkawi","KDH"
"07000","Perumahan Kedah Cement","Langkawi","KDH"
"07000","Port Langkasuka","Langkawi","KDH"
"07000","Pulau Tuba","Langkawi","KDH"
"07000","Sungai Limau Dalam","Langkawi","KDH"
"07000","Sungai Raya Estate","Langkawi","KDH"
"07000","Suria Century Resort","Langkawi","KDH"
"07000","Taman Ara Jaya","Langkawi","KDH"
"07000","Taman Bukit Indah (Fasa H & Fasa E)","Langkawi","KDH"
"07000","Taman Dahlia ","Langkawi","KDH"
"07000","Taman Dayang Berjaya","Langkawi","KDH"
"07000","Taman Dayang","Langkawi","KDH"
"07000","Taman Delima","Langkawi","KDH"
"07000","Taman Desa Permata","Langkawi","KDH"
"07000","Taman Indah","Langkawi","KDH"
"07000","Taman Intan","Langkawi","KDH"
"07000","Taman Kemboja","Langkawi","KDH"
"07000","Taman Kenari","Langkawi","KDH"
"07000","Taman Langkawi","Langkawi","KDH"
"07000","Taman Medan Jaya","Langkawi","KDH"
"07000","Taman Nilam","Langkawi","KDH"
"07000","Taman Perdana Quay","Langkawi","KDH"
"07000","Taman Rimba Hijau","Langkawi","KDH"
"07000","Taman Selaseh","Langkawi","KDH"
"07000","Taman Seri Ayu","Langkawi","KDH"
"07000","Taman Seri Berlian","Langkawi","KDH"
"07000","Taman Seri Langkawi","Langkawi","KDH"
"07000","Taman Seri Negeri","Langkawi","KDH"
"07000","Taman Seri Pelangi","Langkawi","KDH"
"07000","Taman Seroja","Langkawi","KDH"
"07000","Taman Sri Aman","Langkawi","KDH"
"07000","Taman Sri Dayang","Langkawi","KDH"
"07000","Taman Sri Taman","Langkawi","KDH"
"07000","Taman Unity","Langkawi","KDH"
"07000","Taman Vokesional","Langkawi","KDH"
"07000","Taman Wawasan Baru","Langkawi","KDH"
"07000","Tanjung Gerak","Langkawi","KDH"
"07000","Telaga Tujuh","Langkawi","KDH"
"07000","Temoyong","Langkawi","KDH"
"07000","Tok Puyuh","Langkawi","KDH"
"07000","Ulu Melaka","Langkawi","KDH"
"07007","Langkawi - Peti surat","Langkawi","KDH"
"07009","Langkawi - Beg berkunci","Langkawi","KDH"
"08000","Ambangan Height","Sungai Petani","KDH"
"08000","Bakar Arang","Sungai Petani","KDH"
"08000","Bandar Aman Jaya Utara","Sungai Petani","KDH"
"08000","Bandar Aman Jaya","Sungai Petani","KDH"
"08000","Bandar Astana A","Sungai Petani","KDH"
"08000","Bandar Astana C","Sungai Petani","KDH"
"08000","Bandar Laguna Merbok","Sungai Petani","KDH"
"08000","Bandar Perdana 9/1","Sungai Petani","KDH"
"08000","Bandar Perdana","Sungai Petani","KDH"
"08000","Bandar Puteri Jaya","Sungai Petani","KDH"
"08000","Batu 9 Lubuk Kawah","Sungai Petani","KDH"
"08000","Dataran Semangat","Sungai Petani","KDH"
"08000","EstateSungai Tukang","Sungai Petani","KDH"
"08000","Flat Paya Nahu","Sungai Petani","KDH"
"08000","Jalan Badlishah","Sungai Petani","KDH"
"08000","Jalan Bakar Kapor","Sungai Petani","KDH"
"08000","Jalan Bakar Sampah","Sungai Petani","KDH"
"08000","Jalan Bank","Sungai Petani","KDH"
"08000","Jalan Belakang Masjid Bakar Arang","Sungai Petani","KDH"
"08000","Jalan Boria (1 - 2)","Sungai Petani","KDH"
"08000","Jalan Bukit Lembu","Sungai Petani","KDH"
"08000","Jalan Bunga Rampai","Sungai Petani","KDH"
"08000","Jalan Dato Syed Osman Idid","Sungai Petani","KDH"
"08000","Jalan Dewa","Sungai Petani","KDH"
"08000","Jalan Gemelan Kuda Kepang","Sungai Petani","KDH"
"08000","Jalan Hospital","Sungai Petani","KDH"
"08000","Jalan Ibrahim","Sungai Petani","KDH"
"08000","Jalan Inang","Sungai Petani","KDH"
"08000","Jalan Kampung Baru (BAkar Arang)","Sungai Petani","KDH"
"08000","Jalan Kampung Baru","Sungai Petani","KDH"
"08000","Jalan Kampung Tengah","Sungai Petani","KDH"
"08000","Jalan Kapal Terbang","Sungai Petani","KDH"
"08000","Jalan Kelab Cinta Sayang","Sungai Petani","KDH"
"08000","Jalan Kilang Papan Pekan Lama","Sungai Petani","KDH"
"08000","Jalan Kolam Air","Sungai Petani","KDH"
"08000","Jalan Kuala Ketil (Batu 2)","Sungai Petani","KDH"
"08000","Jalan Kuda Kepang","Sungai Petani","KDH"
"08000","Jalan Mawar Satu (Bakar Kapor)","Sungai Petani","KDH"
"08000","Jalan Merbok","Sungai Petani","KDH"
"08000","Jalan Merpati","Sungai Petani","KDH"
"08000","Jalan Pegawai (1 - 2)","Sungai Petani","KDH"
"08000","Jalan Pegawai","Sungai Petani","KDH"
"08000","Jalan Pekaka","Sungai Petani","KDH"
"08000","Jalan Penghulu Him","Sungai Petani","KDH"
"08000","Jalan Pengkalan Lebai Man","Sungai Petani","KDH"
"08000","Jalan Pengkalan","Sungai Petani","KDH"
"08000","Jalan Pergam","Sungai Petani","KDH"
"08000","Jalan Permatang Gedong","Sungai Petani","KDH"
"08000","Jalan Petani","Sungai Petani","KDH"
"08000","Jalan Putri","Sungai Petani","KDH"
"08000","Jalan Sekerat","Sungai Petani","KDH"
"08000","Jalan Sungai Layar","Sungai Petani","KDH"
"08000","Jalan Taman Intan","Sungai Petani","KDH"
"08000","Jalan Tiong","Sungai Petani","KDH"
"08000","Jalan Undan","Sungai Petani","KDH"
"08000","Kampung Abbas","Sungai Petani","KDH"
"08000","Kampung Air Mendidih","Sungai Petani","KDH"
"08000","Kampung Asam","Sungai Petani","KDH"
"08000","Kampung Asi","Sungai Petani","KDH"
"08000","Kampung Bahagia","Sungai Petani","KDH"
"08000","Kampung Bakar Arang","Sungai Petani","KDH"
"08000","Kampung Bakar Bata","Sungai Petani","KDH"
"08000","Kampung Bakar Kapor","Sungai Petani","KDH"
"08000","Kampung Bakar Sampah Lima","Sungai Petani","KDH"
"08000","Kampung Bakar Sampah","Sungai Petani","KDH"
"08000","Kampung Baru Permatang Berangan","Sungai Petani","KDH"
"08000","Kampung Baru Pinang Tunggal","Sungai Petani","KDH"
"08000","Kampung Baru Sungai Pasir Kecil (Jalan Kuala Ketil)","Sungai Petani","KDH"
"08000","Kampung Baru Sungai Pasir","Sungai Petani","KDH"
"08000","Kampung Baru","Sungai Petani","KDH"
"08000","Kampung Batu Dua","Sungai Petani","KDH"
"08000","Kampung Belakang Kilang Papan","Sungai Petani","KDH"
"08000","Kampung Belakang Sekolah Cina","Sungai Petani","KDH"
"08000","Kampung Belakang Sekolah Menengah","Sungai Petani","KDH"
"08000","Kampung Belakang Taman Sungai Lalang","Sungai Petani","KDH"
"08000","Kampung Benggali","Sungai Petani","KDH"
"08000","Kampung Blok Hospital","Sungai Petani","KDH"
"08000","Kampung Bukit Belah","Sungai Petani","KDH"
"08000","Kampung Bukit Pengkalan Lebai Man","Sungai Petani","KDH"
"08000","Kampung Bukit Sera","Sungai Petani","KDH"
"08000","Kampung Bukit Sungai Pasir","Sungai Petani","KDH"
"08000","Kampung Ceruk Kelian","Sungai Petani","KDH"
"08000","Kampung Ceruk Kelubi","Sungai Petani","KDH"
"08000","Kampung Cik Bema","Sungai Petani","KDH"
"08000","Kampung Dakwah","Sungai Petani","KDH"
"08000","Kampung Depan Balai","Sungai Petani","KDH"
"08000","Kampung Gelugur","Sungai Petani","KDH"
"08000","Kampung Gok Arang","Sungai Petani","KDH"
"08000","Kampung Gok","Sungai Petani","KDH"
"08000","Kampung Haji Din","Sungai Petani","KDH"
"08000","Kampung Haji Ibrahim","Sungai Petani","KDH"
"08000","Kampung Haji Ismail","Sungai Petani","KDH"
"08000","Kampung Haji Rashid","Sungai Petani","KDH"
"08000","Kampung Haji Wahab","Sungai Petani","KDH"
"08000","Kampung Huda","Sungai Petani","KDH"
"08000","Kampung Jalan Kilang Papan","Sungai Petani","KDH"
"08000","Kampung Jawa","Sungai Petani","KDH"
"08000","Kampung Jerung","Sungai Petani","KDH"
"08000","Kampung Jurung","Sungai Petani","KDH"
"08000","Kampung Kari","Sungai Petani","KDH"
"08000","Kampung Kebun Bunga","Sungai Petani","KDH"
"08000","Kampung Keda","Sungai Petani","KDH"
"08000","Kampung Kendudong","Sungai Petani","KDH"
"08000","Kampung Kepala Bukit","Sungai Petani","KDH"
"08000","Kampung Kerbau","Sungai Petani","KDH"
"08000","Kampung Kilang Makau","Sungai Petani","KDH"
"08000","Kampung Kongsi Enam","Sungai Petani","KDH"
"08000","Kampung Kuala Sidim","Sungai Petani","KDH"
"08000","Kampung Kuda / Kuil","Sungai Petani","KDH"
"08000","Kampung Lubok Kawah","Sungai Petani","KDH"
"08000","Kampung Lubok Kiab","Sungai Petani","KDH"
"08000","Kampung Masjid Sungai Layar","Sungai Petani","KDH"
"08000","Kampung Masjid Sungai Pasir","Sungai Petani","KDH"
"08000","Kampung Matang Berangan","Sungai Petani","KDH"
"08000","Kampung Matang Dedung","Sungai Petani","KDH"
"08000","Kampung Matang Kedundong","Sungai Petani","KDH"
"08000","Kampung Nakhoda","Sungai Petani","KDH"
"08000","Kampung Pa In","Sungai Petani","KDH"
"08000","Kampung Padang Regent","Sungai Petani","KDH"
"08000","Kampung Padang Sungai Pasir","Sungai Petani","KDH"
"08000","Kampung Padang Temusu","Sungai Petani","KDH"
"08000","Kampung Padang","Sungai Petani","KDH"
"08000","Kampung Pak Ibrahim (Kampung Raja)","Sungai Petani","KDH"
"08000","Kampung Paya Dua","Sungai Petani","KDH"
"08000","Kampung Paya Empat","Sungai Petani","KDH"
"08000","Kampung Paya Mengkuang","Sungai Petani","KDH"
"08000","Kampung Paya Nahu","Sungai Petani","KDH"
"08000","Kampung Paya","Sungai Petani","KDH"
"08000","Kampung Penggir","Sungai Petani","KDH"
"08000","Kampung Penghulu Him","Sungai Petani","KDH"
"08000","Kampung Pengkalan Lebai Man","Sungai Petani","KDH"
"08000","Kampung Pengkalan","Sungai Petani","KDH"
"08000","Kampung Permatang Berangan","Sungai Petani","KDH"
"08000","Kampung Permatang Kedondong","Sungai Petani","KDH"
"08000","Kampung Pinang Dalam","Sungai Petani","KDH"
"08000","Kampung Pinang Luar","Sungai Petani","KDH"
"08000","Kampung Pinggir","Sungai Petani","KDH"
"08000","Kampung Pokok Limau","Sungai Petani","KDH"
"08000","Kampung Pokok Machang","Sungai Petani","KDH"
"08000","Kampung Pulau Hawai","Sungai Petani","KDH"
"08000","Kampung Pulau Tengah","Sungai Petani","KDH"
"08000","Kampung Pulau Tiga","Sungai Petani","KDH"
"08000","Kampung Pulau Tok Daud","Sungai Petani","KDH"
"08000","Kampung Raja Garden","Sungai Petani","KDH"
"08000","Kampung Raja","Sungai Petani","KDH"
"08000","Kampung Redang","Sungai Petani","KDH"
"08000","Kampung Sebelas","Sungai Petani","KDH"
"08000","Kampung Seberang Sungai","Sungai Petani","KDH"
"08000","Kampung Seberang Tok Soh","Sungai Petani","KDH"
"08000","Kampung Sharif Tukang","Sungai Petani","KDH"
"08000","Kampung Sireh","Sungai Petani","KDH"
"08000","Kampung Songkia","Sungai Petani","KDH"
"08000","Kampung Songkiar","Sungai Petani","KDH"
"08000","Kampung Sungai Gelugur","Sungai Petani","KDH"
"08000","Kampung Sungai Getah","Sungai Petani","KDH"
"08000","Kampung Sungai Jagong","Sungai Petani","KDH"
"08000","Kampung Sungai Layar","Sungai Petani","KDH"
"08000","Kampung Sungai Tukang","Sungai Petani","KDH"
"08000","Kampung Sungai Ujung","Sungai Petani","KDH"
"08000","Kampung Sungkup Para","Sungai Petani","KDH"
"08000","Kampung Surkam","Sungai Petani","KDH"
"08000","Kampung Taman Mandi Lembu","Sungai Petani","KDH"
"08000","Kampung Tanah Seribu (Jalan Bukit Lembu)","Sungai Petani","KDH"
"08000","Kampung Tanah Seribu","Sungai Petani","KDH"
"08000","Kampung Tasek Apong","Sungai Petani","KDH"
"08000","Kampung Telok Wan Besar","Sungai Petani","KDH"
"08000","Kampung Telok Wang Kecil","Sungai Petani","KDH"
"08000","Kampung Telok Wang","Sungai Petani","KDH"
"08000","Kampung Telok","Sungai Petani","KDH"
"08000","Kampung Tengah (Padang Tembusu)","Sungai Petani","KDH"
"08000","Kampung Tengah (Sungai Pasir)","Sungai Petani","KDH"
"08000","Kampung Tengah","Sungai Petani","KDH"
"08000","Kampung Teroi","Sungai Petani","KDH"
"08000","Kampung Titi Mandi Lembu","Sungai Petani","KDH"
"08000","Kampung Tok Iman","Sungai Petani","KDH"
"08000","Kampung Tok Khamis","Sungai Petani","KDH"
"08000","Kampung Tok Munah","Sungai Petani","KDH"
"08000","Kampung Tok Soh","Sungai Petani","KDH"
"08000","Kampung Wat Siam","Sungai Petani","KDH"
"08000","Kawasan Industri Cindai Jaya","Sungai Petani","KDH"
"08000","Kawasan Industri Saga","Sungai Petani","KDH"
"08000","Kawasan Perindustrian Bakar Arang","Sungai Petani","KDH"
"08000","Kawasan Perindustrian Bukit Makmur","Sungai Petani","KDH"
"08000","Kawasan Perindustrian Sungai Lalang","Sungai Petani","KDH"
"08000","Kawasan Perindustrian Sungai Tukang","Sungai Petani","KDH"
"08000","Kawasan Perindustrian Yuland","Sungai Petani","KDH"
"08000","Ladang Aman Jaya","Sungai Petani","KDH"
"08000","Ladang Bukit Lembu","Sungai Petani","KDH"
"08000","Ladang Eupe","Sungai Petani","KDH"
"08000","Ladang Ghee Huat","Sungai Petani","KDH"
"08000","Ladang Golden","Sungai Petani","KDH"
"08000","Ladang Helender","Sungai Petani","KDH"
"08000","Ladang Permatang Buluh","Sungai Petani","KDH"
"08000","Ladang Pinang Tunggal","Sungai Petani","KDH"
"08000","Ladang Rusa","Sungai Petani","KDH"
"08000","Ladang Selambau","Sungai Petani","KDH"
"08000","Ladang Sin Yu","Sungai Petani","KDH"
"08000","Ladang Sungai Getah","Sungai Petani","KDH"
"08000","Ladang Sungai Tukang","Sungai Petani","KDH"
"08000","Ladang Sungai","Sungai Petani","KDH"
"08000","Ladang Sungkup Para","Sungai Petani","KDH"
"08000","Ladang Up Rusa","Sungai Petani","KDH"
"08000","Ladang Up Selambau","Sungai Petani","KDH"
"08000","Ladang Up","Sungai Petani","KDH"
"08000","Leboh Zamrud","Sungai Petani","KDH"
"08000","Pekan Atap","Sungai Petani","KDH"
"08000","Pekan Lama Sungai Petani","Sungai Petani","KDH"
"08000","Pekan Sungai Lalang","Sungai Petani","KDH"
"08000","Pengkalan Sungai Lalang","Sungai Petani","KDH"
"08000","Persiaran Kenanga Aman Jaya","Sungai Petani","KDH"
"08000","Pinang Tunggal","Sungai Petani","KDH"
"08000","Putrijaya Hillpark","Sungai Petani","KDH"
"08000","Rancangan Perumahan Awam 3","Sungai Petani","KDH"
"08000","Rumah Kedai Peruda","Sungai Petani","KDH"
"08000","Rumah Murah Sungai Lalang","Sungai Petani","KDH"
"08000","Simpang Scaboro","Sungai Petani","KDH"
"08000","Sungai Layar Hujung","Sungai Petani","KDH"
"08000","Sungai Pasir Kechil","Sungai Petani","KDH"
"08000","Sungai Pasir","Sungai Petani","KDH"
"08000","Sungai Petani","Sungai Petani","KDH"
"08000","Taman Akid","Sungai Petani","KDH"
"08000","Taman Aman Jaya (Anggerik)","Sungai Petani","KDH"
"08000","Taman Aman Jaya (Cempaka)","Sungai Petani","KDH"
"08000","Taman Aman Jaya (Kenanga)","Sungai Petani","KDH"
"08000","Taman Aman Jaya (Mawar)","Sungai Petani","KDH"
"08000","Taman Aman Jaya (Melati)","Sungai Petani","KDH"
"08000","Taman Aman Jaya (Seroja)","Sungai Petani","KDH"
"08000","Taman Aman","Sungai Petani","KDH"
"08000","Taman Angsana","Sungai Petani","KDH"
"08000","Taman Baiduri (Maju)","Sungai Petani","KDH"
"08000","Taman Baiduri Indah","Sungai Petani","KDH"
"08000","Taman Baiduri","Sungai Petani","KDH"
"08000","Taman Bakar Arang","Sungai Petani","KDH"
"08000","Taman Bandar Baru","Sungai Petani","KDH"
"08000","Taman Bandar Perdana Tasmin","Sungai Petani","KDH"
"08000","Taman Bandar Perdana","Sungai Petani","KDH"
"08000","Taman Bandar Utama","Sungai Petani","KDH"
"08000","Taman Baru","Sungai Petani","KDH"
"08000","Taman Batek","Sungai Petani","KDH"
"08000","Taman Berangan Sri","Sungai Petani","KDH"
"08000","Taman Berangan","Sungai Petani","KDH"
"08000","Taman Beringin Indah","Sungai Petani","KDH"
"08000","Taman Berjaya Baru","Sungai Petani","KDH"
"08000","Taman Berjaya","Sungai Petani","KDH"
"08000","Taman Berlian","Sungai Petani","KDH"
"08000","Taman Bersatu","Sungai Petani","KDH"
"08000","Taman Bertam","Sungai Petani","KDH"
"08000","Taman Bistari Jaya","Sungai Petani","KDH"
"08000","Taman Bukit Bayu Banglo","Sungai Petani","KDH"
"08000","Taman Bukit Makmur","Sungai Petani","KDH"
"08000","Taman Bunga Raya","Sungai Petani","KDH"
"08000","Taman Cahaya Baiduri","Sungai Petani","KDH"
"08000","Taman Cemara","Sungai Petani","KDH"
"08000","Taman Cempaka","Sungai Petani","KDH"
"08000","Taman Cendana","Sungai Petani","KDH"
"08000","Taman Cengai Emas","Sungai Petani","KDH"
"08000","Taman Cengal Jaya","Sungai Petani","KDH"
"08000","Taman Dahalia Indah","Sungai Petani","KDH"
"08000","Taman Dahlia","Sungai Petani","KDH"
"08000","Taman Delima","Sungai Petani","KDH"
"08000","Taman Desa Aman","Sungai Petani","KDH"
"08000","Taman Desa Bistari","Sungai Petani","KDH"
"08000","Taman Desa Budiman","Sungai Petani","KDH"
"08000","Taman Desa Indah","Sungai Petani","KDH"
"08000","Taman Desa Jaya","Sungai Petani","KDH"
"08000","Taman Desa Menanti","Sungai Petani","KDH"
"08000","Taman Desa Meranti Indah","Sungai Petani","KDH"
"08000","Taman Desa Permai","Sungai Petani","KDH"
"08000","Taman Emas Suria","Sungai Petani","KDH"
"08000","Taman Gedong","Sungai Petani","KDH"
"08000","Taman Gemilang","Sungai Petani","KDH"
"08000","Taman Hillpark","Sungai Petani","KDH"
"08000","Taman Indah","Sungai Petani","KDH"
"08000","Taman Intan","Sungai Petani","KDH"
"08000","Taman Kampung Raja","Sungai Petani","KDH"
"08000","Taman Keladi Angsana","Sungai Petani","KDH"
"08000","Taman Keladi","Sungai Petani","KDH"
"08000","Taman Kelisa Ria","Sungai Petani","KDH"
"08000","Taman Kelisa","Sungai Petani","KDH"
"08000","Taman Kempas","Sungai Petani","KDH"
"08000","Taman Kenari Biru","Sungai Petani","KDH"
"08000","Taman Kenari Indah","Sungai Petani","KDH"
"08000","Taman Kenari Jaya","Sungai Petani","KDH"
"08000","Taman Kenari Merdu","Sungai Petani","KDH"
"08000","Taman Kenari","Sungai Petani","KDH"
"08000","Taman Keranji Indah","Sungai Petani","KDH"
"08000","Taman Keranji","Sungai Petani","KDH"
"08000","Taman Kristal","Sungai Petani","KDH"
"08000","Taman Kuala Muda","Sungai Petani","KDH"
"08000","Taman Legenda Height","Sungai Petani","KDH"
"08000","Taman Lembah Permai","Sungai Petani","KDH"
"08000","Taman Lincungan Barat","Sungai Petani","KDH"
"08000","Taman Maju","Sungai Petani","KDH"
"08000","Taman Mas Suria","Sungai Petani","KDH"
"08000","Taman Mawar","Sungai Petani","KDH"
"08000","Taman Melati Indah","Sungai Petani","KDH"
"08000","Taman Melati Jaya","Sungai Petani","KDH"
"08000","Taman Melati Layar","Sungai Petani","KDH"
"08000","Taman Melati","Sungai Petani","KDH"
"08000","Taman Melor Indah","Sungai Petani","KDH"
"08000","Taman Melor","Sungai Petani","KDH"
"08000","Taman Merpati","Sungai Petani","KDH"
"08000","Taman Mewah Indah","Sungai Petani","KDH"
"08000","Taman Mewah Jaya","Sungai Petani","KDH"
"08000","Taman Mewah","Sungai Petani","KDH"
"08000","Taman Muazam Shah","Sungai Petani","KDH"
"08000","Taman Muhibbah","Sungai Petani","KDH"
"08000","Taman Mulia","Sungai Petani","KDH"
"08000","Taman Mutiara Indah","Sungai Petani","KDH"
"08000","Taman Mutiara Jaya","Sungai Petani","KDH"
"08000","Taman Mutiara","Sungai Petani","KDH"
"08000","Taman Nilam Sari","Sungai Petani","KDH"
"08000","Taman Nilam","Sungai Petani","KDH"
"08000","Taman Nuri Jaya","Sungai Petani","KDH"
"08000","Taman Nuri","Sungai Petani","KDH"
"08000","Taman Orkid","Sungai Petani","KDH"
"08000","Taman PKNK Bakar Arang","Sungai Petani","KDH"
"08000","Taman PKNK Cahaya","Sungai Petani","KDH"
"08000","Taman Padi Mas Jaya","Sungai Petani","KDH"
"08000","Taman Padi Mas","Sungai Petani","KDH"
"08000","Taman Pahlawan","Sungai Petani","KDH"
"08000","Taman Palma","Sungai Petani","KDH"
"08000","Taman Pasir Mas Indah","Sungai Petani","KDH"
"08000","Taman Pasir Mas Jaya","Sungai Petani","KDH"
"08000","Taman Pasir Mas","Sungai Petani","KDH"
"08000","Taman Pekan Baru","Sungai Petani","KDH"
"08000","Taman Penaga","Sungai Petani","KDH"
"08000","Taman Perdana Teja","Sungai Petani","KDH"
"08000","Taman Permai Beseri Jaya","Sungai Petani","KDH"
"08000","Taman Permai Bistari","Sungai Petani","KDH"
"08000","Taman Permai","Sungai Petani","KDH"
"08000","Taman Permata Hillpark","Sungai Petani","KDH"
"08000","Taman Permata Semarak","Sungai Petani","KDH"
"08000","Taman Permata","Sungai Petani","KDH"
"08000","Taman Peruda 2","Sungai Petani","KDH"
"08000","Taman Peruda Utama","Sungai Petani","KDH"
"08000","Taman Perusahaan Ringan Padang Temusu","Sungai Petani","KDH"
"08000","Taman Petani Jaya","Sungai Petani","KDH"
"08000","Taman Pinang Emas","Sungai Petani","KDH"
"08000","Taman Pinang Tunggal","Sungai Petani","KDH"
"08000","Taman Ria Indah","Sungai Petani","KDH"
"08000","Taman Ria Murni","Sungai Petani","KDH"
"08000","Taman Ria","Sungai Petani","KDH"
"08000","Taman Ros","Sungai Petani","KDH"
"08000","Taman Sejahtera","Sungai Petani","KDH"
"08000","Taman Sejati Gold ","Sungai Petani","KDH"
"08000","Taman Sejati Indah","Sungai Petani","KDH"
"08000","Taman Sejati","Sungai Petani","KDH"
"08000","Taman Semangat Indah","Sungai Petani","KDH"
"08000","Taman Semangat","Sungai Petani","KDH"
"08000","Taman Semarak","Sungai Petani","KDH"
"08000","Taman Sentosa","Sungai Petani","KDH"
"08000","Taman Sepakat","Sungai Petani","KDH"
"08000","Taman Seraya","Sungai Petani","KDH"
"08000","Taman Seri Astana ","Sungai Petani","KDH"
"08000","Taman Seri Baiduri","Sungai Petani","KDH"
"08000","Taman Seri Gadong","Sungai Petani","KDH"
"08000","Taman Seri Impian","Sungai Petani","KDH"
"08000","Taman Seri Menanti","Sungai Petani","KDH"
"08000","Taman Seri Mutiara","Sungai Petani","KDH"
"08000","Taman Seri Putera","Sungai Petani","KDH"
"08000","Taman Seri Songket","Sungai Petani","KDH"
"08000","Taman Seri Tanjung","Sungai Petani","KDH"
"08000","Taman Seri Wang","Sungai Petani","KDH"
"08000","Taman Serindik","Sungai Petani","KDH"
"08000","Taman Seruling Indah","Sungai Petani","KDH"
"08000","Taman Seruling","Sungai Petani","KDH"
"08000","Taman Setia Jaya","Sungai Petani","KDH"
"08000","Taman Siaran Aman Jaya","Sungai Petani","KDH"
"08000","Taman Sidam","Sungai Petani","KDH"
"08000","Taman Sinar Baiduri","Sungai Petani","KDH"
"08000","Taman Sinar Intan","Sungai Petani","KDH"
"08000","Taman Sinar Permata","Sungai Petani","KDH"
"08000","Taman Songket Indah","Sungai Petani","KDH"
"08000","Taman Sri Baiduri","Sungai Petani","KDH"
"08000","Taman Sri Bayu 2","Sungai Petani","KDH"
"08000","Taman Sri Bayu","Sungai Petani","KDH"
"08000","Taman Sri Cendana","Sungai Petani","KDH"
"08000","Taman Sri Emas","Sungai Petani","KDH"
"08000","Taman Sri Gedong","Sungai Petani","KDH"
"08000","Taman Sri Telok Wang","Sungai Petani","KDH"
"08000","Taman Sri Wang","Sungai Petani","KDH"
"08000","Taman Sri Wangi","Sungai Petani","KDH"
"08000","Taman Sungai Lalang (1 - 2)","Sungai Petani","KDH"
"08000","Taman Sutera Idaman","Sungai Petani","KDH"
"08000","Taman Sutera Jaya","Sungai Petani","KDH"
"08000","Taman Sutera","Sungai Petani","KDH"
"08000","Taman Sutra Suria","Sungai Petani","KDH"
"08000","Taman Telok Baiduri","Sungai Petani","KDH"
"08000","Taman Teratai Indah","Sungai Petani","KDH"
"08000","Taman Teratai Mekar","Sungai Petani","KDH"
"08000","Taman Teratai","Sungai Petani","KDH"
"08000","Taman Tiong","Sungai Petani","KDH"
"08000","Taman Tuanku Aminah","Sungai Petani","KDH"
"08000","Taman Tuanku Hamimah","Sungai Petani","KDH"
"08000","Taman Widuri","Sungai Petani","KDH"
"08000","Taman Wira Jaya","Sungai Petani","KDH"
"08000","Taman Wira","Sungai Petani","KDH"
"08007","Sungai Petani - Peti surat","Sungai Petani","KDH"
"08009","Sungai Petani - Beg berkunci","Sungai Petani","KDH"
"08010","Bukit Belachan","Sungai Petani","KDH"
"08010","Bukit Selambau","Sungai Petani","KDH"
"08010","Bumi Muda Estate","Sungai Petani","KDH"
"08010","Kampung Baru Bukit Selambau","Sungai Petani","KDH"
"08010","Kampung Batu Belachan","Sungai Petani","KDH"
"08010","Kampung Bukit Terabak","Sungai Petani","KDH"
"08010","Kampung Haji Hashim","Sungai Petani","KDH"
"08010","Kampung Haji Hassan","Sungai Petani","KDH"
"08010","Kampung Haji Mangon","Sungai Petani","KDH"
"08010","Kampung Haji Mehat","Sungai Petani","KDH"
"08010","Kampung Haji Safar","Sungai Petani","KDH"
"08010","Kampung Jerai","Sungai Petani","KDH"
"08010","Kampung Klinik","Sungai Petani","KDH"
"08010","Kampung Kuala Sin","Sungai Petani","KDH"
"08010","Kampung Lima Puluh Relong","Sungai Petani","KDH"
"08010","Kampung Lubok Batu","Sungai Petani","KDH"
"08010","Kampung Pegawai","Sungai Petani","KDH"
"08010","Kampung Penghulu Tua","Sungai Petani","KDH"
"08010","Kampung Perak","Sungai Petani","KDH"
"08010","Kampung Serungkup","Sungai Petani","KDH"
"08010","Kampung Sin Heng Estate","Sungai Petani","KDH"
"08010","Kampung Sungai Anak Ikan","Sungai Petani","KDH"
"08010","Kampung Sungai Gajah","Sungai Petani","KDH"
"08010","Kampung Sungai Nyior","Sungai Petani","KDH"
"08010","Kampung Tengkorak Batu","Sungai Petani","KDH"
"08010","Kebun 400","Sungai Petani","KDH"
"08010","Kongsi Tiga","Sungai Petani","KDH"
"08010","Poh Lim Estate","Sungai Petani","KDH"
"08010","Simpang Kuala Sin","Sungai Petani","KDH"
"08100","Bedong","Bedong","KDH"
"08100","Bujang","Bedong","KDH"
"08100","Bukit Merah","Bedong","KDH"
"08100","Kampung Bakar Sampah","Bedong","KDH"
"08100","Kampung Baru Bedong","Bedong","KDH"
"08100","Kampung Batu Hampar","Bedong","KDH"
"08100","Kampung Bendang Dalam","Bedong","KDH"
"08100","Kampung Haji Ngah","Bedong","KDH"
"08100","Kampung Kuala Muda Estate","Bedong","KDH"
"08100","Kampung Lebai Ali","Bedong","KDH"
"08100","Kampung Matang Samak","Bedong","KDH"
"08100","Kampung Pengkalan Bujang","Bedong","KDH"
"08100","Kampung Pinang","Bedong","KDH"
"08100","Kampung Pisang","Bedong","KDH"
"08100","Kampung Semeling","Bedong","KDH"
"08100","Kampung Sungai Keluang","Bedong","KDH"
"08100","Kampung Sungai Tok Pawang","Bedong","KDH"
"08100","Kampung Telaga China","Bedong","KDH"
"08100","Kampung Telok","Bedong","KDH"
"08100","Kampung Tempoyak","Bedong","KDH"
"08100","Kampung Tupah","Bedong","KDH"
"08100","Ladang Sungai Bongkok","Bedong","KDH"
"08100","Semiling","Bedong","KDH"
"08100","Sungai Lalang","Bedong","KDH"
"08100","Taman Bandar Baru","Bedong","KDH"
"08100","Taman Bersatu Maju","Bedong","KDH"
"08100","Taman Desa Budiman","Bedong","KDH"
"08100","Taman Harmoni","Bedong","KDH"
"08100","Taman Lembah Bujang (Fasa 1 & 2)","Bedong","KDH"
"08100","Taman Mesra Indah","Bedong","KDH"
"08100","Taman Permai (Fasa 2)","Bedong","KDH"
"08100","Taman Permaipura Mesra","Bedong","KDH"
"08100","Taman Permaipura Murni","Bedong","KDH"
"08100","Taman Sinar Mentari","Bedong","KDH"
"08100","Thye Seng Estate","Bedong","KDH"
"08110","Kampung Huma","Bedong","KDH"
"08110","Kampung Paya","Bedong","KDH"
"08110","Kampung Singkir Darat","Bedong","KDH"
"08110","Kampung Singkir Genting","Bedong","KDH"
"08110","Kampung Singkir Kedai Keling","Bedong","KDH"
"08110","Kampung Singkir Laut","Bedong","KDH"
"08110","Kampung Singkir","Bedong","KDH"
"08110","Kampung Sungai Deraka","Bedong","KDH"
"08110","Kampung Sungai Pial","Bedong","KDH"
"08110","Rancangan Tanah Jilid 1 - 2","Bedong","KDH"
"08110","Taman Sri Mesra","Bedong","KDH"
"08200","Kampung Balong Ayam","Sik","KDH"
"08200","Kampung Banggol Dedap","Sik","KDH"
"08200","Kampung Banggol Selayang","Sik","KDH"
"08200","Kampung Banggol","Sik","KDH"
"08200","Kampung Batu Lapan","Sik","KDH"
"08200","Kampung Belimbing","Sik","KDH"
"08200","Kampung Bendang Man","Sik","KDH"
"08200","Kampung Bendang Tebal","Sik","KDH"
"08200","Kampung Bendang Temenggiat","Sik","KDH"
"08200","Kampung Charok Kamuning","Sik","KDH"
"08200","Kampung Charok Kelian","Sik","KDH"
"08200","Kampung Charok Kit","Sik","KDH"
"08200","Kampung Charok Kudong","Sik","KDH"
"08200","Kampung Charok Padang","Sik","KDH"
"08200","Kampung Charok Pelandok","Sik","KDH"
"08200","Kampung Charok Rambai","Sik","KDH"
"08200","Kampung Charok Sejok","Sik","KDH"
"08200","Kampung Charok Sireh","Sik","KDH"
"08200","Kampung Chepir","Sik","KDH"
"08200","Kampung Chong","Sik","KDH"
"08200","Kampung Hujong Bechah","Sik","KDH"
"08200","Kampung Hujung Bandar","Sik","KDH"
"08200","Kampung Hujung Tandop","Sik","KDH"
"08200","Kampung Jelutong","Sik","KDH"
"08200","Kampung Jering","Sik","KDH"
"08200","Kampung Joget","Sik","KDH"
"08200","Kampung Kemelong","Sik","KDH"
"08200","Kampung Kerawai","Sik","KDH"
"08200","Kampung Lalang","Sik","KDH"
"08200","Kampung Lubok Besar","Sik","KDH"
"08200","Kampung Namek","Sik","KDH"
"08200","Kampung Paya Terendam","Sik","KDH"
"08200","Kampung Sadu","Sik","KDH"
"08200","Kampung Sedu","Sik","KDH"
"08200","Kampung Sena","Sik","KDH"
"08200","Kampung Sungai Batang","Sik","KDH"
"08200","Kampung Sungai Senam","Sik","KDH"
"08200","Kampung Tanjong","Sik","KDH"
"08200","Kampung Titi Semang","Sik","KDH"
"08200","Nanir","Sik","KDH"
"08200","Tanjung Dawai","Sik","KDH"
"08210","Gulau","Sik","KDH"
"08210","Kampung Baru Nami","Sik","KDH"
"08210","Kampung Batu Seketul","Sik","KDH"
"08210","Kampung Belantek","Sik","KDH"
"08210","Kampung Bukit Batu","Sik","KDH"
"08210","Kampung Bukit Berangan","Sik","KDH"
"08210","Kampung Cerok Pisang","Sik","KDH"
"08210","Kampung Cerok Tenang","Sik","KDH"
"08210","Kampung Charok Sedau","Sik","KDH"
"08210","Kampung Danglau","Sik","KDH"
"08210","Kampung Gubir","Sik","KDH"
"08210","Kampung Gulau","Sik","KDH"
"08210","Kampung Jurong","Sik","KDH"
"08210","Kampung Kota Aur","Sik","KDH"
"08210","Kampung Kuala Beris","Sik","KDH"
"08210","Kampung Kubang Kesom","Sik","KDH"
"08210","Kampung Landai","Sik","KDH"
"08210","Kampung Lubok Jerai","Sik","KDH"
"08210","Kampung Lubok Nami","Sik","KDH"
"08210","Kampung Lutang","Sik","KDH"
"08210","Kampung Perangin","Sik","KDH"
"08210","Kampung Perangkap","Sik","KDH"
"08210","Kampung Pinang","Sik","KDH"
"08210","Kampung Sungai Kap","Sik","KDH"
"08210","Kampung Surau","Sik","KDH"
"08210","Kampung Tanjong Piring","Sik","KDH"
"08210","Sik","Sik","KDH"
"08300","Gurun","Gurun","KDH"
"08300","Kampung Baru Gurun","Gurun","KDH"
"08300","Kampung Batu 21","Gurun","KDH"
"08300","Kampung Belakang Sekolah Gurun","Gurun","KDH"
"08300","Kampung Bongkok","Gurun","KDH"
"08300","Kampung Gual Nanas","Gurun","KDH"
"08300","Kampung Guar Jumaat","Gurun","KDH"
"08300","Kampung Jelatang","Gurun","KDH"
"08300","Kampung Kilang Papan","Gurun","KDH"
"08300","Kampung Masjid Baru","Gurun","KDH"
"08300","Kampung Padang Bongkok","Gurun","KDH"
"08300","Kampung Pulau Chengai","Gurun","KDH"
"08300","Kampung Sungai Badak","Gurun","KDH"
"08300","Kampung Sungai Ibor","Gurun","KDH"
"08300","Kampung Sungai Kunyit","Gurun","KDH"
"08300","Kem Hobart","Gurun","KDH"
"08300","Ladang Chin Hong","Gurun","KDH"
"08300","Ladang Choon Hong","Gurun","KDH"
"08300","Ladang Habsah","Gurun","KDH"
"08300","Ladang Hor Soon","Gurun","KDH"
"08300","Ladang Lenton","Gurun","KDH"
"08300","Ladang Lim Heng Tong","Gurun","KDH"
"08300","Ladang Soon Lee","Gurun","KDH"
"08300","Ladang Sungai Padu","Gurun","KDH"
"08300","Ladang Tai Cheang","Gurun","KDH"
"08300","Ladang Thor Boon Tham","Gurun","KDH"
"08300","Ladang Thye Lye","Gurun","KDH"
"08300","Ladang Tzi Cheang","Gurun","KDH"
"08300","Ladang Wong Jee","Gurun","KDH"
"08300","Ladang Yeoh Eng","Gurun","KDH"
"08300","Ladang Yom Long","Gurun","KDH"
"08300","Nami","Gurun","KDH"
"08300","Taman Berjaya","Gurun","KDH"
"08300","Taman Gurun Indah","Gurun","KDH"
"08300","Taman Jerai Harmoni","Gurun","KDH"
"08300","Taman Jerai Indah","Gurun","KDH"
"08300","Taman Jerai Maju","Gurun","KDH"
"08300","Taman Jerai Mas","Gurun","KDH"
"08300","Taman Lindungan Jerai","Gurun","KDH"
"08300","Taman Puteri Lanjeda","Gurun","KDH"
"08300","Taman Ria Mesra Fasa 2","Gurun","KDH"
"08320","Desa Jaya","Jeniang","KDH"
"08320","Kampung Banggol Luar","Jeniang","KDH"
"08320","Kampung Banggol","Jeniang","KDH"
"08320","Kampung Baru Kura","Jeniang","KDH"
"08320","Kampung Bentong Dalam","Jeniang","KDH"
"08320","Kampung Bentong","Jeniang","KDH"
"08320","Kampung Bukit Hangus","Jeniang","KDH"
"08320","Kampung Charok Tala","Jeniang","KDH"
"08320","Kampung Dahaman","Jeniang","KDH"
"08320","Kampung Dusun Pengapit","Jeniang","KDH"
"08320","Kampung Gajah Puteh","Jeniang","KDH"
"08320","Kampung Jeram Buaya","Jeniang","KDH"
"08320","Kampung Kota Bukit","Jeniang","KDH"
"08320","Kampung Kuala Berok","Jeniang","KDH"
"08320","Kampung Kuala Hai","Jeniang","KDH"
"08320","Kampung Kuala Kerik","Jeniang","KDH"
"08320","Kampung Kuala Ruman","Jeniang","KDH"
"08320","Kampung Kubang Yoi","Jeniang","KDH"
"08320","Kampung Kura","Jeniang","KDH"
"08320","Kampung Langgok Tanjong","Jeniang","KDH"
"08320","Kampung Masjid","Jeniang","KDH"
"08320","Kampung Padang Besar","Jeniang","KDH"
"08320","Kampung Padang Chichak","Jeniang","KDH"
"08320","Kampung Padang Pulut","Jeniang","KDH"
"08320","Kampung Parit","Jeniang","KDH"
"08320","Kampung Pasir Pokok","Jeniang","KDH"
"08320","Kampung Pengkalan Raja","Jeniang","KDH"
"08320","Kampung Pokok Jerai","Jeniang","KDH"
"08320","Kampung Sungai Semiar","Jeniang","KDH"
"08320","Kampung Sungai Setar","Jeniang","KDH"
"08320","Kampung Tala","Jeniang","KDH"
"08320","Kampung Tanjong","Jeniang","KDH"
"08320","Kampung Tengah","Jeniang","KDH"
"08320","Taman Ria Mesra","Jeniang","KDH"
"08330","Kampung Baru Bukit Kuang","Gurun","KDH"
"08330","Kampung Baru Paya Mengkuang","Gurun","KDH"
"08330","Kampung Chempedak","Gurun","KDH"
"08330","Kampung Jalan Kilang Bata","Gurun","KDH"
"08330","Kampung Kubur Lama","Gurun","KDH"
"08330","Kampung Lubuk Reba","Gurun","KDH"
"08330","Kampung Paya Serdang","Gurun","KDH"
"08330","Kampung Selamat Air Puteh","Gurun","KDH"
"08330","Kampung Tok Aris","Gurun","KDH"
"08330","LKTP Bukit Kuang","Gurun","KDH"
"08330","LKTP Paya Mengkuang","Gurun","KDH"
"08330","Padang Lembu","Gurun","KDH"
"08340","Bandar Baru Beris Jaya","Sik","KDH"
"08340","Batu 5 Sik","Sik","KDH"
"08340","Kampung Bandar","Sik","KDH"
"08340","Kampung Baru Seri Dacing","Sik","KDH"
"08340","Kampung Batu Besar","Sik","KDH"
"08340","Kampung Charok Malau","Sik","KDH"
"08340","Kampung Charok Tualang","Sik","KDH"
"08340","Kampung Merbau Kudong","Sik","KDH"
"08340","Kampung Sungai Namek","Sik","KDH"
"08340","Kampung Tanjong Besar","Sik","KDH"
"08340","Kampung Teloi","Sik","KDH"
"08340","Kampung Tupai","Sik","KDH"
"08340","Perumahan Keda Sik Dalam","Sik","KDH"
"08340","Perumahan Keda Sik Kota A","Sik","KDH"
"08340","Perumahan Keda Sik","Sik","KDH"
"08340","Taman Aked","Sik","KDH"
"08340","Taman Makmur","Sik","KDH"
"08340","Taman Seroja","Sik","KDH"
"08340","Taman Sri Enggang","Sik","KDH"
"08400","Kampung Badong","Merbok","KDH"
"08400","Kampung Banggol","Merbok","KDH"
"08400","Kampung Baru Merbok","Merbok","KDH"
"08400","Kampung Belau","Merbok","KDH"
"08400","Kampung Bukit Haji Omar","Merbok","KDH"
"08400","Kampung Hilir","Merbok","KDH"
"08400","Kampung Jilid","Merbok","KDH"
"08400","Kampung Merbok","Merbok","KDH"
"08400","Kampung Padang Sora","Merbok","KDH"
"08400","Kampung Pasir","Merbok","KDH"
"08400","Kampung Singkir Badong","Merbok","KDH"
"08400","Merbok","Merbok","KDH"
"08400","Simpang Tiga Pasir","Merbok","KDH"
"08400","Taman Sepakat","Merbok","KDH"
"08407","Merbok - Peti surat","Merbok","KDH"
"08409","Merbok - Beg berkunci","Merbok","KDH"
"08500","Alor Nibong","Kota Kuala Muda","KDH"
"08500","Batas Ban","Kota Kuala Muda","KDH"
"08500","Batu Lintang","Kota Kuala Muda","KDH"
"08500","Bukit Kechik","Kota Kuala Muda","KDH"
"08500","Kampung Alor Bemban","Kota Kuala Muda","KDH"
"08500","Kampung Alor Jawi","Kota Kuala Muda","KDH"
"08500","Kampung Bakar Arang","Kota Kuala Muda","KDH"
"08500","Kampung Batu 45 (Hutan Gelam)","Kota Kuala Muda","KDH"
"08500","Kampung Bukit Berangan","Kota Kuala Muda","KDH"
"08500","Kampung Bukit Berapit","Kota Kuala Muda","KDH"
"08500","Kampung Bukit Damar","Kota Kuala Muda","KDH"
"08500","Kampung Bukit Kecil Simpor","Kota Kuala Muda","KDH"
"08500","Kampung Bukit Meriam","Kota Kuala Muda","KDH"
"08500","Kampung Bukit Pantai","Kota Kuala Muda","KDH"
"08500","Kampung Bukit Perah","Kota Kuala Muda","KDH"
"08500","Kampung Bukit Petai","Kota Kuala Muda","KDH"
"08500","Kampung Bukit Tukang Jusoh","Kota Kuala Muda","KDH"
"08500","Kampung Dusun Tua","Kota Kuala Muda","KDH"
"08500","Kampung Haji Kudong","Kota Kuala Muda","KDH"
"08500","Kampung Hujong Matang","Kota Kuala Muda","KDH"
"08500","Kampung Kepala Jalan","Kota Kuala Muda","KDH"
"08500","Kampung Komoi","Kota Kuala Muda","KDH"
"08500","Kampung Kubang Jambu","Kota Kuala Muda","KDH"
"08500","Kampung Kubang Siam","Kota Kuala Muda","KDH"
"08500","Kampung Lembah","Kota Kuala Muda","KDH"
"08500","Kampung Masjid Batu","Kota Kuala Muda","KDH"
"08500","Kampung Masjid","Kota Kuala Muda","KDH"
"08500","Kampung Nangka","Kota Kuala Muda","KDH"
"08500","Kampung Padang Binjal","Kota Kuala Muda","KDH"
"08500","Kampung Padang Kubu","Kota Kuala Muda","KDH"
"08500","Kampung Padang Limau","Kota Kuala Muda","KDH"
"08500","Kampung Padang Regent","Kota Kuala Muda","KDH"
"08500","Kampung Padang Salim","Kota Kuala Muda","KDH"
"08500","Kampung Pantai Merdeka","Kota Kuala Muda","KDH"
"08500","Kampung Paya","Kota Kuala Muda","KDH"
"08500","Kampung Pengkalan Bukit Kecil","Kota Kuala Muda","KDH"
"08500","Kampung Pengkalan Bukit Lintang","Kota Kuala Muda","KDH"
"08500","Kampung Perlis","Kota Kuala Muda","KDH"
"08500","Kampung Permatang Bagan","Kota Kuala Muda","KDH"
"08500","Kampung Permatang Batu","Kota Kuala Muda","KDH"
"08500","Kampung Permatang Bukit Lintang","Kota Kuala Muda","KDH"
"08500","Kampung Permatang Kabu","Kota Kuala Muda","KDH"
"08500","Kampung Permatang Katong","Kota Kuala Muda","KDH"
"08500","Kampung Permatang Kecil","Kota Kuala Muda","KDH"
"08500","Kampung Permatang Kelompang","Kota Kuala Muda","KDH"
"08500","Kampung Permatang Langsat","Kota Kuala Muda","KDH"
"08500","Kampung Permatang Merbau","Kota Kuala Muda","KDH"
"08500","Kampung Permatang Nyior","Kota Kuala Muda","KDH"
"08500","Kampung Permatang Pasir","Kota Kuala Muda","KDH"
"08500","Kampung Permatang Ringan","Kota Kuala Muda","KDH"
"08500","Kampung Permatang Tengah","Kota Kuala Muda","KDH"
"08500","Kampung Pulau Sayak","Kota Kuala Muda","KDH"
"08500","Kampung Rantau Panjang","Kota Kuala Muda","KDH"
"08500","Kampung Simpang Tiga Teluk Nipah","Kota Kuala Muda","KDH"
"08500","Kampung Sintok Bugis","Kota Kuala Muda","KDH"
"08500","Kampung Sireh","Kota Kuala Muda","KDH"
"08500","Kampung Sungai Deraka","Kota Kuala Muda","KDH"
"08500","Kampung Sungai Emas","Kota Kuala Muda","KDH"
"08500","Kampung Sungai Korok","Kota Kuala Muda","KDH"
"08500","Kampung Sungai Meriam","Kota Kuala Muda","KDH"
"08500","Kampung Sungai Reba","Kota Kuala Muda","KDH"
"08500","Kampung Sungai Yu","Kota Kuala Muda","KDH"
"08500","Kampung Telaga Batu","Kota Kuala Muda","KDH"
"08500","Kampung Telok Amboi","Kota Kuala Muda","KDH"
"08500","Kampung Telok Bayu","Kota Kuala Muda","KDH"
"08500","Kampung Telok Bilik","Kota Kuala Muda","KDH"
"08500","Kampung Telok Nipah","Kota Kuala Muda","KDH"
"08500","Kampung Tepi Sungai","Kota Kuala Muda","KDH"
"08500","Kota Kuala Muda","Kota Kuala Muda","KDH"
"08500","Kuala Sungai Muda","Kota Kuala Muda","KDH"
"08500","Pulau Sayak","Kota Kuala Muda","KDH"
"08500","Seberang Terus","Kota Kuala Muda","KDH"
"08500","Simpor","Kota Kuala Muda","KDH"
"08507","Kota Kuala Muda - Peti surat","Kota Kuala Muda","KDH"
"08509","Kota Kuala Muda - Beg berkunci","Kota Kuala Muda","KDH"
"08600","Kampung Baru Simpor","Sungai Petani","KDH"
"08600","Kampung Baru Tikam Batu","Sungai Petani","KDH"
"08600","Kampung Berapit","Sungai Petani","KDH"
"08600","Kampung Bukit Lalang","Sungai Petani","KDH"
"08600","Kampung Masjid","Sungai Petani","KDH"
"08600","Kampung Matang Durian","Sungai Petani","KDH"
"08600","Kampung Padang Buluh","Sungai Petani","KDH"
"08600","Kampung Padang Penghulu","Sungai Petani","KDH"
"08600","Kampung Padang","Sungai Petani","KDH"
"08600","Kampung Paya Kerchut","Sungai Petani","KDH"
"08600","Kampung Pokok Kabu","Sungai Petani","KDH"
"08600","Kampung Pulau Sepom","Sungai Petani","KDH"
"08600","Kampung Sekolah","Sungai Petani","KDH"
"08600","Kampung Titi Merdeka","Sungai Petani","KDH"
"08700","Jeneri","Jeniang","KDH"
"08700","Jeniang","Jeniang","KDH"
"08700","Kampung Berona Kanan","Jeniang","KDH"
"08700","Kampung Berona Kiri","Jeniang","KDH"
"08700","Kampung Berona","Jeniang","KDH"
"08700","Kampung Bigia","Jeniang","KDH"
"08700","Kampung Bukit Minyak","Jeniang","KDH"
"08700","Kampung Chemara","Jeniang","KDH"
"08700","Kampung Kalai","Jeniang","KDH"
"08700","Kampung Kuala Bigia","Jeniang","KDH"
"08700","Kampung Mambong","Jeniang","KDH"
"08700","Kampung Padang Ragut","Jeniang","KDH"
"08700","Kampung Shanghai","Jeniang","KDH"
"08700","Tikam Batu","Jeniang","KDH"
"08800","Batu 20 Jalan Yan","Gurun","KDH"
"08800","Guar Chempedak","Gurun","KDH"
"08800","Gurun (Km 27)","Gurun","KDH"
"08800","Kampung Batu 16","Gurun","KDH"
"08800","Kampung Batu 17 (Jalan Sungai Petani)","Gurun","KDH"
"08800","Kampung Batu 18","Gurun","KDH"
"08800","Kampung Batu 20","Gurun","KDH"
"08800","Kampung Belinda","Gurun","KDH"
"08800","Kampung Belinga Siam","Gurun","KDH"
"08800","Kampung Bendang","Gurun","KDH"
"08800","Kampung Guar Stesen","Gurun","KDH"
"08800","Kampung Kepala 30","Gurun","KDH"
"08800","Kampung Kepala Bukit","Gurun","KDH"
"08800","Kampung Kubur","Gurun","KDH"
"08800","Kampung Manggol Lalang","Gurun","KDH"
"08800","Kampung Masjid","Gurun","KDH"
"08800","Kampung Padang Lumat","Gurun","KDH"
"08800","Kampung Pasir","Gurun","KDH"
"08800","Kampung Sungai Baru","Gurun","KDH"
"08800","Kampung Sungai Pasir","Gurun","KDH"
"08800","Kampung Sungai Saberang","Gurun","KDH"
"08800","Kampung Sungai Tok Rama","Gurun","KDH"
"08800","Kampung Titi Batu","Gurun","KDH"
"08800","Kampung Titi Bom","Gurun","KDH"
"08800","Kampung Titi Teras","Gurun","KDH"
"08800","Kampung Tok Kau","Gurun","KDH"
"08800","Kampung Ulu Teroi","Gurun","KDH"
"08800","Padang Lumat","Gurun","KDH"
"08800","Pekan Terai","Gurun","KDH"
"08800","Pondok Haji Majid","Gurun","KDH"
"08800","Taman Desa Aman 1","Gurun","KDH"
"08800","Taman Desa Aman 2","Gurun","KDH"
"08800","Taman Lambaian Jerai","Gurun","KDH"
"08800","Terai Bukit","Gurun","KDH"
"09000","Bandar Baru Kulim","Kulim","KDH"
"09000","Bandar Putra Kulim","Kulim","KDH"
"09000","Batu 4 Sungai Ular","Kulim","KDH"
"09000","Junjung","Kulim","KDH"
"09000","Kampung Air Merah","Kulim","KDH"
"09000","Kampung Ayer Puteh (Kulim)","Kulim","KDH"
"09000","Kampung Baru Air Merah","Kulim","KDH"
"09000","Kampung Batu 3 (Jalan Lunas)","Kulim","KDH"
"09000","Kampung Batu 4 (Sungai Ular)","Kulim","KDH"
"09000","Kampung Binjal","Kulim","KDH"
"09000","Kampung Bukit Besar","Kulim","KDH"
"09000","Kampung Darulaman","Kulim","KDH"
"09000","Kampung Dusun","Kulim","KDH"
"09000","Kampung Haji Arshad","Kulim","KDH"
"09000","Kampung Keladi","Kulim","KDH"
"09000","Kampung Kilang Sago","Kulim","KDH"
"09000","Kampung Padang Kulim","Kulim","KDH"
"09000","Kampung Padang Penyangga","Kulim","KDH"
"09000","Kampung Padang Tembak","Kulim","KDH"
"09000","Kampung Paya Tok Betuk","Kulim","KDH"
"09000","Kampung Permatang Janggus","Kulim","KDH"
"09000","Kampung Permatang Tiong","Kulim","KDH"
"09000","Kampung Pondok Labu","Kulim","KDH"
"09000","Kampung Pong Ah Yong","Kulim","KDH"
"09000","Kampung Sungai Badak","Kulim","KDH"
"09000","Kampung Syed Shekh","Kulim","KDH"
"09000","Kampung Tok Rasul","Kulim","KDH"
"09000","Kampung Tunku Putra (A - C)","Kulim","KDH"
"09000","Kawasan Industri Hi-Tech","Kulim","KDH"
"09000","Kelang Lama","Kulim","KDH"
"09000","Kem Junjung","Kulim","KDH"
"09000","Kota Kenari","Kulim","KDH"
"09000","Kulim","Kulim","KDH"
"09000","Ladang BMR Batu Tuteh","Kulim","KDH"
"09000","Ladang Bagan Sena","Kulim","KDH"
"09000","Lebuh Bandar","Kulim","KDH"
"09000","Padang Buluh","Kulim","KDH"
"09000","Padang Janggus","Kulim","KDH"
"09000","Pusat Perniagaan Putra","Kulim","KDH"
"09000","Simpang Tiga Keladi","Kulim","KDH"
"09000","Sungai Ular","Kulim","KDH"
"09000","Taman Aman","Kulim","KDH"
"09000","Taman Angerik","Kulim","KDH"
"09000","Taman Angsana","Kulim","KDH"
"09000","Taman Badlishah","Kulim","KDH"
"09000","Taman Bandar Putra","Kulim","KDH"
"09000","Taman Bayam (1 & 2)","Kulim","KDH"
"09000","Taman Bayan","Kulim","KDH"
"09000","Taman Bendi","Kulim","KDH"
"09000","Taman Beringin","Kulim","KDH"
"09000","Taman Berjaya","Kulim","KDH"
"09000","Taman Berlian","Kulim","KDH"
"09000","Taman Bersatu","Kulim","KDH"
"09000","Taman Bidara","Kulim","KDH"
"09000","Taman Bistari","Kulim","KDH"
"09000","Taman Budiman","Kulim","KDH"
"09000","Taman Bukit Awi","Kulim","KDH"
"09000","Taman Bukit Kulim","Kulim","KDH"
"09000","Taman Bunga Mawar","Kulim","KDH"
"09000","Taman Camar","Kulim","KDH"
"09000","Taman Candrawasih","Kulim","KDH"
"09000","Taman Cekor Manis","Kulim","KDH"
"09000","Taman Cempaka","Kulim","KDH"
"09000","Taman Cempakasari","Kulim","KDH"
"09000","Taman Cendana","Kulim","KDH"
"09000","Taman Cengal","Kulim","KDH"
"09000","Taman Ceri","Kulim","KDH"
"09000","Taman Dahlia","Kulim","KDH"
"09000","Taman Desa Impian","Kulim","KDH"
"09000","Taman Desa Kasturi","Kulim","KDH"
"09000","Taman Desa Makmur","Kulim","KDH"
"09000","Taman Desa Melati","Kulim","KDH"
"09000","Taman Desa Penaga","Kulim","KDH"
"09000","Taman Desa Permai","Kulim","KDH"
"09000","Taman Desa Sentosa","Kulim","KDH"
"09000","Taman Ehsan (2 & 3)","Kulim","KDH"
"09000","Taman Emas","Kulim","KDH"
"09000","Taman Gemilang","Kulim","KDH"
"09000","Taman Harmoni","Kulim","KDH"
"09000","Taman Haruan","Kulim","KDH"
"09000","Taman Helang Perdana","Kulim","KDH"
"09000","Taman High Tech Avenue","Kulim","KDH"
"09000","Taman High Tech Utama","Kulim","KDH"
"09000","Taman Impian","Kulim","KDH"
"09000","Taman Indah","Kulim","KDH"
"09000","Taman Industri Waja","Kulim","KDH"
"09000","Taman Jati","Kulim","KDH"
"09000","Taman Jelutung","Kulim","KDH"
"09000","Taman KTC 1 & 2 (Hi-Tech)","Kulim","KDH"
"09000","Taman Kancil","Kulim","KDH"
"09000","Taman Kangkong (1 & 2)","Kulim","KDH"
"09000","Taman Kejora","Kulim","KDH"
"09000","Taman Kekwa","Kulim","KDH"
"09000","Taman Keladi","Kulim","KDH"
"09000","Taman Kempas (1 & 2)","Kulim","KDH"
"09000","Taman Kemuning","Kulim","KDH"
"09000","Taman Kemunting","Kulim","KDH"
"09000","Taman Kenari","Kulim","KDH"
"09000","Taman Kenyalang","Kulim","KDH"
"09000","Taman Keranji (1 - 3)","Kulim","KDH"
"09000","Taman Khir Johari","Kulim","KDH"
"09000","Taman Kijang","Kulim","KDH"
"09000","Taman Kobis","Kulim","KDH"
"09000","Taman Kucai","Kulim","KDH"
"09000","Taman Kulim Baru","Kulim","KDH"
"09000","Taman Kulim Golf","Kulim","KDH"
"09000","Taman Kulim Hegiht","Kulim","KDH"
"09000","Taman Kulim Perdana","Kulim","KDH"
"09000","Taman Kulim Square","Kulim","KDH"
"09000","Taman Kulim","Kulim","KDH"
"09000","Taman Lembah Impiana","Kulim","KDH"
"09000","Taman Lobak 2","Kulim","KDH"
"09000","Taman Lobak","Kulim","KDH"
"09000","Taman Mahkota","Kulim","KDH"
"09000","Taman Makmur","Kulim","KDH"
"09000","Taman Maktab","Kulim","KDH"
"09000","Taman Manggis","Kulim","KDH"
"09000","Taman Melor Indah","Kulim","KDH"
"09000","Taman Melor","Kulim","KDH"
"09000","Taman Merak","Kulim","KDH"
"09000","Taman Meranti","Kulim","KDH"
"09000","Taman Merbok","Kulim","KDH"
"09000","Taman Merpati","Kulim","KDH"
"09000","Taman Mewah (1 - 3)","Kulim","KDH"
"09000","Taman Nenas Indah","Kulim","KDH"
"09000","Taman Nenas","Kulim","KDH"
"09000","Taman Nilam Baiduri","Kulim","KDH"
"09000","Taman Nuri","Kulim","KDH"
"09000","Taman Okid","Kulim","KDH"
"09000","Taman PKNK","Kulim","KDH"
"09000","Taman Pandan Indah","Kulim","KDH"
"09000","Taman Pegaga","Kulim","KDH"
"09000","Taman Pelangi","Kulim","KDH"
"09000","Taman Perak","Kulim","KDH"
"09000","Taman Peria","Kulim","KDH"
"09000","Taman Perusahaan Saujana","Kulim","KDH"
"09000","Taman Petaling Indah (1 & 2)","Kulim","KDH"
"09000","Taman Petaling Indah","Kulim","KDH"
"09000","Taman Petaling Jaya","Kulim","KDH"
"09000","Taman Petaling","Kulim","KDH"
"09000","Taman Pondok Labu","Kulim","KDH"
"09000","Taman Pudina","Kulim","KDH"
"09000","Taman Putra","Kulim","KDH"
"09000","Taman Rambai","Kulim","KDH"
"09000","Taman Ru","Kulim","KDH"
"09000","Taman Rusa","Kulim","KDH"
"09000","Taman Saderi","Kulim","KDH"
"09000","Taman Saga","Kulim","KDH"
"09000","Taman Sago","Kulim","KDH"
"09000","Taman Salad","Kulim","KDH"
"09000","Taman Sawi","Kulim","KDH"
"09000","Taman Sejahtera 2","Kulim","KDH"
"09000","Taman Sejahtera","Kulim","KDH"
"09000","Taman Seladang","Kulim","KDH"
"09000","Taman Selasih Lima","Kulim","KDH"
"09000","Taman Selasih","Kulim","KDH"
"09000","Taman Seluang","Kulim","KDH"
"09000","Taman Semarak","Kulim","KDH"
"09000","Taman Senangin","Kulim","KDH"
"09000","Taman Sentosa","Kulim","KDH"
"09000","Taman Seraya Indah","Kulim","KDH"
"09000","Taman Seri Kulim","Kulim","KDH"
"09000","Taman Seri Liman","Kulim","KDH"
"09000","Taman Seri Petaling","Kulim","KDH"
"09000","Taman Seri Pinang","Kulim","KDH"
"09000","Taman Seri Tanjung","Kulim","KDH"
"09000","Taman Serindik","Kulim","KDH"
"09000","Taman Seroja","Kulim","KDH"
"09000","Taman Sri Abadi","Kulim","KDH"
"09000","Taman Sri Kenanga","Kulim","KDH"
"09000","Taman Sri Sentosa","Kulim","KDH"
"09000","Taman Suasa","Kulim","KDH"
"09000","Taman Sulaiman","Kulim","KDH"
"09000","Taman Tanjung Indah","Kulim","KDH"
"09000","Taman Technocity","Kulim","KDH"
"09000","Taman Tengku Putra","Kulim","KDH"
"09000","Taman Teratai","Kulim","KDH"
"09000","Taman Tiong (1 & 2)","Kulim","KDH"
"09000","Taman Tiram Indah","Kulim","KDH"
"09000","Taman Tiram","Kulim","KDH"
"09000","Taman Tunku Putera","Kulim","KDH"
"09000","Taman Waja","Kulim","KDH"
"09000","Teroi","Kulim","KDH"
"09007","Kulim - Peti surat","Kulim","KDH"
"09009","Kulim - Beg berkunci","Kulim","KDH"
"09010","Kampung Bagan Sena","Kulim","KDH"
"09010","Kampung Banggol Berangan","Kulim","KDH"
"09010","Kampung Bikan Atas","Kulim","KDH"
"09010","Kampung Bikan","Kulim","KDH"
"09010","Kampung Bukit Chempedak","Kulim","KDH"
"09010","Kampung Jubai Atas","Kulim","KDH"
"09010","Kampung Jubai Bawah","Kulim","KDH"
"09010","Kampung Jubai SC","Kulim","KDH"
"09010","Kampung Keda Bagan Sena","Kulim","KDH"
"09010","Kampung Padang Bola","Kulim","KDH"
"09010","Kampung Padang Patong","Kulim","KDH"
"09010","Kampung Padang Ubi","Kulim","KDH"
"09010","Kampung Petani","Kulim","KDH"
"09010","Kampung Selarong","Kulim","KDH"
"09010","Labu Besar","Kulim","KDH"
"09020","Bukit Hijau","Kulim","KDH"
"09020","Kampung Ayer Kepar","Kulim","KDH"
"09020","Kampung Ayer Merah","Kulim","KDH"
"09020","Kampung Banggol Enggok","Kulim","KDH"
"09020","Kampung Baru Kuala Nau","Kulim","KDH"
"09020","Kampung Jernang","Kulim","KDH"
"09020","Kampung Keda Malau","Kulim","KDH"
"09020","Kampung Kuala Nau","Kulim","KDH"
"09020","Kampung Machang Bubuk","Kulim","KDH"
"09020","Kampung Seratus","Kulim","KDH"
"09020","Kampung Terus Gading","Kulim","KDH"
"09020","Kampung Ulu Bakai","Kulim","KDH"
"09020","Taman Sena","Kulim","KDH"
"09100","Baling","Baling","KDH"
"09100","Bongor","Baling","KDH"
"09100","Jalan Baling (Batu 36 1/4)","Baling","KDH"
"09100","Kampung Ambing","Baling","KDH"
"09100","Kampung Asam Jawa","Baling","KDH"
"09100","Kampung Ayer Kembai","Baling","KDH"
"09100","Kampung Bakar Arang","Baling","KDH"
"09100","Kampung Bakar Bata","Baling","KDH"
"09100","Kampung Bakong","Baling","KDH"
"09100","Kampung Baling Lubok Pedati","Baling","KDH"
"09100","Kampung Bandar","Baling","KDH"
"09100","Kampung Banggol Bongor","Baling","KDH"
"09100","Kampung Banggol Glugor","Baling","KDH"
"09100","Kampung Banggol Lada","Baling","KDH"
"09100","Kampung Banggol Leban","Baling","KDH"
"09100","Kampung Banggol Petai","Baling","KDH"
"09100","Kampung Banggol Saga / Setol","Baling","KDH"
"09100","Kampung Banggol Setang","Baling","KDH"
"09100","Kampung Banggol Wan Mat","Baling","KDH"
"09100","Kampung Banggol","Baling","KDH"
"09100","Kampung Bangsan","Baling","KDH"
"09100","Kampung Baru","Baling","KDH"
"09100","Kampung Batu 7","Baling","KDH"
"09100","Kampung Batu Lapan","Baling","KDH"
"09100","Kampung Bawah Gunong","Baling","KDH"
"09100","Kampung Becah Sawa","Baling","KDH"
"09100","Kampung Belangga Kuala","Baling","KDH"
"09100","Kampung Bendang Darat","Baling","KDH"
"09100","Kampung Bendang Sera","Baling","KDH"
"09100","Kampung Benggali","Baling","KDH"
"09100","Kampung Berjaya","Baling","KDH"
"09100","Kampung Bonggol Berangan","Baling","KDH"
"09100","Kampung Bukit Badak","Baling","KDH"
"09100","Kampung Bukit Berangan","Baling","KDH"
"09100","Kampung Bukit Datuk Harun","Baling","KDH"
"09100","Kampung Bukit Hilir","Baling","KDH"
"09100","Kampung Bukit Hitam","Baling","KDH"
"09100","Kampung Bukit Ijok","Baling","KDH"
"09100","Kampung Bukit Ketil","Baling","KDH"
"09100","Kampung Bukit Palong","Baling","KDH"
"09100","Kampung Bukit Payang","Baling","KDH"
"09100","Kampung Bukit Puyuh (Batu 47 1/4)","Baling","KDH"
"09100","Kampung Bukit Sebelah","Baling","KDH"
"09100","Kampung Bukit Tengiling","Baling","KDH"
"09100","Kampung Bukit Tok Giling","Baling","KDH"
"09100","Kampung Bukit Tok Kaya","Baling","KDH"
"09100","Kampung Cerok Sotong","Baling","KDH"
"09100","Kampung Charok Akar","Baling","KDH"
"09100","Kampung Charok Bakong","Baling","KDH"
"09100","Kampung Charok Bunting","Baling","KDH"
"09100","Kampung Charok Gorok","Baling","KDH"
"09100","Kampung Charok Juan","Baling","KDH"
"09100","Kampung Charok Kapas","Baling","KDH"
"09100","Kampung Charok Kelian Ulu","Baling","KDH"
"09100","Kampung Charok Kelian","Baling","KDH"
"09100","Kampung Charok Putih","Baling","KDH"
"09100","Kampung Charok Salang","Baling","KDH"
"09100","Kampung Charok Sik","Baling","KDH"
"09100","Kampung Charok Tilam","Baling","KDH"
"09100","Kampung Che Wan Jusoh","Baling","KDH"
"09100","Kampung Chegar Tok Bandar","Baling","KDH"
"09100","Kampung Chenarai (Kuala Pegang)","Baling","KDH"
"09100","Kampung Chenerai","Baling","KDH"
"09100","Kampung Cherok Nau","Baling","KDH"
"09100","Kampung Cherok Sotong","Baling","KDH"
"09100","Kampung Chorok Kapas","Baling","KDH"
"09100","Kampung Chorok Ker (Batu 7)","Baling","KDH"
"09100","Kampung Chorok Saling","Baling","KDH"
"09100","Kampung Dalam Rimau","Baling","KDH"
"09100","Kampung Dato (Batu 43)","Baling","KDH"
"09100","Kampung Dusun Besar","Baling","KDH"
"09100","Kampung Dusun Gani","Baling","KDH"
"09100","Kampung Dusun Raja","Baling","KDH"
"09100","Kampung Gabus","Baling","KDH"
"09100","Kampung Gertak Serong","Baling","KDH"
"09100","Kampung Haji Abas","Baling","KDH"
"09100","Kampung Haji Yunus","Baling","KDH"
"09100","Kampung Jalan Jenalik","Baling","KDH"
"09100","Kampung Jenalik","Baling","KDH"
"09100","Kampung Kaki Bukit","Baling","KDH"
"09100","Kampung Kebun Ubi","Baling","KDH"
"09100","Kampung Keledang Dalam","Baling","KDH"
"09100","Kampung Kelian Dalam","Baling","KDH"
"09100","Kampung Ketemba Kememeh","Baling","KDH"
"09100","Kampung Ketemba Masjid","Baling","KDH"
"09100","Kampung Ketemba","Baling","KDH"
"09100","Kampung Kijang","Baling","KDH"
"09100","Kampung Kota","Baling","KDH"
"09100","Kampung Kuala Balok","Baling","KDH"
"09100","Kampung Kuala Kedua","Baling","KDH"
"09100","Kampung Kuala Kijang","Baling","KDH"
"09100","Kampung Kubor Tok Ali","Baling","KDH"
"09100","Kampung Lahar","Baling","KDH"
"09100","Kampung Lalang","Baling","KDH"
"09100","Kampung Lanai","Baling","KDH"
"09100","Kampung Legong","Baling","KDH"
"09100","Kampung Lela","Baling","KDH"
"09100","Kampung Luar","Baling","KDH"
"09100","Kampung Lubok Badak","Baling","KDH"
"09100","Kampung Lubok Batu (Kuala Pegang)","Baling","KDH"
"09100","Kampung Lubok Batu","Baling","KDH"
"09100","Kampung Lubok Kabu","Baling","KDH"
"09100","Kampung Lubok Pedati","Baling","KDH"
"09100","Kampung Makliah","Baling","KDH"
"09100","Kampung Mali","Baling","KDH"
"09100","Kampung Masjid (Batu 48 1/4)","Baling","KDH"
"09100","Kampung Masjid (Km 77)","Baling","KDH"
"09100","Kampung Masjid Lama","Baling","KDH"
"09100","Kampung Masjid Pulai","Baling","KDH"
"09100","Kampung Masjid Sera","Baling","KDH"
"09100","Kampung Mengkuang Hujong","Baling","KDH"
"09100","Kampung Mengkuang Masjid","Baling","KDH"
"09100","Kampung Mengkuang Tengah","Baling","KDH"
"09100","Kampung Mengkuang","Baling","KDH"
"09100","Kampung Murni","Baling","KDH"
"09100","Kampung Nering","Baling","KDH"
"09100","Kampung Padang Chik Mas","Baling","KDH"
"09100","Kampung Padang Ketemba","Baling","KDH"
"09100","Kampung Padang","Baling","KDH"
"09100","Kampung Pajak","Baling","KDH"
"09100","Kampung Pantai Lubuk Pedati","Baling","KDH"
"09100","Kampung Pantai Raja","Baling","KDH"
"09100","Kampung Pantai","Baling","KDH"
"09100","Kampung Parit Pandang","Baling","KDH"
"09100","Kampung Paya Gua Kelambu","Baling","KDH"
"09100","Kampung Paya Pulai","Baling","KDH"
"09100","Kampung Paya","Baling","KDH"
"09100","Kampung Pecah Tok Bulan","Baling","KDH"
"09100","Kampung Pokok Sena","Baling","KDH"
"09100","Kampung Pokok Setol","Baling","KDH"
"09100","Kampung Raja","Baling","KDH"
"09100","Kampung Rambong Padang","Baling","KDH"
"09100","Kampung Rambong Tengah","Baling","KDH"
"09100","Kampung Rambong","Baling","KDH"
"09100","Kampung Rumah Besi","Baling","KDH"
"09100","Kampung Sekolah Bonggor","Baling","KDH"
"09100","Kampung Seladang Rebah","Baling","KDH"
"09100","Kampung Sera Ulu","Baling","KDH"
"09100","Kampung Sera","Baling","KDH"
"09100","Kampung Seri Bulan","Baling","KDH"
"09100","Kampung Seri Ketengga","Baling","KDH"
"09100","Kampung Setol","Baling","KDH"
"09100","Kampung Simpang Ampat","Baling","KDH"
"09100","Kampung Siput","Baling","KDH"
"09100","Kampung Sirako","Baling","KDH"
"09100","Kampung Sungai Batu","Baling","KDH"
"09100","Kampung Sungai Limau","Baling","KDH"
"09100","Kampung Sungai Tas","Baling","KDH"
"09100","Kampung Sungai Tebak","Baling","KDH"
"09100","Kampung Sungai Tembak","Baling","KDH"
"09100","Kampung Surau","Baling","KDH"
"09100","Kampung Tandop","Baling","KDH"
"09100","Kampung Tanjong Langsat","Baling","KDH"
"09100","Kampung Tanjong Merbau","Baling","KDH"
"09100","Kampung Tanjong Pari","Baling","KDH"
"09100","Kampung Tanjung (Batu 44 1/2)","Baling","KDH"
"09100","Kampung Tas","Baling","KDH"
"09100","Kampung Telok Kangar","Baling","KDH"
"09100","Kampung Telok Pendiat","Baling","KDH"
"09100","Kampung Telok Perah Hulu","Baling","KDH"
"09100","Kampung Telok Perah","Baling","KDH"
"09100","Kampung Telok Rambong","Baling","KDH"
"09100","Kampung Telok Sanau","Baling","KDH"
"09100","Kampung Telok Sungai Durian","Baling","KDH"
"09100","Kampung Telok Teduri","Baling","KDH"
"09100","Kampung Telok Temelah","Baling","KDH"
"09100","Kampung Telok Tok Patah","Baling","KDH"
"09100","Kampung Telok","Baling","KDH"
"09100","Kampung Temusu","Baling","KDH"
"09100","Kampung Terbak","Baling","KDH"
"09100","Kampung Titi Mentaling","Baling","KDH"
"09100","Kampung Titi Merbau","Baling","KDH"
"09100","Kampung Titi Teduri","Baling","KDH"
"09100","Kampung Tok Diah","Baling","KDH"
"09100","Kampung Tok Golok","Baling","KDH"
"09100","Kampung Tok Lipan","Baling","KDH"
"09100","Kampung Tok Saban","Baling","KDH"
"09100","Kampung Tok Seri","Baling","KDH"
"09100","Kampung Tok Sonan","Baling","KDH"
"09100","Kampung Tok Weng","Baling","KDH"
"09100","Kampung Tualang Bok","Baling","KDH"
"09100","Kampung Tualang","Baling","KDH"
"09100","Kampung Wat Siam","Baling","KDH"
"09100","Kampung Weng Dalam","Baling","KDH"
"09100","Kampung Weng","Baling","KDH"
"09100","Ketemba (Batu 35)","Baling","KDH"
"09100","Kuala Pegang","Baling","KDH"
"09100","Malau","Baling","KDH"
"09100","Padang Temu","Baling","KDH"
"09100","Pokok Sena (Batu 45)","Baling","KDH"
"09100","Pulai","Baling","KDH"
"09100","Taman Abadi","Baling","KDH"
"09100","Taman Baiduri","Baling","KDH"
"09100","Taman Bayu Indah","Baling","KDH"
"09100","Taman Bersatu","Baling","KDH"
"09100","Taman Bukit","Baling","KDH"
"09100","Taman Desa Anggerik","Baling","KDH"
"09100","Taman Hajah Halimah","Baling","KDH"
"09100","Taman Harmoni","Baling","KDH"
"09100","Taman Impian","Baling","KDH"
"09100","Taman Kota Baling Jaya","Baling","KDH"
"09100","Taman Kota Jaya","Baling","KDH"
"09100","Taman Mahmud","Baling","KDH"
"09100","Taman Semarak","Baling","KDH"
"09100","Taman Sepakat","Baling","KDH"
"09100","Taman Sri Aman","Baling","KDH"
"09100","Taman Sri Baling","Baling","KDH"
"09110","Kampung Batu Kuala Pegang","Kuala Pegang","KDH"
"09110","Kampung Berjaya","Kuala Pegang","KDH"
"09110","Kampung Bukit Badak","Kuala Pegang","KDH"
"09110","Kampung Bukit Hilir","Kuala Pegang","KDH"
"09110","Kampung Bukit Hitam","Kuala Pegang","KDH"
"09110","Kampung Cerok Kapas","Kuala Pegang","KDH"
"09110","Kampung Cerok Tilan","Kuala Pegang","KDH"
"09110","Kampung Keledang ","Kuala Pegang","KDH"
"09110","Kampung Ketemba Keminis","Kuala Pegang","KDH"
"09110","Kampung Kuala Balut","Kuala Pegang","KDH"
"09110","Kampung Kuala Cenerai Bat","Kuala Pegang","KDH"
"09110","Kampung Kuala Cenerai","Kuala Pegang","KDH"
"09110","Kampung Kuala Pegang","Kuala Pegang","KDH"
"09110","Kampung Lela","Kuala Pegang","KDH"
"09110","Kampung Lubuk Kabu","Kuala Pegang","KDH"
"09110","Kampung Murni","Kuala Pegang","KDH"
"09110","Kampung Padang Ketumba","Kuala Pegang","KDH"
"09110","Kampung Padang Toi","Kuala Pegang","KDH"
"09110","Kampung Padang","Kuala Pegang","KDH"
"09110","Kampung Seberang Titi","Kuala Pegang","KDH"
"09110","Kampung Telok Perah","Kuala Pegang","KDH"
"09110","Kampung Temusu","Kuala Pegang","KDH"
"09110","Kampung Terbak","Kuala Pegang","KDH"
"09110","Kampung Titi Melintang","Kuala Pegang","KDH"
"09110","Kampung Titi Merbau","Kuala Pegang","KDH"
"09110","Kampung Titi Teduri","Kuala Pegang","KDH"
"09110","Kampung Tok Diah","Kuala Pegang","KDH"
"09110","Kampung Tok Golok","Kuala Pegang","KDH"
"09110","Kampung Tok Seri","Kuala Pegang","KDH"
"09110","Kampung Wat Siam","Kuala Pegang","KDH"
"09110","Kampung Weng Dalam","Kuala Pegang","KDH"
"09110","Ketemba (Batu 35)","Kuala Pegang","KDH"
"09110","Ketemba Masjid","Kuala Pegang","KDH"
"09110","Taman Intan","Kuala Pegang","KDH"
"09200","Banggol Lahar","Kupang","KDH"
"09200","Bukit Terabak","Kupang","KDH"
"09200","Gua Rebah","Kupang","KDH"
"09200","Kampung Bendang Becah","Kupang","KDH"
"09200","Kampung Bendang Padang","Kupang","KDH"
"09200","Kampung Bokbak","Kupang","KDH"
"09200","Kampung Bubang Panjang","Kupang","KDH"
"09200","Kampung Bukit Iboi","Kupang","KDH"
"09200","Kampung Bukit Tinggi","Kupang","KDH"
"09200","Kampung Charok Kapas","Kupang","KDH"
"09200","Kampung Charok Sikin","Kupang","KDH"
"09200","Kampung Charuk Bemban","Kupang","KDH"
"09200","Kampung Gua Reban","Kupang","KDH"
"09200","Kampung Hangus","Kupang","KDH"
"09200","Kampung Iboi","Kupang","KDH"
"09200","Kampung Jerai","Kupang","KDH"
"09200","Kampung Kuala Kuang","Kupang","KDH"
"09200","Kampung Kubang Panjang","Kupang","KDH"
"09200","Kampung Landak Batu 39","Kupang","KDH"
"09200","Kampung Landak Bukit","Kupang","KDH"
"09200","Kampung Landak Hilir","Kupang","KDH"
"09200","Kampung Landak Paya","Kupang","KDH"
"09200","Kampung Landak","Kupang","KDH"
"09200","Kampung Padang China","Kupang","KDH"
"09200","Kampung Padang Dan","Kupang","KDH"
"09200","Kampung Pak Bong","Kupang","KDH"
"09200","Kampung Pisang","Kupang","KDH"
"09200","Kampung Raja","Kupang","KDH"
"09200","Kampung Rambong","Kupang","KDH"
"09200","Kampung Sadik","Kupang","KDH"
"09200","Kampung Seniyek","Kupang","KDH"
"09200","Kampung Seri Aman","Kupang","KDH"
"09200","Kampung Tanah Periok","Kupang","KDH"
"09200","Kampung Tanjong Merbau","Kupang","KDH"
"09200","Kampung Tanjong","Kupang","KDH"
"09200","Kampung Telok Charok Bemban","Kupang","KDH"
"09200","Kampung Telok Durian","Kupang","KDH"
"09200","Kampung Telok Jamal","Kupang","KDH"
"09200","Kampung Tengah","Kupang","KDH"
"09200","Kampung Tiak","Kupang","KDH"
"09200","Kampung Tok Saba","Kupang","KDH"
"09200","Kupang","Kupang","KDH"
"09200","Padang Lengkuas","Kupang","KDH"
"09200","Parit Panjang","Kupang","KDH"
"09200","Taman Bemban","Kupang","KDH"
"09200","Taman Desa Cempa","Kupang","KDH"
"09200","Taman Harapan ","Kupang","KDH"
"09200","Taman Mas","Kupang","KDH"
"09200","Taman Mesra ","Kupang","KDH"
"09200","Taman Permai","Kupang","KDH"
"09200","Taman Seri Mawar","Kupang","KDH"
"09200","Taman Sri Landak","Kupang","KDH"
"09200","Taman Wawasan","Kupang","KDH"
"09200","TamanDesa Mawar","Kupang","KDH"
"09200","Tebing Tinggi","Kupang","KDH"
"09300","Felcra Bukit Hijau","Kuala Ketil","KDH"
"09300","Felda Teloi Kanan","Kuala Ketil","KDH"
"09300","Felda Teloi Timur","Kuala Ketil","KDH"
"09300","Kampung Batu 1","Kuala Ketil","KDH"
"09300","Kampung Batu","Kuala Ketil","KDH"
"09300","Kampung Jawa","Kuala Ketil","KDH"
"09300","Kampung Kuala Bakong","Kuala Ketil","KDH"
"09300","Kampung Tanjong Puteri","Kuala Ketil","KDH"
"09300","Kampung Teloi Kanan","Kuala Ketil","KDH"
"09300","Kampung Teloi Timur","Kuala Ketil","KDH"
"09300","Kampung Tembak","Kuala Ketil","KDH"
"09300","Kejai","Kuala Ketil","KDH"
"09300","Kuala Ketil","Kuala Ketil","KDH"
"09300","Merbau Pulas","Kuala Ketil","KDH"
"09300","Teluk Petata","Kuala Ketil","KDH"
"09310","Kampung Baru Tawar","Kuala Ketil","KDH"
"09310","Kampung Binjoi Luar","Kuala Ketil","KDH"
"09310","Kampung Charok Akar","Kuala Ketil","KDH"
"09310","Kampung Surau Bakai","Kuala Ketil","KDH"
"09310","Teloi Kanan","Kuala Ketil","KDH"
"09400","Kampung Banggol","Padang Serai","KDH"
"09400","Kampung Bukit Sidam","Padang Serai","KDH"
"09400","Kampung Deka","Padang Serai","KDH"
"09400","Kampung Ekor Kucing","Padang Serai","KDH"
"09400","Kampung Gajah Merangkak","Padang Serai","KDH"
"09400","Kampung Guar Lobak","Padang Serai","KDH"
"09400","Kampung Keda (Mukim Naga Lilit)","Padang Serai","KDH"
"09400","Kampung Kemumbong","Padang Serai","KDH"
"09400","Kampung Kong Kedah","Padang Serai","KDH"
"09400","Kampung Kuala Jerong","Padang Serai","KDH"
"09400","Kampung Kuala Sedim","Padang Serai","KDH"
"09400","Kampung Kubang Sapi","Padang Serai","KDH"
"09400","Kampung Ladang Bukit Selarong","Padang Serai","KDH"
"09400","Kampung Ladang Padang Meiha","Padang Serai","KDH"
"09400","Kampung Lesong Tujuh","Padang Serai","KDH"
"09400","Kampung Lubok Saga","Padang Serai","KDH"
"09400","Kampung Naga Lilit","Padang Serai","KDH"
"09400","Kampung Padang Buluh","Padang Serai","KDH"
"09400","Kampung Pantai Ali","Padang Serai","KDH"
"09400","Kampung Pantai Edau","Padang Serai","KDH"
"09400","Kampung Pantai Perai","Padang Serai","KDH"
"09400","Kampung Paya Jemerli","Padang Serai","KDH"
"09400","Kampung Paya Union","Padang Serai","KDH"
"09400","Kampung Permatang Durian","Padang Serai","KDH"
"09400","Kampung Permatang Tok Dik","Padang Serai","KDH"
"09400","Kampung Seberang Paya","Padang Serai","KDH"
"09400","Kampung Siam","Padang Serai","KDH"
"09400","Kampung Sidam (Kiri & Kanan)","Padang Serai","KDH"
"09400","Kampung Tanjong Belit","Padang Serai","KDH"
"09400","Kampung Telok Binu","Padang Serai","KDH"
"09400","Kampung Telok Sera","Padang Serai","KDH"
"09400","Kampung Terat Batu","Padang Serai","KDH"
"09400","Kampung Tesong Tujuh","Padang Serai","KDH"
"09400","Kampung Tok Iman","Padang Serai","KDH"
"09400","Kampung Ujung Padang","Padang Serai","KDH"
"09400","Kampung Ujung Tanjong","Padang Serai","KDH"
"09400","Padang Serai","Padang Serai","KDH"
"09400","Sidam Kiri","Padang Serai","KDH"
"09400","Taman Damai","Padang Serai","KDH"
"09400","Taman Lagenda","Padang Serai","KDH"
"09400","Taman Mahsuri","Padang Serai","KDH"
"09400","Taman Melor Indah","Padang Serai","KDH"
"09400","Taman Raya Indah","Padang Serai","KDH"
"09400","Taman Serai Ria","Padang Serai","KDH"
"09400","Taman Serai Setia","Padang Serai","KDH"
"09400","Tawar","Padang Serai","KDH"
"09410","Kampung Baru Bukit Karangan","Padang Serai","KDH"
"09410","Kampung Kuala Bunut","Padang Serai","KDH"
"09410","Kampung Kuala Sidim","Padang Serai","KDH"
"09410","Kampung Ladang Bukit Karangan","Padang Serai","KDH"
"09410","Kampung Paya Kelubi","Padang Serai","KDH"
"09410","Kampung Titi Karangan","Padang Serai","KDH"
"09410","Sungai Karangan","Padang Serai","KDH"
"09410","Taman Desa Aman (Sungai Karangan)","Padang Serai","KDH"
"09410","Taman Kenangan (Sungai Karangan)","Padang Serai","KDH"
"09410","Taman Serai Wangi","Padang Serai","KDH"
"09600","Flat Kulim Square","Lunas","KDH"
"09600","Industri Makmur","Lunas ","KDH"
"09600","Kampung Balik Bukit","Lunas","KDH"
"09600","Kampung Batu 6","Lunas","KDH"
"09600","Kampung Batu 8 1/2","Lunas","KDH"
"09600","Kampung Bukit Kukus","Lunas","KDH"
"09600","Kampung Bukit Lada","Lunas","KDH"
"09600","Kampung Bukit Sarang Ayam","Lunas","KDH"
"09600","Kampung Jalan Ara Kuda","Lunas","KDH"
"09600","Kampung Matang","Lunas","KDH"
"09600","Kampung Padang China","Lunas","KDH"
"09600","Kampung Paya Besar","Lunas","KDH"
"09600","Kampung Paya Serdang","Lunas","KDH"
"09600","Kampung Siam","Lunas","KDH"
"09600","Kampung Sungai Limau","Lunas","KDH"
"09600","Lunas","Lunas","KDH"
"09600","Sungai Seluang","Lunas","KDH"
"09600","Taman Cili","Lunas","KDH"
"09600","Taman Delima","Lunas ","KDH"
"09600","Taman Desa Permai 2","Lunas ","KDH"
"09600","Taman Desa Seni","Lunas","KDH"
"09600","Taman Halia","Lunas","KDH"
"09600","Taman Kangkong 3","Lunas ","KDH"
"09600","Taman Kempas Merah","Lunas","KDH"
"09600","Taman Kota Kenari","Lunas","KDH"
"09600","Taman Melor Indah 2","Lunas ","KDH"
"09600","Taman Merawan","Lunas ","KDH"
"09600","Taman Murni Indah","Lunas","KDH"
"09600","Taman Perusahaan Saujana","Lunas","KDH"
"09600","Taman Sejahtera Jaya ","Lunas","KDH"
"09600","Taman Sejahtera","Lunas","KDH"
"09600","Taman Seri Mahkota","Lunas ","KDH"
"09600","Taman Seri Mesra","Lunas","KDH"
"09600","Taman Simponi","Lunas","KDH"
"09600","Taman Sutera","Lunas","KDH"
"09600","Titi Karangan","Lunas","KDH"
"09700","Banggol Penyengat","Karangan","KDH"
"09700","Bukit Sang","Karangan","KDH"
"09700","Felda Gunung Bongsu","Karangan","KDH"
"09700","Jalan Baru Sedim","Karangan","KDH"
"09700","Kampung BMR Kilang Baru","Karangan","KDH"
"09700","Kampung Badang","Karangan","KDH"
"09700","Kampung Baru Batu Puteh","Karangan","KDH"
"09700","Kampung Baru Karangan","Karangan","KDH"
"09700","Kampung Baru Lubok Gajah","Karangan","KDH"
"09700","Kampung Baru Mahang","Karangan","KDH"
"09700","Kampung Baru Padang Patong","Karangan","KDH"
"09700","Kampung Baru Sungai Kob","Karangan","KDH"
"09700","Kampung Baru Ulu Krian","Karangan","KDH"
"09700","Kampung Batu Karangan","Karangan","KDH"
"09700","Kampung Batu Puteh","Karangan","KDH"
"09700","Kampung Bukit Bertam","Karangan","KDH"
"09700","Kampung Bukit Kubu","Karangan","KDH"
"09700","Kampung Bukit Kubur","Karangan","KDH"
"09700","Kampung Bukit Rawa","Karangan","KDH"
"09700","Kampung Cherok Kedah","Karangan","KDH"
"09700","Kampung Chetty","Karangan","KDH"
"09700","Kampung Dingin","Karangan","KDH"
"09700","Kampung Gelugor","Karangan","KDH"
"09700","Kampung Gunong Bongsu","Karangan","KDH"
"09700","Kampung Haji Samad","Karangan","KDH"
"09700","Kampung Jangkang","Karangan","KDH"
"09700","Kampung Kemunting","Karangan","KDH"
"09700","Kampung Kilang Baru","Karangan","KDH"
"09700","Kampung Kuala Tawar","Karangan","KDH"
"09700","Kampung LOBAK","Karangan","KDH"
"09700","Kampung Lindongan Raja","Karangan","KDH"
"09700","Kampung Lubok Gajah","Karangan","KDH"
"09700","Kampung Merbok","Karangan","KDH"
"09700","Kampung Padang Belon","Karangan","KDH"
"09700","Kampung Padang China","Karangan","KDH"
"09700","Kampung Padang Keriang","Karangan","KDH"
"09700","Kampung Pagar Nuseh","Karangan","KDH"
"09700","Kampung Paya","Karangan","KDH"
"09700","Kampung Rantau Panjang","Karangan","KDH"
"09700","Kampung Seberang Jaya","Karangan","KDH"
"09700","Kampung Selarong Panjang","Karangan","KDH"
"09700","Kampung Selarong","Karangan","KDH"
"09700","Kampung Sidim","Karangan","KDH"
"09700","Kampung Sungai Badak","Karangan","KDH"
"09700","Kampung Sungai Buluh","Karangan","KDH"
"09700","Kampung Sungai Kob","Karangan","KDH"
"09700","Kampung Sungai Pasir Dalam","Karangan","KDH"
"09700","Kampung Sungai Pasir Luar","Karangan","KDH"
"09700","Kampung Sungai Pasu","Karangan","KDH"
"09700","Kampung Tebok","Karangan","KDH"
"09700","Kampung Tebuan","Karangan","KDH"
"09700","Kampung Tengah Ulu Tawar","Karangan","KDH"
"09700","Kampung Ulu Kerian","Karangan","KDH"
"09700","Kampung Ulu Mahang","Karangan","KDH"
"09700","Karangan","Karangan","KDH"
"09700","Kepala Titi","Karangan","KDH"
"09700","Ladang Dublin","Karangan","KDH"
"09700","Ladang Erico","Karangan","KDH"
"09700","Ladang Guthrie Dublin","Karangan","KDH"
"09700","Ladang Jongkong","Karangan","KDH"
"09700","Ladang Lean Seng","Karangan","KDH"
"09700","Mahang","Karangan","KDH"
"09700","Maryland Estate","Karangan","KDH"
"09700","Padang Janggus","Karangan","KDH"
"09700","Padang Limau","Karangan","KDH"
"09700","Pagar Museh","Karangan","KDH"
"09700","Pahau","Karangan","KDH"
"09700","Seberang Jaya","Karangan","KDH"
"09700","Simpang Tiga Pokok Glugor","Karangan","KDH"
"09700","Simpang Tiga","Karangan","KDH"
"09700","Sungai Kob","Karangan","KDH"
"09700","Taman Mutiara","Karangan","KDH"
"09700","Taman Sepakat","Karangan","KDH"
"09700","Taman Sungai Kob","Karangan","KDH"
"09800","Kampung Badlishah","Serdang","KDH"
"09800","Kampung Banggol Durian","Serdang","KDH"
"09800","Kampung Banggol Limau","Serdang","KDH"
"09800","Kampung Baru Serdang","Serdang","KDH"
"09800","Kampung Batu 10","Serdang","KDH"
"09800","Kampung Batu 12","Serdang","KDH"
"09800","Kampung Batu 16","Serdang","KDH"
"09800","Kampung Batu Ayer Putih","Serdang","KDH"
"09800","Kampung Batu Hampar","Serdang","KDH"
"09800","Kampung Batu Lintang","Serdang","KDH"
"09800","Kampung Bendang Sera","Serdang","KDH"
"09800","Kampung Bukit Aping","Serdang","KDH"
"09800","Kampung Bukit Buluh","Serdang","KDH"
"09800","Kampung Chelong","Serdang","KDH"
"09800","Kampung Durian Burong","Serdang","KDH"
"09800","Kampung Jermai","Serdang","KDH"
"09800","Kampung Kuala Ayer Putih","Serdang","KDH"
"09800","Kampung Kuala Dingin","Serdang","KDH"
"09800","Kampung Leret","Serdang","KDH"
"09800","Kampung Medan","Serdang","KDH"
"09800","Kampung Paya Salak","Serdang","KDH"
"09800","Kampung Pekan Lama","Serdang","KDH"
"09800","Kampung Setali","Serdang","KDH"
"09800","Kampung Sungai Buluh","Serdang","KDH"
"09800","Kampung Sungai Kasai","Serdang","KDH"
"09800","Kampung Sungai Salleh","Serdang","KDH"
"09800","Kampung Sungai Setol","Serdang","KDH"
"09800","Kampung Sungai Taka","Serdang","KDH"
"09800","Kampung Sungai Tegas Terap","Serdang","KDH"
"09800","Kampung Sungai Tegas","Serdang","KDH"
"09800","Kampung Telok Kelian","Serdang","KDH"
"09800","Kampung Telok Sera","Serdang","KDH"
"09800","Kampung Tengah","Serdang","KDH"
"09800","Kampung Terap","Serdang","KDH"
"09800","Kampung Titi Akar","Serdang","KDH"
"09800","Ladang Chim Khoon","Serdang","KDH"
"09800","Ladang Somme","Serdang","KDH"
"09800","Lubuk Buntar","Serdang","KDH"
"09800","Perumahan Awam 1 & 2","Serdang","KDH"
"09800","Serdang","Serdang","KDH"
"09800","Sungai Batu","Serdang","KDH"
"09800","Taman Aked","Serdang","KDH"
"09800","Taman Cempaka","Serdang","KDH"
"09800","Taman Kenanga","Serdang","KDH"
"09800","Taman Melor","Serdang","KDH"
"09800","Ulu Riau","Serdang","KDH"
"09810","Kampung Chong Meng","Serdang","KDH"
"09810","Kampung Kuala Selama","Serdang","KDH"
"09810","Kampung Masjid","Serdang","KDH"
"09810","Kampung Permatang Buluh","Serdang","KDH"
"09810","Kampung Sembilan Relong","Serdang","KDH"
"09810","Kampung Seribu Relong","Serdang","KDH"
"09810","Kampung Sungai Itam","Serdang","KDH"
"09810","Kampung Sungai Terap","Serdang","KDH"
"09810","Kampung Terap Dalam","Serdang","KDH"
"09810","Selama","Serdang","KDH"
"09810","Sungai Itam Dalam","Serdang","KDH"
"09810","Taman Serdang","Serdang","KDH"