POSTCODE,ADDRESS,CITY,STATE
50000,Bangunan Bangkok Bank,Kuala Lumpur,KUL
50000,Jalan Balai Polis,Kuala Lumpur,KUL
50000,Jalan Bandar,Kuala Lumpur,KUL
50000,Jalan Cheng Lock,Kuala Lumpur,KUL
50000,Jalan Hang Lekir,Kuala Lumpur,KUL
50000,Jalan Hang Naadim,Kuala Lumpur,KUL
50000,Jalan Panggung,Kuala Lumpur,KUL
50000,Jalan Petaling,Kuala Lumpur,KUL
50000,Jalan Sang Guna,Kuala Lumpur,KUL
50000,Jalan Skola,Kuala Lumpur,KUL
50000,Jalan Sultan Sulaiman,Kuala Lumpur,KUL
50000,Jalan Sultan,Kuala Lumpur,KUL
50000,Jalan Tun H.S. Lee,Kuala Lumpur,KUL
50000,Kompleks Kota Raya,Kuala Lumpur,KUL
50000,Lorong Bandar 16,Kuala Lumpur,KUL
50000,Lorong Hang Lekir,Kuala Lumpur,KUL
50000,Lorong Madras,Kuala Lumpur,KUL
50000,Lorong Panggung,Kuala Lumpur,KUL
50000,Lorong Sang Guna,Kuala Lumpur,KUL
50000,Lorong Sultan,Kuala Lumpur,KUL
50050,Balai Seni Lukis Negara,Kuala Lumpur,KUL
50050,Bangunan Bank Pertanian,Kuala Lumpur,KUL
50050,Bangunan Cahaya Suria,Kuala Lumpur,KUL
50050,Bangunan Lee Yan Lian,Kuala Lumpur,KUL
50050,Bangunan Strait Trading,Kuala Lumpur,KUL
50050,Central Square,Kuala Lumpur,KUL
50050,Jalan Benteng,Kuala Lumpur,KUL
50050,Jalan Hang Kasturi,Kuala Lumpur,KUL
50050,Jalan Mahkamah Persekutuan,Kuala Lumpur,KUL
50050,Jalan Mahkamah Tinggi,Kuala Lumpur,KUL
50050,Jalan Medan Pasar,Kuala Lumpur,KUL
50050,Jalan Raja,Kuala Lumpur,KUL
50050,Jalan Silang,Kuala Lumpur,KUL
50050,Jalan Sultan Hishamuddin,Kuala Lumpur,KUL
50050,Jalan Sultan Mohammed,Kuala Lumpur,KUL
50050,Jalan Tugu,Kuala Lumpur,KUL
50050,Jalan Tun Perak,Kuala Lumpur,KUL
50050,Jalan Yap Ah Loy,Kuala Lumpur,KUL
50050,Kompleks Dayabumi,Kuala Lumpur,KUL
50050,Lebuh Pasar Besar,Kuala Lumpur,KUL
50050,Lebuh Pudu,Kuala Lumpur,KUL
50050,Lorong Pudu,Kuala Lumpur,KUL
50050,Lorong Silang,Kuala Lumpur,KUL
50050,Lorong Yap Ah Loy,Kuala Lumpur,KUL
50050,Medan Pasar,Kuala Lumpur,KUL
50050,Menara Maybank,Kuala Lumpur,KUL
50050,Muzium Sejarah Nasional Kuala Lumpur,Kuala Lumpur,KUL
50050,Pasar Budaya,Kuala Lumpur,KUL
50050,Stesen Keretapi Kuala Lumpur,Kuala Lumpur,KUL
50050,Yayasan Pencegahan Jenayah Malaysia,Kuala Lumpur,KUL
50088,Binjai On The Park,Kuala Lumpur,KUL
50088,Kuala Lumpur City Centre (KLCC),Kuala Lumpur,KUL
50088,Menara Berkembar PETRONAS,Kuala Lumpur,KUL
50088,Persiaran KLCC,Kuala Lumpur,KUL
50100,Bangunan Bank Of Tokyo,Kuala Lumpur,KUL
50100,Bangunan Dato Zainal,Kuala Lumpur,KUL
50100,Bangunan Mara,Kuala Lumpur,KUL
50100,Capital Square,Kuala Lumpur,KUL
50100,Jalan Bunus 1,Kuala Lumpur,KUL
50100,Jalan Bunus,Kuala Lumpur,KUL
50100,Jalan Dang Wangi,Kuala Lumpur,KUL
50100,Jalan Gereja,Kuala Lumpur,KUL
50100,Jalan Hang Lekiu,Kuala Lumpur,KUL
50100,Jalan Masjid India,Kuala Lumpur,KUL
50100,Jalan Medan Bonus,Kuala Lumpur,KUL
50100,Jalan Melaka,Kuala Lumpur,KUL
50100,Jalan Melayu,Kuala Lumpur,KUL
50100,Jalan Munshi Abdullah,Kuala Lumpur,KUL
50100,Jalan Tuanku Abdul Rahman,Kuala Lumpur,KUL
50100,Jalan Tun Fatimah,Kuala Lumpur,KUL
50100,Lebuh Ampang,Kuala Lumpur,KUL
50100,Lorong Ampang (1 - 2),Kuala Lumpur,KUL
50100,Lorong Ampang,Kuala Lumpur,KUL
50100,Lorong Bunus (1 - 6),Kuala Lumpur,KUL
50100,Lorong Gombak,Kuala Lumpur,KUL
50100,Lorong Hang Lekiu,Kuala Lumpur,KUL
50100,Lorong Masjid India (2 & 4),Kuala Lumpur,KUL
50100,Lorong Medan Bunus,Kuala Lumpur,KUL
50100,"Lorong Tunku Abdul Rahman (1-8,10 & 15)",Kuala Lumpur,KUL
50100,Lorong Tunku Abdul Rahman,Kuala Lumpur,KUL
50100,Medan Bunus,Kuala Lumpur,KUL
50100,Menara Bumiputra - Commerce Bank,Kuala Lumpur,KUL
50100,Menara Multi Purpose,Kuala Lumpur,KUL
50100,Persiaran Capsquare,Kuala Lumpur,KUL
50100,Wisma Yakin,Kuala Lumpur,KUL
50150,Jalan Changkat Stadium,Kuala Lumpur,KUL
50150,Jalan Galloway,Kuala Lumpur,KUL
50150,Jalan Hang Isap,Kuala Lumpur,KUL
50150,Jalan Hang Jebat,Kuala Lumpur,KUL
50150,Jalan Maharajalela,Kuala Lumpur,KUL
50150,Jalan Robertson,Kuala Lumpur,KUL
50150,Jalan Sin Chee Kee,Kuala Lumpur,KUL
50150,Jalan Stadium,Kuala Lumpur,KUL
50150,Jalan Wesley,Kuala Lumpur,KUL
50150,Lorong Hang Jebat,Kuala Lumpur,KUL
50150,Stadium Chin Woo,Kuala Lumpur,KUL
50150,Stadium Merdeka,Kuala Lumpur,KUL
50150,Stadium Negara,Kuala Lumpur,KUL
50150,Wisma Pahlawan,Kuala Lumpur,KUL
50200,Blue Boy Mansion,Kuala Lumpur,KUL
50200,Cangkat Bukit Bintang,Kuala Lumpur,KUL
50200,Cangkat Raja Chulan,Kuala Lumpur,KUL
50200,Istana Pahang,Kuala Lumpur,KUL
50200,Jalan Alor,Kuala Lumpur,KUL
50200,Jalan Angsoka,Kuala Lumpur,KUL
50200,Jalan Bedara,Kuala Lumpur,KUL
50200,Jalan Berangan,Kuala Lumpur,KUL
50200,Jalan Beremi,Kuala Lumpur,KUL
50200,Jalan Bukit Ceylon,Kuala Lumpur,KUL
50200,Jalan Bukit Kewangan,Kuala Lumpur,KUL
50200,Jalan Ceylon,Kuala Lumpur,KUL
50200,Jalan Hicks,Kuala Lumpur,KUL
50200,Jalan Mahkamah,Kuala Lumpur,KUL
50200,Jalan Mesui,Kuala Lumpur,KUL
50200,Jalan Nagasari,Kuala Lumpur,KUL
50200,Jalan Pudu Lama,Kuala Lumpur,KUL
50200,Jalan Raja Chulan,Kuala Lumpur,KUL
50200,Jalan Rembia,Kuala Lumpur,KUL
50200,Jalan Sahabat,Kuala Lumpur,KUL
50200,Jalan Tingkat Tong Shin,Kuala Lumpur,KUL
50200,Jalan Tong Shin,Kuala Lumpur,KUL
50200,Kompleks Kewangan,Kuala Lumpur,KUL
50200,Lorong Ceylon,Kuala Lumpur,KUL
50200,Lorong Sahabat,Kuala Lumpur,KUL
50200,Menara Antara,Kuala Lumpur,KUL
50200,Menara Boustead,Kuala Lumpur,KUL
50200,Menara Bukit Ceylon,Kuala Lumpur,KUL
50200,Menara City,Kuala Lumpur,KUL
50200,Menara ING,Kuala Lumpur,KUL
50200,Menara Regency,Kuala Lumpur,KUL
50200,Persiaran Raja Chulan,Kuala Lumpur,KUL
50200,Satu Residensi,Kuala Lumpur,KUL
50200,Tingkat Tong Shin,Kuala Lumpur,KUL
50250,Bangunan Bank Industri,Kuala Lumpur,KUL
50250,Bangunan Bank Pembangunan,Kuala Lumpur,KUL
50250,Bangunan Kenanga International,Kuala Lumpur,KUL
50250,Bangunan Mas,Kuala Lumpur,KUL
50250,Cangkat Perak,Kuala Lumpur,KUL
50250,Jalan Bukit Nenas,Kuala Lumpur,KUL
50250,Jalan Chendana,Kuala Lumpur,KUL
50250,Jalan Law Yew Swee,Kuala Lumpur,KUL
50250,Jalan P. Ramlee,Kuala Lumpur,KUL
50250,Jalan Puncak,Kuala Lumpur,KUL
50250,Jalan Sultan Ismail,Kuala Lumpur,KUL
50250,Jalan Tengah,Kuala Lumpur,KUL
50250,Kampung Chendana,Kuala Lumpur,KUL
50250,Kompleks Antarabangsa,Kuala Lumpur,KUL
50250,Lorong P. Ramlee,Kuala Lumpur,KUL
50250,Lorong Perak,Kuala Lumpur,KUL
50250,Lorong Raja Chulan,Kuala Lumpur,KUL
50250,Menara Haw Par,Kuala Lumpur,KUL
50250,Menara KL,Kuala Lumpur,KUL
50250,Menara Pan Global,Kuala Lumpur,KUL
50250,Menara Promet,Kuala Lumpur,KUL
50250,Menara SMI,Kuala Lumpur,KUL
50250,Menara Shahzan Prudential,Kuala Lumpur,KUL
50250,Menara Sheraton,Kuala Lumpur,KUL
50250,Menara UBN,Kuala Lumpur,KUL
50250,Permodalan Nasional Berhad,Kuala Lumpur,KUL
50250,President House,Kuala Lumpur,KUL
50250,Suruhanjaya Tenaga,Kuala Lumpur,KUL
50250,Syarikat Perumahan Negara,Kuala Lumpur,KUL
50300,Jalan Abdul Manan Nordin,Kuala Lumpur,KUL
50300,Jalan Abdul Rahman Idris,Kuala Lumpur,KUL
50300,Jalan Abdullah Yasin,Kuala Lumpur,KUL
50300,Jalan Dato Abd Manan Nordin,Kuala Lumpur,KUL
50300,Jalan Datuk Abdul Malek,Kuala Lumpur,KUL
50300,Jalan Datuk Abdul Razak,Kuala Lumpur,KUL
50300,Jalan Datuk Abdullah Yassin,Kuala Lumpur,KUL
50300,Jalan Daud,Kuala Lumpur,KUL
50300,Jalan Dewan Sultan Sulaiman,Kuala Lumpur,KUL
50300,Jalan Doraisamy,Kuala Lumpur,KUL
50300,Jalan Haji Hashim,Kuala Lumpur,KUL
50300,Jalan Haji Hussein Kiri (1 - 2),Kuala Lumpur,KUL
50300,Jalan Haji Hussein,Kuala Lumpur,KUL
50300,Jalan Haji Sirat,Kuala Lumpur,KUL
50300,Jalan Haji Yaakob,Kuala Lumpur,KUL
50300,Jalan Haji Yahya Sheikh Ahmad,Kuala Lumpur,KUL
50300,Jalan Haji Zainuddin,Kuala Lumpur,KUL
50300,Jalan Hamzah,Kuala Lumpur,KUL
50300,Jalan Kemunting,Kuala Lumpur,KUL
50300,Jalan Khatib Koyan,Kuala Lumpur,KUL
50300,Jalan Mahmud,Kuala Lumpur,KUL
50300,Jalan Medan Tuanku Satu,Kuala Lumpur,KUL
50300,Jalan Medan Tuanku,Kuala Lumpur,KUL
50300,Jalan Puan,Kuala Lumpur,KUL
50300,Jalan Raja Abdullah,Kuala Lumpur,KUL
50300,Jalan Raja Alang,Kuala Lumpur,KUL
50300,Jalan Raja Ali,Kuala Lumpur,KUL
50300,Jalan Raja Bot,Kuala Lumpur,KUL
50300,Jalan Raja Mahadi,Kuala Lumpur,KUL
50300,Jalan Raja Mahmud,Kuala Lumpur,KUL
50300,Jalan Raja Muda Abdul Aziz,Kuala Lumpur,KUL
50300,Jalan Raja Muda Musa,Kuala Lumpur,KUL
50300,Jalan Raja Muda,Kuala Lumpur,KUL
50300,Jalan Raja Uda,Kuala Lumpur,KUL
50300,Jalan Rakan,Kuala Lumpur,KUL
50300,Jalan Salleh,Kuala Lumpur,KUL
50300,Jalan Sungai Baru (1 - 5),Kuala Lumpur,KUL
50300,Jalan Sungai Baru,Kuala Lumpur,KUL
50300,Jalan Syed Mahadi,Kuala Lumpur,KUL
50300,Jalan Yap Ah Shak,Kuala Lumpur,KUL
50300,Kampung Doraisamy,Kuala Lumpur,KUL
50300,Kampung Limau,Kuala Lumpur,KUL
50300,Kampung Periuk,Kuala Lumpur,KUL
50300,Lorong Daud,Kuala Lumpur,KUL
50300,Lorong Haji Hussein (1 - 2),Kuala Lumpur,KUL
50300,Lorong Kampung Periuk,Kuala Lumpur,KUL
50300,Lorong Khatib Koyan,Kuala Lumpur,KUL
50300,Lorong Mahmood,Kuala Lumpur,KUL
50300,Lorong Masjid Pakistan,Kuala Lumpur,KUL
50300,Lorong Medan Tuanku (1 - 2),Kuala Lumpur,KUL
50300,Lorong Pasar,Kuala Lumpur,KUL
50300,Lorong Raja Alang,Kuala Lumpur,KUL
50300,Lorong Raja Bot,Kuala Lumpur,KUL
50300,Lorong Raja Mahadi,Kuala Lumpur,KUL
50300,Lorong Raja Mahmud,Kuala Lumpur,KUL
50300,Lorong Raja Muda Musa (1 - 6),Kuala Lumpur,KUL
50300,Lorong Raja Uda 1,Kuala Lumpur,KUL
50300,Lorong Raja Uda 2,Kuala Lumpur,KUL
50300,"Lorong Tunku Abdul Rahman (9,11 & 13)",Kuala Lumpur,KUL
50300,Lorong Tunku Abdul Rahman Kanan,Kuala Lumpur,KUL
50300,Lorong Tunku Abdul Rahman Kanan(1 - 5),Kuala Lumpur,KUL
50300,Lorong Yap Ah Shak,Kuala Lumpur,KUL
50300,Lorong Zainuddin,Kuala Lumpur,KUL
50300,Menara Kota,Kuala Lumpur,KUL
50300,Wisma RKT II (Jln Raja Abdullah),Kuala Lumpur,KUL
50350,Bangunan DBKL,Kuala Lumpur,KUL
50350,Bangunan Kuwasa,Kuala Lumpur,KUL
50350,Bangunan LPPKN,Kuala Lumpur,KUL
50350,Jalan 1/64A,Kuala Lumpur,KUL
50350,Jalan 2/64,Kuala Lumpur,KUL
50350,Jalan 2/64A,Kuala Lumpur,KUL
50350,Jalan 3/64A,Kuala Lumpur,KUL
50350,Jalan Belia,Kuala Lumpur,KUL
50350,Jalan Berkek,Kuala Lumpur,KUL
50350,Jalan Brodrick,Kuala Lumpur,KUL
50350,Jalan Chegar,Kuala Lumpur,KUL
50350,Jalan Chow Kit Kiri,Kuala Lumpur,KUL
50350,Jalan Chow Kit,Kuala Lumpur,KUL
50350,Jalan Haji Taib,Kuala Lumpur,KUL
50350,Jalan Ipoh Kecil,Kuala Lumpur,KUL
50350,Jalan Laman Raja Laut,Kuala Lumpur,KUL
50350,Jalan Merbok,Kuala Lumpur,KUL
50350,Jalan Merpati,Kuala Lumpur,KUL
50350,Jalan Putra,Kuala Lumpur,KUL
50350,Jalan Rahmat,Kuala Lumpur,KUL
50350,Jalan Raja Laut,Kuala Lumpur,KUL
50350,Jalan Semarang,Kuala Lumpur,KUL
50350,Jalan Seri Amar,Kuala Lumpur,KUL
50350,Jalan Thamboosamay,Kuala Lumpur,KUL
50350,Jalan Tiong Nam,Kuala Lumpur,KUL
50350,Kampung Semarang,Kuala Lumpur,KUL
50350,Laman Raja Laut,Kuala Lumpur,KUL
50350,Lengkok Raja Laut,Kuala Lumpur,KUL
50350,Lorong Chow Kit,Kuala Lumpur,KUL
50350,Lorong Haji Taib (1 - 18),Kuala Lumpur,KUL
50350,Lorong Rahmat,Kuala Lumpur,KUL
50350,Lorong Raja Laut Kechil,Kuala Lumpur,KUL
50350,Lorong Raja Laut,Kuala Lumpur,KUL
50350,Lorong Tiong Nam (1 - 8),Kuala Lumpur,KUL
50350,"Lorong Tunku Abdul Rahman (12,14,16,18)",Kuala Lumpur,KUL
50350,Lorong Tunku Abdul Rahman Kiri (1 - 4),Kuala Lumpur,KUL
50350,Menara Tun Razak,Kuala Lumpur,KUL
50350,Resource House,Kuala Lumpur,KUL
50350,The Mall,Kuala Lumpur,KUL
50350,Wisma PKNS,Kuala Lumpur,KUL
50400,Balai Islam,Kuala Lumpur,KUL
50400,Bangunan City Square,Kuala Lumpur,KUL
50400,Bangunan MIDF,Kuala Lumpur,KUL
50400,Bangunan PNB,Kuala Lumpur,KUL
50400,Bangunan Tabung Haji,Kuala Lumpur,KUL
50400,Hospital Sentosa,Kuala Lumpur,KUL
50400,Institut Jantung Negara,Kuala Lumpur,KUL
50400,Jabatan Lanskap Negara,Kuala Lumpur,KUL
50400,Jalan Batu Bata,Kuala Lumpur,KUL
50400,Jalan Bidor,Kuala Lumpur,KUL
50400,Jalan Chemor,Kuala Lumpur,KUL
50400,Jalan Chermai,Kuala Lumpur,KUL
50400,Jalan Dato Haji Eusoff,Kuala Lumpur,KUL
50400,Jalan Doktor Latiff,Kuala Lumpur,KUL
50400,Jalan Kampar,Kuala Lumpur,KUL
50400,Jalan Kinta,Kuala Lumpur,KUL
50400,Jalan Lahat,Kuala Lumpur,KUL
50400,Jalan Lumut,Kuala Lumpur,KUL
50400,Jalan Pangkor,Kuala Lumpur,KUL
50400,Jalan Pekeliling Lama,Kuala Lumpur,KUL
50400,Jalan Saga,Kuala Lumpur,KUL
50400,Jalan Sitiawan,Kuala Lumpur,KUL
50400,Jalan Taiping,Kuala Lumpur,KUL
50400,Jalan Tun Razak,Kuala Lumpur,KUL
50400,Kampung Dato Haji Yusof,Kuala Lumpur,KUL
50400,Kompleks Damai,Kuala Lumpur,KUL
50400,Lorong Raja Muda,Kuala Lumpur,KUL
50400,Menara Empire,Kuala Lumpur,KUL
50400,Menara PJD (Jln Tun Razak),Kuala Lumpur,KUL
50400,Menara Tan & Tan,Kuala Lumpur,KUL
50400,"Menara Tower G, Jalan Tun Razak",Kuala Lumpur,KUL
50400,Pangsapuri The Orion,Kuala Lumpur,KUL
50400,Pusat Darah Negara,Kuala Lumpur,KUL
50400,Wisma Bernama,Kuala Lumpur,KUL
50450,Bangunan Angkasa Raya,Kuala Lumpur,KUL
50450,Bangunan Getah Asli,Kuala Lumpur,KUL
50450,Bangunan Risda,Kuala Lumpur,KUL
50450,Cangkat Kia Peng,Kuala Lumpur,KUL
50450,Desa Kuda Lari,Kuala Lumpur,KUL
50450,Hospital Gleneagles,Kuala Lumpur,KUL
50450,Jalan 1/67B,Kuala Lumpur,KUL
50450,Jalan Ampang (Hingga Km 6.5),Kuala Lumpur,KUL
50450,Jalan Binjai,Kuala Lumpur,KUL
50450,Jalan Changkat Kia Peng,Kuala Lumpur,KUL
50450,Jalan Conlay,Kuala Lumpur,KUL
50450,Jalan Eaton,Kuala Lumpur,KUL
50450,Jalan Kia Peng,Kuala Lumpur,KUL
50450,Jalan Liew Weng Chee,Kuala Lumpur,KUL
50450,Jalan Lumba Kuda,Kuala Lumpur,KUL
50450,Jalan Mayang Sari,Kuala Lumpur,KUL
50450,Jalan Mayang,Kuala Lumpur,KUL
50450,Jalan Perak,Kuala Lumpur,KUL
50450,Jalan Pinang,Kuala Lumpur,KUL
50450,Jalan Stonor,Kuala Lumpur,KUL
50450,Jalan Yap Kwan Seng,Kuala Lumpur,KUL
50450,Kampung Baru Seberang,Kuala Lumpur,KUL
50450,Kompleks Budaya Kraf,Kuala Lumpur,KUL
50450,Kondominium Troika 19,Kuala Lumpur,KUL
50450,Lorong Binjai,Kuala Lumpur,KUL
50450,Lorong Kuda,Kuala Lumpur,KUL
50450,Lorong Mayang,Kuala Lumpur,KUL
50450,Lorong Nibong,Kuala Lumpur,KUL
50450,Lorong Stonor,Kuala Lumpur,KUL
50450,Lorong Yap Kwan Seng,Kuala Lumpur,KUL
50450,Matic,Kuala Lumpur,KUL
50450,Menara Bena,Kuala Lumpur,KUL
50450,Menara Citibank,Kuala Lumpur,KUL
50450,Menara MCIS,Kuala Lumpur,KUL
50450,Menara MNI,Kuala Lumpur,KUL
50450,Menara Perkeso,Kuala Lumpur,KUL
50450,Menara Pinang,Kuala Lumpur,KUL
50450,Menara TR,Kuala Lumpur,KUL
50450,Menara UOA,Kuala Lumpur,KUL
50450,Pangsapuri 157 Hampshire 1,Kuala Lumpur,KUL
50450,Pangsapuri Vista Permai,Kuala Lumpur,KUL
50450,Persiaran Hampshire,Kuala Lumpur,KUL
50450,Persiaran Lidcol,Kuala Lumpur,KUL
50450,Persiaran Stonor,Kuala Lumpur,KUL
50450,Rumah Sabah,Kuala Lumpur,KUL
50450,Wisma MCA,Kuala Lumpur,KUL
50460,Bangunan Perangsang Segemal,Kuala Lumpur,KUL
50460,Bukit Petaling,Kuala Lumpur,KUL
50460,Desa Angkasaraya PUKL,Kuala Lumpur,KUL
50460,Jalan Akar,Kuala Lumpur,KUL
50460,Jalan Belfield,Kuala Lumpur,KUL
50460,Jalan Bellamy,Kuala Lumpur,KUL
50460,Jalan Bukit Petaling,Kuala Lumpur,KUL
50460,Jalan Choo Cheng Khay,Kuala Lumpur,KUL
50460,Jalan Gajus,Kuala Lumpur,KUL
50460,Jalan Hose,Kuala Lumpur,KUL
50460,Jalan Istana,Kuala Lumpur,KUL
50460,Jalan Kampung Attap,Kuala Lumpur,KUL
50460,Jalan Kerayong Kecil,Kuala Lumpur,KUL
50460,Jalan Kerayong,Kuala Lumpur,KUL
50460,Jalan Lapangan Terbang Lama,Kuala Lumpur,KUL
50460,Jalan Manau,Kuala Lumpur,KUL
50460,Jalan Paoh,Kuala Lumpur,KUL
50460,Jalan Permai,Kuala Lumpur,KUL
50460,Jalan Robson,Kuala Lumpur,KUL
50460,Jalan Rotan,Kuala Lumpur,KUL
50460,Jalan Socony,Kuala Lumpur,KUL
50460,Jalan Syed Putra,Kuala Lumpur,KUL
50460,Jalan Tallala,Kuala Lumpur,KUL
50460,Jalan Tuba,Kuala Lumpur,KUL
50460,Jalan Wisma Putra,Kuala Lumpur,KUL
50460,Kampung Attap,Kuala Lumpur,KUL
50460,Kampung Bellamy,Kuala Lumpur,KUL
50460,Kampung Delima,Kuala Lumpur,KUL
50460,Kampung Kerayong,Kuala Lumpur,KUL
50460,Kampung Loke Yew,Kuala Lumpur,KUL
50460,Lengkok Belfield,Kuala Lumpur,KUL
50460,Lengkok Bellamy,Kuala Lumpur,KUL
50460,Lorong Belfield,Kuala Lumpur,KUL
50460,Lorong Gajus,Kuala Lumpur,KUL
50460,Lorong Kerayong,Kuala Lumpur,KUL
50460,Lorong Permai,Kuala Lumpur,KUL
50460,Lorong Syed Putra Kiri,Kuala Lumpur,KUL
50460,Lorong Syed Putra,Kuala Lumpur,KUL
50460,Persiaran Endau,Kuala Lumpur,KUL
50460,Persiaran Indah,Kuala Lumpur,KUL
50460,Persiaran Syed Putra,Kuala Lumpur,KUL
50460,Taman Park Avenue,Kuala Lumpur,KUL
50460,Taman Persiaran Desa,Kuala Lumpur,KUL
50460,Wisma Putra,Kuala Lumpur,KUL
50470,"Hotel Summer View, KL",Kuala Lumpur,KUL
50470,Jalan Ang Seng (1 - 6),Kuala Lumpur,KUL
50470,Jalan Ang Seng,Kuala Lumpur,KUL
50470,Jalan Anthony,Kuala Lumpur,KUL
50470,Jalan Berhala,Kuala Lumpur,KUL
50470,Jalan Chan Ah Tong,Kuala Lumpur,KUL
50470,Jalan Marsh,Kuala Lumpur,KUL
50470,Jalan Padang Belia,Kuala Lumpur,KUL
50470,Jalan Rozario,Kuala Lumpur,KUL
50470,Jalan Scott,Kuala Lumpur,KUL
50470,Jalan Stesen Sentral 5,Kuala Lumpur,KUL
50470,Jalan Sultan Abdul Samad,Kuala Lumpur,KUL
50470,Jalan Tebing,Kuala Lumpur,KUL
50470,Jalan Thambapillai,Kuala Lumpur,KUL
50470,Jalan Thambapillay 1,Kuala Lumpur,KUL
50470,Jalan Thambipillay,Kuala Lumpur,KUL
50470,Jalan Thamby Abdullah (1 - 2),Kuala Lumpur,KUL
50470,Jalan Thamby Abdullah,Kuala Lumpur,KUL
50470,Jalan Travers,Kuala Lumpur,KUL
50470,Jalan Tun Sambanthan,Kuala Lumpur,KUL
50470,Jalan Vivekananda,Kuala Lumpur,KUL
50470,Kampung Brickfields,Kuala Lumpur,KUL
50470,Kampung Khatijah,Kuala Lumpur,KUL
50470,Kampung Ksatam,Kuala Lumpur,KUL
50470,Kampung Scott,Kuala Lumpur,KUL
50470,Kampung Syed Putra,Kuala Lumpur,KUL
50470,Kuala Lumpur Sentral,Kuala Lumpur,KUL
50470,Lengkok Tun Sambanthan,Kuala Lumpur,KUL
50470,Lorong Abdul Samad,Kuala Lumpur,KUL
50470,Lorong Berhala,Kuala Lumpur,KUL
50470,Lorong Chan Ah Tong,Kuala Lumpur,KUL
50470,Lorong Kerbau,Kuala Lumpur,KUL
50470,Lorong Padang Belia,Kuala Lumpur,KUL
50470,Lorong Scott,Kuala Lumpur,KUL
50470,Lorong Sultan Abdul Samad,Kuala Lumpur,KUL
50470,Lorong Vivekananda,Kuala Lumpur,KUL
50480,Bangunan Bank Negara,Kuala Lumpur,KUL
50480,Bangunan Bank Rakyat,Kuala Lumpur,KUL
50480,Bangunan British Council,Kuala Lumpur,KUL
50480,Bukit Ledang,Kuala Lumpur,KUL
50480,Bukit Persekutuan (Kenny Hill),Kuala Lumpur,KUL
50480,Cangkat Damansara,Kuala Lumpur,KUL
50480,Cangkat Duta,Kuala Lumpur,KUL
50480,Cangkat Persekutuan,Kuala Lumpur,KUL
50480,Cangkat Tunku,Kuala Lumpur,KUL
50480,Carcosa Seri Negara,Kuala Lumpur,KUL
50480,Cerunan Tunku,Kuala Lumpur,KUL
50480,DaLaman Tunku,Kuala Lumpur,KUL
50480,Dataran Tunku,Kuala Lumpur,KUL
50480,Desa Sri Hartamas,Kuala Lumpur,KUL
50480,Duta Kensington,Kuala Lumpur,KUL
50480,Duta Tropika,Kuala Lumpur,KUL
50480,Institut Kefahaman Islam (IKIM),Kuala Lumpur,KUL
50480,Jalan Bukit Aman,Kuala Lumpur,KUL
50480,Jalan Bukit Kota,Kuala Lumpur,KUL
50480,Jalan Bukit Ledang,Kuala Lumpur,KUL
50480,Jalan Bukit Travers,Kuala Lumpur,KUL
50480,Jalan Bukit Tunku (Kenny Hill Timur),Kuala Lumpur,KUL
50480,Jalan Cangkat Damansara,Kuala Lumpur,KUL
50480,Jalan Cangkat Persekutuan,Kuala Lumpur,KUL
50480,Jalan Carruthers,Kuala Lumpur,KUL
50480,Jalan Cemerlang,Kuala Lumpur,KUL
50480,Jalan Cenderasari,Kuala Lumpur,KUL
50480,Jalan Cenderawasih,Kuala Lumpur,KUL
50480,Jalan Damansara (Hingga Km 9.5),Kuala Lumpur,KUL
50480,Jalan Dato Onn,Kuala Lumpur,KUL
50480,Jalan Desa Kiara 1,Kuala Lumpur,KUL
50480,Jalan Duta Hartamas,Kuala Lumpur,KUL
50480,Jalan Duta Kiara,Kuala Lumpur,KUL
50480,Jalan Duta,Kuala Lumpur,KUL
50480,Jalan Dutamas ,Kuala Lumpur,KUL
50480,Jalan Dutamas 1,Kuala Lumpur,KUL
50480,Jalan Gallagher,Kuala Lumpur,KUL
50480,Jalan Gegambir,Kuala Lumpur,KUL
50480,Jalan Gemilang,Kuala Lumpur,KUL
50480,Jalan Girdle,Kuala Lumpur,KUL
50480,Jalan Johor Selatan,Kuala Lumpur,KUL
50480,Jalan Kebun Bunga,Kuala Lumpur,KUL
50480,Jalan Kedah,Kuala Lumpur,KUL
50480,Jalan Kelantan,Kuala Lumpur,KUL
50480,Jalan Kerja Ayer,Kuala Lumpur,KUL
50480,Jalan Kiara ,Kuala Lumpur,KUL
50480,Jalan Kiara 2,Kuala Lumpur,KUL
50480,Jalan Kiara 3,Kuala Lumpur,KUL
50480,Jalan Kiara 5,Kuala Lumpur,KUL
50480,Jalan Kiara 7,Kuala Lumpur,KUL
50480,Jalan Kinabalu,Kuala Lumpur,KUL
50480,Jalan Kota,Kuala Lumpur,KUL
50480,Jalan Langgak Duta,Kuala Lumpur,KUL
50480,Jalan Langgak Tasek,Kuala Lumpur,KUL
50480,Jalan Ledang,Kuala Lumpur,KUL
50480,Jalan Lembah Duta,Kuala Lumpur,KUL
50480,Jalan Lembah Ledang,Kuala Lumpur,KUL
50480,Jalan Lembah Tunku,Kuala Lumpur,KUL
50480,Jalan Lembah,Kuala Lumpur,KUL
50480,Jalan Mahameru,Kuala Lumpur,KUL
50480,Jalan Merchu,Kuala Lumpur,KUL
50480,Jalan Negeri Sembilan,Kuala Lumpur,KUL
50480,Jalan Nusa,Kuala Lumpur,KUL
50480,Jalan Parlimen,Kuala Lumpur,KUL
50480,Jalan Perdana,Kuala Lumpur,KUL
50480,Jalan Perlis,Kuala Lumpur,KUL
50480,Jalan Persekutuan,Kuala Lumpur,KUL
50480,Jalan Petalawati,Kuala Lumpur,KUL
50480,Jalan Puncak Kiara (4 - 5),Kuala Lumpur,KUL
50480,Jalan Selangor,Kuala Lumpur,KUL
50480,Jalan Sri Hartamas 1,Kuala Lumpur,KUL
50480,Jalan Sultan Salahuddin,Kuala Lumpur,KUL
50480,Jalan Syers,Kuala Lumpur,KUL
50480,Jalan Taman Duta,Kuala Lumpur,KUL
50480,Jalan Taming Sari,Kuala Lumpur,KUL
50480,Jalan Tanglin,Kuala Lumpur,KUL
50480,Jalan Tangsi,Kuala Lumpur,KUL
50480,Jalan Tembusu Selatan,Kuala Lumpur,KUL
50480,Jalan Tembusu Utara,Kuala Lumpur,KUL
50480,Jalan Tembusu,Kuala Lumpur,KUL
50480,Jalan Tengku Ampuan,Kuala Lumpur,KUL
50480,Jalan Terengganu,Kuala Lumpur,KUL
50480,Jalan Tun Ismail,Kuala Lumpur,KUL
50480,Jalan Tunku Dalam,Kuala Lumpur,KUL
50480,Jalan Tunku Genting,Kuala Lumpur,KUL
50480,Jalan Tunku Kanan,Kuala Lumpur,KUL
50480,Jalan Tunku Kiri,Kuala Lumpur,KUL
50480,Jalan Tunku Pertama,Kuala Lumpur,KUL
50480,Jalan Tunku Putera,Kuala Lumpur,KUL
50480,Jalan Tunku Putra,Kuala Lumpur,KUL
50480,Jalan Tunku Rendah,Kuala Lumpur,KUL
50480,Jalan Tunku Selatan,Kuala Lumpur,KUL
50480,Jalan Tunku Selekoh,Kuala Lumpur,KUL
50480,Jalan Tunku Tengah,Kuala Lumpur,KUL
50480,Jalan Tunku Tepi,Kuala Lumpur,KUL
50480,Jalan Tunku Timur,Kuala Lumpur,KUL
50480,Jalan Tunku Tinggi,Kuala Lumpur,KUL
50480,Jalan Tunku Utara,Kuala Lumpur,KUL
50480,Jalan Tunku,Kuala Lumpur,KUL
50480,Kampung Maxwell,Kuala Lumpur,KUL
50480,Kampung Pertanian,Kuala Lumpur,KUL
50480,Kelok Tunku,Kuala Lumpur,KUL
50480,Kiara Verve Suites,Kuala Lumpur,KUL
50480,Kiara View Sri Hartamas,Kuala Lumpur,KUL
50480,Kompleks Duta,Kuala Lumpur,KUL
50480,Kondominium Ceriaan Kiara,Kuala Lumpur,KUL
50480,Laman Tunku,Kuala Lumpur,KUL
50480,Langgak Tunku,Kuala Lumpur,KUL
50480,Lembah Duta,Kuala Lumpur,KUL
50480,Lengkongan Negeri Sembilan,Kuala Lumpur,KUL
50480,Liku Tunku,Kuala Lumpur,KUL
50480,Lingkungan DutaMas ,Kuala Lumpur,KUL
50480,Lingkungan Negeri Sembilan,Kuala Lumpur,KUL
50480,Lorong Bukit Kota,Kuala Lumpur,KUL
50480,Lorong Duta (1 - 5),Kuala Lumpur,KUL
50480,Lorong Kota (1 - 4),Kuala Lumpur,KUL
50480,Lorong Kota,Kuala Lumpur,KUL
50480,Lorong Lembah Tunku,Kuala Lumpur,KUL
50480,Lorong Nusa (1 - 2),Kuala Lumpur,KUL
50480,Lorong Semantan,Kuala Lumpur,KUL
50480,Lorong Tembusu Selatan,Kuala Lumpur,KUL
50480,Lorong Tembusu Utara,Kuala Lumpur,KUL
50480,Lorong Tinggian Tunku,Kuala Lumpur,KUL
50480,Lorong Travers,Kuala Lumpur,KUL
50480,Lorong Tun Ismail,Kuala Lumpur,KUL
50480,Lorong Tunku Bahagia,Kuala Lumpur,KUL
50480,Lorong Tunku Sentosa,Kuala Lumpur,KUL
50480,Lurah Tunku,Kuala Lumpur,KUL
50480,Memorial Tunku Abd Rahman,Kuala Lumpur,KUL
50480,Menara Majestic,Kuala Lumpur,KUL
50480,Mont Kiara,Kuala Lumpur,KUL
50480,Pangsapuri Casa Kiara 2,Kuala Lumpur,KUL
50480,Pangsapuri Gateway Kiaramas,Kuala Lumpur,KUL
50480,Pejabat Masjid Negara,Kuala Lumpur,KUL
50480,Pekarangan Tun Ismail,Kuala Lumpur,KUL
50480,Persiaran Bukit Tunku,Kuala Lumpur,KUL
50480,Persiaran Carruthers,Kuala Lumpur,KUL
50480,Persiaran Duta,Kuala Lumpur,KUL
50480,Persiaran Ledang,Kuala Lumpur,KUL
50480,Persiaran Mahameru,Kuala Lumpur,KUL
50480,Persiaran Negeri Sembilan,Kuala Lumpur,KUL
50480,Persiaran Sultan Salahuddin,Kuala Lumpur,KUL
50480,Persiaran Taman Tunku,Kuala Lumpur,KUL
50480,Persiaran Tun Ismail,Kuala Lumpur,KUL
50480,Pinggiran Tunku,Kuala Lumpur,KUL
50480,Putra World Trade Centre (PWTC),Kuala Lumpur,KUL
50480,Selekoh Tunku,Kuala Lumpur,KUL
50480,Simpang Natesa,Kuala Lumpur,KUL
50480,Simpang Nusa,Kuala Lumpur,KUL
50480,Simpang Tunku Putra,Kuala Lumpur,KUL
50480,Solaris Dutamas,Kuala Lumpur,KUL
50480,Solaris Mont Kiara,Kuala Lumpur,KUL
50480,Sri Hartamas,Kuala Lumpur,KUL
50480,Taman Seri Hartamas,Kuala Lumpur,KUL
50480,Taman Tunku,Kuala Lumpur,KUL
50480,Tepian Tunku,Kuala Lumpur,KUL
50480,Tijani 2 Bukit Tunku,Kuala Lumpur,KUL
50480,Wisma Tani,Kuala Lumpur,KUL
50480,Yayasan Dakwah Islamiah Malaysia,Kuala Lumpur,KUL
50490,Bangunan Exchange Square,Kuala Lumpur,KUL
50490,Commerce Square,Kuala Lumpur,KUL
50490,Damansara Indah Heights,Kuala Lumpur,KUL
50490,Jabatan Perkhidmatan Pembentungan ,Kuala Lumpur,KUL
50490,Jalan Balau,Kuala Lumpur,KUL
50490,Jalan Batai Barat,Kuala Lumpur,KUL
50490,Jalan Batai Tepi,Kuala Lumpur,KUL
50490,Jalan Batai Utara,Kuala Lumpur,KUL
50490,Jalan Batai,Kuala Lumpur,KUL
50490,Jalan Beka,Kuala Lumpur,KUL
50490,Jalan Belimbing,Kuala Lumpur,KUL
50490,Jalan Beluntas,Kuala Lumpur,KUL
50490,Jalan Beringin,Kuala Lumpur,KUL
50490,Jalan Beruas,Kuala Lumpur,KUL
50490,Jalan Birah,Kuala Lumpur,KUL
50490,Jalan Camperai,Kuala Lumpur,KUL
50490,Jalan Cempanai,Kuala Lumpur,KUL
50490,Jalan Changkat Semantan,Kuala Lumpur,KUL
50490,Jalan Chelagi,Kuala Lumpur,KUL
50490,Jalan Damanlela,Kuala Lumpur,KUL
50490,Jalan Damansara Indah,Kuala Lumpur,KUL
50490,Jalan Damansara Permai,Kuala Lumpur,KUL
50490,Jalan Damansara,Kuala Lumpur,KUL
50490,Jalan Derumum,Kuala Lumpur,KUL
50490,Jalan Dungun,Kuala Lumpur,KUL
50490,Jalan Gapis,Kuala Lumpur,KUL
50490,Jalan Gelenggang,Kuala Lumpur,KUL
50490,Jalan Jarak,Kuala Lumpur,KUL
50490,Jalan Jelutong,Kuala Lumpur,KUL
50490,Jalan Johar,Kuala Lumpur,KUL
50490,Jalan Kasah Dalam,Kuala Lumpur,KUL
50490,Jalan Kasah Tepi,Kuala Lumpur,KUL
50490,Jalan Kasah,Kuala Lumpur,KUL
50490,Jalan Kekabu,Kuala Lumpur,KUL
50490,Jalan Medan Setia,Kuala Lumpur,KUL
50490,Jalan Semantan (1 - 2),Kuala Lumpur,KUL
50490,Jalan Semantan,Kuala Lumpur,KUL
50490,Jalan Setiabakti (1 - 10),Kuala Lumpur,KUL
50490,Jalan Setiabakti,Kuala Lumpur,KUL
50490,Jalan Setiabistari (1 - 8),Kuala Lumpur,KUL
50490,Jalan Setiabistari,Kuala Lumpur,KUL
50490,Jalan Setiabudi,Kuala Lumpur,KUL
50490,Jalan Setiajasa,Kuala Lumpur,KUL
50490,Jalan Setiajaya,Kuala Lumpur,KUL
50490,Jalan Setiakasih (1 - 9),Kuala Lumpur,KUL
50490,Jalan Setiakasih,Kuala Lumpur,KUL
50490,Jalan Setiamurni (1 - 12),Kuala Lumpur,KUL
50490,Jalan Setiamurni,Kuala Lumpur,KUL
50490,Jalan Setiapuspa,Kuala Lumpur,KUL
50490,Jalan Setiarasa,Kuala Lumpur,KUL
50490,Jalan Setiaraya,Kuala Lumpur,KUL
50490,Jalan Teruntong,Kuala Lumpur,KUL
50490,Ketua Pengarah Jabatan Perkhidmatan Pembentungan,Kuala Lumpur,KUL
50490,Lengkok Setiabistari,Kuala Lumpur,KUL
50490,Lengkok Setiabudi,Kuala Lumpur,KUL
50490,Liku Bruas,Kuala Lumpur,KUL
50490,Lorong Basong,Kuala Lumpur,KUL
50490,Lorong Batai Barat,Kuala Lumpur,KUL
50490,Lorong Batai Dalam,Kuala Lumpur,KUL
50490,Lorong Batai Tepi,Kuala Lumpur,KUL
50490,Lorong Batai,Kuala Lumpur,KUL
50490,Lorong Beluntas (1 - 3),Kuala Lumpur,KUL
50490,Lorong Beluntas,Kuala Lumpur,KUL
50490,Lorong Beruas Kiri,Kuala Lumpur,KUL
50490,Lorong Beruas,Kuala Lumpur,KUL
50490,Lorong Chelagi,Kuala Lumpur,KUL
50490,Lorong Damansara Endah,Kuala Lumpur,KUL
50490,Lorong Derumun,Kuala Lumpur,KUL
50490,Lorong Dungun Kiri,Kuala Lumpur,KUL
50490,Lorong Dungun,Kuala Lumpur,KUL
50490,Lorong Gelenggang,Kuala Lumpur,KUL
50490,Lorong Jarak Kanan,Kuala Lumpur,KUL
50490,Lorong Jarak,Kuala Lumpur,KUL
50490,Lorong Jelutong Kanan,Kuala Lumpur,KUL
50490,Lorong Jelutong Kiri,Kuala Lumpur,KUL
50490,Lorong Jelutong,Kuala Lumpur,KUL
50490,Lorong Kasah Dalam,Kuala Lumpur,KUL
50490,Lorong Kasah Tepi,Kuala Lumpur,KUL
50490,Lorong Kekabu,Kuala Lumpur,KUL
50490,Lorong Mempoyan,Kuala Lumpur,KUL
50490,Lorong Setiabistari (1 - 8),Kuala Lumpur,KUL
50490,Lorong Setiabistari,Kuala Lumpur,KUL
50490,Lorong Setiabudi,Kuala Lumpur,KUL
50490,Lorong Setiajasa (1 - 5),Kuala Lumpur,KUL
50490,Lorong Setiajasa (1 - 6),Kuala Lumpur,KUL
50490,Lorong Setiapuspa (1 - 4),Kuala Lumpur,KUL
50490,Lorong Setiarasa,Kuala Lumpur,KUL
50490,Medan Setia,Kuala Lumpur,KUL
50490,Menara SBP,Kuala Lumpur,KUL
50490,Persiaran Basong,Kuala Lumpur,KUL
50490,Persiaran Batai Barat,Kuala Lumpur,KUL
50490,Persiaran Batai Dalam,Kuala Lumpur,KUL
50490,Persiaran Batai Tepi,Kuala Lumpur,KUL
50490,Persiaran Batai Utara,Kuala Lumpur,KUL
50490,Persiaran Batai,Kuala Lumpur,KUL
50490,Persiaran Beringin,Kuala Lumpur,KUL
50490,Persiaran Beruas,Kuala Lumpur,KUL
50490,Persiaran Damansara Endah,Kuala Lumpur,KUL
50490,Persiaran Derumun,Kuala Lumpur,KUL
50490,Persiaran Gapis,Kuala Lumpur,KUL
50490,Persiaran Jelutong,Kuala Lumpur,KUL
50490,Pusat Bandar Damansara,Kuala Lumpur,KUL
50490,Seri Beringin,Kuala Lumpur,KUL
50490,Taman Bukit Damansara,Kuala Lumpur,KUL
50490,Wisma Damansara,Kuala Lumpur,KUL
50490,Wisma Semantan,Kuala Lumpur,KUL
50500,Istana Negara,Kuala Lumpur,KUL
50502,Bahagian Kawal Selia Penyelenggaraan Pejabat Pengurus Bangunan,Kuala Lumpur,KUL
50502,Majlis Keselamatan Negara Wilayah Persekutuan,Kuala Lumpur,KUL
50502,Pejabat Pembangunan Wilayah Persekutuan,Kuala Lumpur,KUL
50504,Biro Bantuan Guaman Wilayah Persekutuan,Kuala Lumpur,KUL
50505,Biro Pengaduan Awam Wilayah Persekutuan ,Kuala Lumpur,KUL
50506,Mahkamah Persekutuan Kuala Lumpur,Kuala Lumpur,KUL
50506,"Mahkamah Seksyen, Majistret dan Rendah Kuala Lumpur",Kuala Lumpur,KUL
50506,Mahkamah Tinggi Kuala Lumpur,Kuala Lumpur,KUL
50507,Institut Tadbiran Awam Negara (INTAN),Kuala Lumpur,KUL
50508,Amanah Raya Berhad,Kuala Lumpur,KUL
50508,Pertubuhan Keselamatan Sosial (Perkeso),Kuala Lumpur,KUL
50512,Jabatan Peguam Negara,Kuala Lumpur,KUL
50514,Jabatan Perangkaan Malaysia Wilayah Persekutuan,Kuala Lumpur,KUL
50515,Jabatan Pembangunan Wanita (HAWA),Kuala Lumpur,KUL
50519,Jabatan Mufti Wilayah Persekutuan,Kuala Lumpur,KUL
50528,Tribunal Perkhidmatan Awam,Kuala Lumpur,KUL
50529,Unit Penyelidikan Sosio Ekonomi,Kuala Lumpur,KUL
50530,Perbadanan Tabung Pembangunan Kemahiran,Kuala Lumpur,KUL
50532,Jabatan Tenaga Kerja,Kuala Lumpur,KUL
50534,Jabatan Keselamatan dan Kesihatan Pekerja (OSHA),Kuala Lumpur,KUL
50536,Jabatan Perhubungan Perusahaan,Kuala Lumpur,KUL
50540,Jabatan Tenaga Rakyat,Kuala Lumpur,KUL
50544,Mahkamah Perusahaan,Kuala Lumpur,KUL
50546,Agensi Anti Dadah Kebangsaan Wilayah Persekutuan,Kuala Lumpur,KUL
50548,Jabatan Hal Ehwal Orang Asli,Kuala Lumpur,KUL
50550,Jabatan Imigresen,Kuala Lumpur,KUL
50551,Jabatan Pendaftaran Negara,Kuala Lumpur,KUL
50552,Jabatan Pendaftar Pertubuhan,Kuala Lumpur,KUL
50554,Percetakan Nasional Berhad,Kuala Lumpur,KUL
50556,Jabatan Pertahanan Awam,Kuala Lumpur,KUL
50560,Ibu Pejabat Polis Dang Wangi Kuala Lumpur,Kuala Lumpur,KUL
50560,Ketua Cawangan Trafik Kuala Lumpur,Kuala Lumpur,KUL
50560,Ketua Polis Kuala Lumpur,Kuala Lumpur,KUL
50560,Ketua Polis Negara,Kuala Lumpur,KUL
50560,Pengarah Jabatan Siasatan Jenayah Komersil Bukit Aman,Kuala Lumpur,KUL
50560,Pengurusan Pentadbiran Pusat Pendaftaran Polis Diraja Malaysia,Kuala Lumpur,KUL
50562,Kementerian Pembangunan Wanita Keluarga & Masyarakat ,Kuala Lumpur,KUL
50564,Jabatan KebajIkan Masyarakat,Kuala Lumpur,KUL
50566,Jabatan Muzium dan Antikuiti,Kuala Lumpur,KUL
50568,Arkib Negara Malaysia,Kuala Lumpur,KUL
50572,Perpustakaan Negara Malaysia,Kuala Lumpur,KUL
50576,Jabatan Tanah & Galian,Kuala Lumpur,KUL
50578,Jabatan Ukur & Pemetaan,Kuala Lumpur,KUL
50580,Kementerian Kerja Raya ,Kuala Lumpur,KUL
50582,Cawangan Kejuruteraan Jalan & Geoteknik,Kuala Lumpur,KUL
50582,Jabatan Kerja Raya ,Kuala Lumpur,KUL
50582,Ketua Jurutera Mekanikal JKR Workshop Persekutuan Kuala Lumpur,Kuala Lumpur,KUL
50582,Pejabat Ketua Pengarah Kerja Raya Malaysia,Kuala Lumpur,KUL
50582,Pengarah JKR Wilayah Persekutuan Kuala Lumpur,Kuala Lumpur,KUL
50586,Hospital Kuala Lumpur,Kuala Lumpur,KUL
50588,Institut Penyelidikan Perubatan (IMR),Kuala Lumpur,KUL
50590,"Bahagian Pembangunan Kompetensi, Kementerian Kesihatan",Kuala Lumpur,KUL
50590,Bahagian Pengurusan Latihan Kementerian Kesihatan Malaysia,Kuala Lumpur,KUL
50590,Bahagian Perubatan Tradisional & Komplementari,Kuala Lumpur,KUL
50590,Bahagian Promosi Kesihatan Kementerian Kesihatan Malaysia,Kuala Lumpur,KUL
50590,Institut Kesihatan Umum,Kuala Lumpur,KUL
50590,Institut Perubatan Respiratori Hospital Kuala Lumpur,Kuala Lumpur,KUL
50590,Malaysia Medical Council (Unit Etika) ,Kuala Lumpur,KUL
50590,Poliklinik Komuniti Tanglin Kuala Lumpur,Kuala Lumpur,KUL
50592,Bahagian Pinjaman Perumahan Perbendaharaan Malaysia,Kuala Lumpur,KUL
50592,Jabatan Penilaian dan Perkhidmatan Harta Wilayah Persekutuan ,Kuala Lumpur,KUL
50594,Bahagian Pengurusan Amanah dan Sekuriti Jabatan Akauntan Negara,Kuala Lumpur,KUL
50594,Pendaftar Wang Tak di Tuntut,Kuala Lumpur,KUL
50596,Jabatan Kastam & Eksais Di Raja,Kuala Lumpur,KUL
50598,Kumpulan Wang Simpanan Pekerja,Kuala Lumpur,KUL
50599,Pesurahjaya Khas Cukai Pendapatan,Kuala Lumpur,KUL
50600,Lembaga Hasil Dalam Negeri Cawangan Cheras,Kuala Lumpur,KUL
50600,Lembaga Hasil Dalam Negeri Cawangan Wangsa Maju,Kuala Lumpur,KUL
50600,Lembaga Hasil Dalam Negeri,Kuala Lumpur,KUL
50603,Universiti Malaya,Kuala Lumpur,KUL
50604,"Bahagian Audit Sekolah, Kementerian Pelajaran Malaysia",Kuala Lumpur,KUL
50604,Bahagian Teknologi Pendidikan ,Kuala Lumpur,KUL
50604,Jabatan Pelajaran Wilayah Persekutuan,Kuala Lumpur,KUL
50605,"Lembaga Peperiksaan Malaysia, Kementerian Pelajaran Malaysia",Kuala Lumpur,KUL
50608,Jabatan Pembangunan Koperasi,Kuala Lumpur,KUL
50609,Majlis Amanah Rakyat,Kuala Lumpur,KUL
50610,"Kementerian Penerangan, Komunikasi Dan Kebudayaan (KPKK)",Kuala Lumpur,KUL
50612,Jabatan Penerangan,Kuala Lumpur,KUL
50614,Jabatan Penyiaran,Kuala Lumpur,KUL
50620,"Bahagian Teknologi Maklumat, Ibu Pejabat Jabatan Pengangkutan Jalan",Kuala Lumpur,KUL
50620,Jabatan Keretapi Malaysia,Kuala Lumpur,KUL
50620,Jabatan Pengangkutan Jalan Wilayah Persekutuan,Kuala Lumpur,KUL
50621,Pentadbiran Keretapi Tanah Melayu,Kuala Lumpur,KUL
50622,Kementerian Perdagangan Antarabangsa dan Industri,Kuala Lumpur,KUL
50623,Jabatan Perdagangan Dalam Negeri dan Hal Ehwal Pengguna ,Kuala Lumpur,KUL
50623,Perbadanan Harta Intelek Malaysia,Kuala Lumpur,KUL
50623,Suruhanjaya Syarikat Malaysia,Kuala Lumpur,KUL
50623,Tribunal Tuntutan Pengguna Malaysia Kuala Lumpur,Kuala Lumpur,KUL
50626,Jabatan Pengairan & Saliran,Kuala Lumpur,KUL
50632,Bahagian Pengurusan dan Pemuliharaan Sumber Tanah Jabatan Pertanian,Kuala Lumpur,KUL
50632,Lembaga Perlindungan dan Kuarantin Tumbuhan Jabatan Pertanian ,Kuala Lumpur,KUL
50634,Jabatan Khidmat Negara,Kuala Lumpur,KUL
50634,Kementerian Pertahanan,Kuala Lumpur,KUL
50634,Panglima Angkatan Tentera ,Kuala Lumpur,KUL
50636,Jabatan Ketua Hakim,Kuala Lumpur,KUL
50638,Kementerian Pertahanan - Bahagian Audit,Kuala Lumpur,KUL
50640,Kementerian Pertahanan - Bahagian Audit Dalam,Kuala Lumpur,KUL
50642,Pusat PenyelidIkan Pertahanan,Kuala Lumpur,KUL
50644,Kementerian Perumahan dan Kerajaan Tempatan,Kuala Lumpur,KUL
50644,Ketua Pengarah Kerajaan Tempatan,Kuala Lumpur,KUL
50646,Jabatan Perancangan Bandar & Desa,Kuala Lumpur,KUL
50648,Jabatan Bomba & Penyelamat,Kuala Lumpur,KUL
50650,Jabatan Perumahan Negara,Kuala Lumpur,KUL
50652,Yayasan Tekun Nasional Cawangan Ampang,Kuala Lumpur,KUL
50653,Lembaga Pelesenan Pengangkutan Jalan,Kuala Lumpur,KUL
50656,Jabatan Galian,Kuala Lumpur,KUL
50658,Jabatan Mineral dan Geosains Malaysia,Kuala Lumpur,KUL
50660,Jabatan Perhutanan Malaysia,Kuala Lumpur,KUL
50661,Padi & Beras Nasional (Bernas),Kuala Lumpur,KUL
50662,Pegawai Khidmat Pelanggan Pusat Sains Negara,Kuala Lumpur,KUL
50664,Jabatan Perlindungan Hidupan Liar & Taman Negara,Kuala Lumpur,KUL
50666,Majlis PenyelidIkan & Kemajuan Sains Negara,Kuala Lumpur,KUL
50668,Jabatan Perkhidmatan Pembentungan ,Kuala Lumpur,KUL
50670,Pos Malaysia Berhad,Kuala Lumpur,KUL
50672,Telekom Malaysia Berhad,Kuala Lumpur,KUL
50673,Tenaga Nasional Berhad,Kuala Lumpur,KUL
50676,Jabatan Agama Islam Wilayah Persekutuan,Kuala Lumpur,KUL
50676,Pusat Pungutan Zakat,Kuala Lumpur,KUL
50677,Mahkamah Syariah Wilayah Persekutuan,Kuala Lumpur,KUL
50678,Jabatan Tanah dan Galian Wilayah Persekutuan,Kuala Lumpur,KUL
50680,Parlimen Malaysia,Kuala Lumpur,KUL
50682,Penyimpan Mohor Besar Raja-Raja,Kuala Lumpur,KUL
50684,Suruhanjaya Perkhidmatan Polis,Kuala Lumpur,KUL
50688,Suruhanjaya Keretapi Tanah Melayu,Kuala Lumpur,KUL
50694,Istana Budaya,Kuala Lumpur,KUL
50694,Kementerian Kebudayaan Kesenian dan Warisan,Kuala Lumpur,KUL
50694,Kementerian Pelancongan,Kuala Lumpur,KUL
50700,Kuala Lumpur - Peti surat 10001 - 10026,Kuala Lumpur,KUL
50700,Kuala Lumpur - Peti surat 10028 - 10045,Kuala Lumpur,KUL
50702,Kuala Lumpur - Peti surat 10046 - 10048,Kuala Lumpur,KUL
50704,Kuala Lumpur - Peti surat 10050 - 10107,Kuala Lumpur,KUL
50704,Kuala Lumpur - Peti surat 10109 - 10111,Kuala Lumpur,KUL
50704,Kuala Lumpur - Peti surat 10113 - 10134,Kuala Lumpur,KUL
50704,Kuala Lumpur - Peti surat 10135,Kuala Lumpur,KUL
50704,Kuala Lumpur - Peti surat 10136 - 10143,Kuala Lumpur,KUL
50704,Kuala Lumpur - Peti surat 10146 - 10149,Kuala Lumpur,KUL
50704,Kuala Lumpur - Peti surat 10151 - 10156,Kuala Lumpur,KUL
50704,Kuala Lumpur - Peti surat 10158 - 10165,Kuala Lumpur,KUL
50706,Kuala Lumpur - Peti surat 10166 - 10186,Kuala Lumpur,KUL
50706,Kuala Lumpur - Peti surat 10188 - 10196,Kuala Lumpur,KUL
50706,Kuala Lumpur - Peti surat 10198 - 10225,Kuala Lumpur,KUL
50708,Kuala Lumpur - Peti surat 10226 - 10243,Kuala Lumpur,KUL
50708,Kuala Lumpur - Peti surat 10245 - 10285,Kuala Lumpur,KUL
50710,Kuala Lumpur - Peti surat 10286 - 10345,Kuala Lumpur,KUL
50712,Kuala Lumpur - Peti surat 10346 - 10406,Kuala Lumpur,KUL
50712,Kuala Lumpur - Peti surat 10408 - 10413,Kuala Lumpur,KUL
50712,Kuala Lumpur - Peti surat 10415 - 10435,Kuala Lumpur,KUL
50714,Kuala Lumpur - Peti surat 10436 - 10458,Kuala Lumpur,KUL
50714,Kuala Lumpur - Peti surat 10460 - 10495,Kuala Lumpur,KUL
50716,Kuala Lumpur - Peti surat 10496 - 10538,Kuala Lumpur,KUL
50716,Kuala Lumpur - Peti surat 10540 - 10555,Kuala Lumpur,KUL
50718,Kuala Lumpur - Peti surat 10577 - 10615,Kuala Lumpur,KUL
50720,Kuala Lumpur - Peti surat 10616 - 10628,Kuala Lumpur,KUL
50720,Kuala Lumpur - Peti surat 10630 - 10666,Kuala Lumpur,KUL
50720,Kuala Lumpur - Peti surat 10668 - 10670,Kuala Lumpur,KUL
50720,Kuala Lumpur - Peti surat 10672 - 10675,Kuala Lumpur,KUL
50722,Kuala Lumpur - Peti surat 10676 - 10683,Kuala Lumpur,KUL
50722,Kuala Lumpur - Peti surat 10686 - 10733,Kuala Lumpur,KUL
50722,Kuala Lumpur - Peti surat 10735,Kuala Lumpur,KUL
50724,Kuala Lumpur - Peti surat 10736 - 10767,Kuala Lumpur,KUL
50724,Kuala Lumpur - Peti surat 10769 - 10795,Kuala Lumpur,KUL
50726,Kuala Lumpur - Peti surat 10796 - 10798,Kuala Lumpur,KUL
50726,Kuala Lumpur - Peti surat 10800 - 10802,Kuala Lumpur,KUL
50726,Kuala Lumpur - Peti surat 10804 - 10845,Kuala Lumpur,KUL
50726,Kuala Lumpur - Peti surat 10847 - 10855,Kuala Lumpur,KUL
50728,Kuala Lumpur - Peti surat 10856 - 10889,Kuala Lumpur,KUL
50728,Kuala Lumpur - Peti surat 10891 - 10915,Kuala Lumpur,KUL
50730,Kuala Lumpur - Peti surat 10916 - 10921,Kuala Lumpur,KUL
50730,Kuala Lumpur - Peti surat 10923 - 10936,Kuala Lumpur,KUL
50730,Kuala Lumpur - Peti surat 10938 - 10958,Kuala Lumpur,KUL
50730,Kuala Lumpur - Peti surat 10960 - 10975,Kuala Lumpur,KUL
50732,Kuala Lumpur - Peti surat 10976 - 10978,Kuala Lumpur,KUL
50732,Kuala Lumpur - Peti surat 10980 - 10996,Kuala Lumpur,KUL
50732,Kuala Lumpur - Peti surat 10998 - 11035,Kuala Lumpur,KUL
50734,Kuala Lumpur - Peti surat 11036 - 11095,Kuala Lumpur,KUL
50736,Kuala Lumpur - Peti surat 11096 - 11155,Kuala Lumpur,KUL
50738,Kuala Lumpur - Peti surat 11156 - 11215,Kuala Lumpur,KUL
50740,Kuala Lumpur - Peti surat 11216 - 11305,Kuala Lumpur,KUL
50742,Kuala Lumpur - Peti surat 11306 - 11365,Kuala Lumpur,KUL
50744,Kuala Lumpur - Peti surat 11366 - 11425,Kuala Lumpur,KUL
50746,Kuala Lumpur - Peti surat 11426 - 11485,Kuala Lumpur,KUL
50748,Kuala Lumpur - Peti surat 11486 - 11545,Kuala Lumpur,KUL
50750,Kuala Lumpur - Peti surat 11546 - 11605,Kuala Lumpur,KUL
50752,Kuala Lumpur - Peti surat 11606 - 11665,Kuala Lumpur,KUL
50754,Kuala Lumpur - Peti surat 11666 - 11725,Kuala Lumpur,KUL
50758,Kuala Lumpur - Peti surat 11726 - 11785,Kuala Lumpur,KUL
50758,Kuala Lumpur - Peti surat 11786 - 11845,Kuala Lumpur,KUL
50760,Kuala Lumpur - Peti surat 11846 - 11905,Kuala Lumpur,KUL
50762,Kuala Lumpur - Peti surat 11906 - 11965,Kuala Lumpur,KUL
50764,Kuala Lumpur - Peti surat 11966 - 12004,Kuala Lumpur,KUL
50764,Kuala Lumpur - Peti surat 12007 - 12009,Kuala Lumpur,KUL
50764,Kuala Lumpur - Peti surat 12011 - 12025,Kuala Lumpur,KUL
50766,Kuala Lumpur - Peti surat 12026 - 12034,Kuala Lumpur,KUL
50766,Kuala Lumpur - Peti surat 12036 - 12081,Kuala Lumpur,KUL
50766,Kuala Lumpur - Peti surat 12083 - 12085,Kuala Lumpur,KUL
50768,Kuala Lumpur - Peti surat 12086 - 12109,Kuala Lumpur,KUL
50768,Kuala Lumpur - Peti surat 12111 - 12175,Kuala Lumpur,KUL
50770,Kuala Lumpur - Peti surat 12176 - 12214,Kuala Lumpur,KUL
50770,Kuala Lumpur - Peti surat 12216 - 12224,Kuala Lumpur,KUL
50770,Kuala Lumpur - Peti surat 12226,Kuala Lumpur,KUL
50770,Kuala Lumpur - Peti surat 12228 - 12230,Kuala Lumpur,KUL
50770,Kuala Lumpur - Peti surat 12232 - 12235,Kuala Lumpur,KUL
50772,Kuala Lumpur - Peti surat 12236 - 12295,Kuala Lumpur,KUL
50774,Kuala Lumpur - Peti surat 12296 - 12355,Kuala Lumpur,KUL
50776,Kuala Lumpur - Peti surat 12356 - 12404,Kuala Lumpur,KUL
50776,Kuala Lumpur - Peti surat 12406 - 12415,Kuala Lumpur,KUL
50778,Kuala Lumpur - Peti surat 12416 - 12442,Kuala Lumpur,KUL
50778,Kuala Lumpur - Peti surat 12444 - 12475,Kuala Lumpur,KUL
50780,Kuala Lumpur - Peti surat 12476 - 12491,Kuala Lumpur,KUL
50780,Kuala Lumpur - Peti surat 12493 - 12535,Kuala Lumpur,KUL
50782,Jabatan Perumahan dan Kerajaan Tempatan,Kuala Lumpur,KUL
50782,Kuala Lumpur - Peti surat 12536 - 12541,Kuala Lumpur,KUL
50784,Kuala Lumpur - Peti surat 12596 - 12647,Kuala Lumpur,KUL
50786,Kuala Lumpur - Peti surat 12649 - 12658,Kuala Lumpur,KUL
50786,Kuala Lumpur - Peti surat 12660 - 12689,Kuala Lumpur,KUL
50786,Kuala Lumpur - Peti surat 12691 - 12715,Kuala Lumpur,KUL
50788,Kuala Lumpur - Peti surat 12716 - 12775,Kuala Lumpur,KUL
50790,Kuala Lumpur - Peti surat 12776 - 12835,Kuala Lumpur,KUL
50792,Kuala Lumpur - Peti surat 12543 - 12595,Kuala Lumpur,KUL
50792,Kuala Lumpur - Peti surat 12836 - 12925,Kuala Lumpur,KUL
50794,Kuala Lumpur - Peti surat 12926 - 12985,Kuala Lumpur,KUL
50796,Kuala Lumpur - Peti surat 12986 - 13045,Kuala Lumpur,KUL
50798,Kuala Lumpur - Peti surat 13046 - 13105,Kuala Lumpur,KUL
50800,Kuala Lumpur - Peti surat 13106 - 13165,Kuala Lumpur,KUL
50802,Kuala Lumpur - Peti surat 13166 - 13225,Kuala Lumpur,KUL
50804,Kuala Lumpur - Peti surat 13226 - 13285,Kuala Lumpur,KUL
50806,Kuala Lumpur - Peti surat 13286 - 13345,Kuala Lumpur,KUL
50808,Kuala Lumpur - Peti surat 13346 - 13405,Kuala Lumpur,KUL
50810,Kuala Lumpur - Peti surat 13406 - 13465,Kuala Lumpur,KUL
50812,Kuala Lumpur - Peti surat 13466 - 13525,Kuala Lumpur,KUL
50814,Kuala Lumpur - Peti surat 13526 - 13585,Kuala Lumpur,KUL
50816,Kuala Lumpur - Peti surat 13586 - 13645,Kuala Lumpur,KUL
50818,Kuala Lumpur - Peti surat 13646,Kuala Lumpur,KUL
50901,Kuala Lumpur - Peti surat 10027,Kuala Lumpur,KUL
50902,Kuala Lumpur - Peti surat 10049,Kuala Lumpur,KUL
50903,Kuala Lumpur - Peti surat 10108,Kuala Lumpur,KUL
50904,Kuala Lumpur - Peti surat 10112,Kuala Lumpur,KUL
50906,Kuala Lumpur - Peti surat 10144,Kuala Lumpur,KUL
50907,Kuala Lumpur - Peti surat 10145,Kuala Lumpur,KUL
50908,Kuala Lumpur - Peti surat 10150,Kuala Lumpur,KUL
50909,Kuala Lumpur - Peti surat 10157,Kuala Lumpur,KUL
50910,Kuala Lumpur - Peti surat 10187,Kuala Lumpur,KUL
50911,Kuala Lumpur - Peti surat 10197,Kuala Lumpur,KUL
50912,Kuala Lumpur - Peti surat 10244,Kuala Lumpur,KUL
50913,Kuala Lumpur - Peti surat 10407,Kuala Lumpur,KUL
50914,Kuala Lumpur - Peti surat 10414,Kuala Lumpur,KUL
50915,Kuala Lumpur - Peti surat 10459,Kuala Lumpur,KUL
50916,Kuala Lumpur - Peti surat 10539,Kuala Lumpur,KUL
50917,Kuala Lumpur - Peti surat 10594,Kuala Lumpur,KUL
50918,Kuala Lumpur - Peti surat 10629,Kuala Lumpur,KUL
50919,Kuala Lumpur - Peti surat 10667,Kuala Lumpur,KUL
50920,Kuala Lumpur - Peti surat 10671,Kuala Lumpur,KUL
50921,Kuala Lumpur - Peti surat 10684,Kuala Lumpur,KUL
50922,Kuala Lumpur - Peti surat 10685,Kuala Lumpur,KUL
50923,Kuala Lumpur - Peti surat 10734,Kuala Lumpur,KUL
50924,Kuala Lumpur - Peti surat 10768,Kuala Lumpur,KUL
50925,Kuala Lumpur - Peti surat 10799,Kuala Lumpur,KUL
50926,Kuala Lumpur - Peti surat 10803,Kuala Lumpur,KUL
50927,Kuala Lumpur - Peti surat 10846,Kuala Lumpur,KUL
50928,Kuala Lumpur - Peti surat 10890,Kuala Lumpur,KUL
50929,Kuala Lumpur - Peti surat 10922,Kuala Lumpur,KUL
50930,Kuala Lumpur - Peti surat 10937,Kuala Lumpur,KUL
50931,Kuala Lumpur - Peti surat 10959,Kuala Lumpur,KUL
50932,Kuala Lumpur - Peti surat 10979,Kuala Lumpur,KUL
50933,Kuala Lumpur - Peti surat 10997,Kuala Lumpur,KUL
50934,Kuala Lumpur - Peti surat 12005,Kuala Lumpur,KUL
50935,Kuala Lumpur - Peti surat 12006,Kuala Lumpur,KUL
50936,Kuala Lumpur - Peti surat 12010,Kuala Lumpur,KUL
50937,Kuala Lumpur - Peti surat 12035,Kuala Lumpur,KUL
50938,Kuala Lumpur - Peti surat 12082,Kuala Lumpur,KUL
50939,Kuala Lumpur - Peti surat 12110,Kuala Lumpur,KUL
50940,Kuala Lumpur - Peti surat 12215,Kuala Lumpur,KUL
50941,Kuala Lumpur - Peti surat 12225,Kuala Lumpur,KUL
50942,Kuala Lumpur - Peti surat 12227,Kuala Lumpur,KUL
50943,Kuala Lumpur - Peti surat 12231,Kuala Lumpur,KUL
50944,Kuala Lumpur - Peti surat 12405,Kuala Lumpur,KUL
50945,Kuala Lumpur - Peti surat 12443,Kuala Lumpur,KUL
50946,Kuala Lumpur - Peti surat 12492,Kuala Lumpur,KUL
50947,Kuala Lumpur - Peti surat 12542,Kuala Lumpur,KUL
50948,Kuala Lumpur - Peti surat 12648,Kuala Lumpur,KUL
50949,Kuala Lumpur - Peti surat 12659,Kuala Lumpur,KUL
50950,Kuala Lumpur - Peti surat 12690,Kuala Lumpur,KUL
50988,Badan Pencegah Rasuah,Kuala Lumpur,KUL
50988,Kuala Lumpur - Peti surat 6000,Kuala Lumpur,KUL
50989,Kuala Lumpur - Peti surat 8000,Kuala Lumpur,KUL
50990,Kuala Lumpur - Beg berkunci,Kuala Lumpur,KUL
51000,Ampat Tin,Kuala Lumpur,KUL
51000,Bandar Baru Sentul,Kuala Lumpur,KUL
51000,Bandar Sentul Utama,Kuala Lumpur,KUL
51000,Jalan 1/48A,Kuala Lumpur,KUL
51000,Jalan 11 (Sentul),Kuala Lumpur,KUL
51000,Jalan 13 (Sentul),Kuala Lumpur,KUL
51000,Jalan 14 (Sentul),Kuala Lumpur,KUL
51000,Jalan 15 (Sentul),Kuala Lumpur,KUL
51000,Jalan 16 (Sentul),Kuala Lumpur,KUL
51000,Jalan 3/48A,Kuala Lumpur,KUL
51000,Jalan 5 (Sentul),Kuala Lumpur,KUL
51000,Jalan 6 (Sentul),Kuala Lumpur,KUL
51000,Jalan 7 (Sentul),Kuala Lumpur,KUL
51000,Jalan Dato Senu 26,Kuala Lumpur,KUL
51000,Jalan Kampung Bandar Dalam,Kuala Lumpur,KUL
51000,Jalan Pusing,Kuala Lumpur,KUL
51000,Jalan Sentul Indah,Kuala Lumpur,KUL
51000,Jalan Sentul Jaya,Kuala Lumpur,KUL
51000,Jalan Sentul Manis,Kuala Lumpur,KUL
51000,Jalan Sentul Murni,Kuala Lumpur,KUL
51000,Jalan Sentul Pasar,Kuala Lumpur,KUL
51000,Jalan Sentul Permai,Kuala Lumpur,KUL
51000,Jalan Sentul,Kuala Lumpur,KUL
51000,Jalan Tanah Lapang,Kuala Lumpur,KUL
51000,Kampung Bandar Dalam,Kuala Lumpur,KUL
51000,Kampung Chempedak,Kuala Lumpur,KUL
51000,Kampung Chubadak,Kuala Lumpur,KUL
51000,Kampung Padang Balang,Kuala Lumpur,KUL
51000,Kampung Puah Seberang,Kuala Lumpur,KUL
51000,Kampung Selasih,Kuala Lumpur,KUL
51000,Lorong 5 (Sentul),Kuala Lumpur,KUL
51000,Lorong 6 (Sentul),Kuala Lumpur,KUL
51000,Lorong Sentul Indah,Kuala Lumpur,KUL
51000,Menara Orkid,Kuala Lumpur,KUL
51000,Persiaran Sentul Indah,Kuala Lumpur,KUL
51000,Rumah Pangsa Sri Perak,Kuala Lumpur,KUL
51000,Taman Dato Senu,Kuala Lumpur,KUL
51000,Taman Datuk Senu,Kuala Lumpur,KUL
51000,Taman Pelangi Jaya,Kuala Lumpur,KUL
51000,Taman Pelangi,Kuala Lumpur,KUL
51000,Taman Sentul Jaya,Kuala Lumpur,KUL
51100,Batu Settlement,Kuala Lumpur,KUL
51100,Jalan Balam,Kuala Lumpur,KUL
51100,Jalan Bayan,Kuala Lumpur,KUL
51100,Jalan Berkok,Kuala Lumpur,KUL
51100,Jalan Chempedak,Kuala Lumpur,KUL
51100,Jalan Cumarasami,Kuala Lumpur,KUL
51100,Jalan Delapan,Kuala Lumpur,KUL
51100,Jalan Gerik,Kuala Lumpur,KUL
51100,Jalan Gopeng,Kuala Lumpur,KUL
51100,Jalan Gunong Semanggul,Kuala Lumpur,KUL
51100,Jalan Haji Salleh,Kuala Lumpur,KUL
51100,Jalan Kangsar,Kuala Lumpur,KUL
51100,Jalan Kedidi,Kuala Lumpur,KUL
51100,Jalan Khalsa,Kuala Lumpur,KUL
51100,Jalan Kovil Hilir,Kuala Lumpur,KUL
51100,Jalan Kovil Ulu,Kuala Lumpur,KUL
51100,Jalan Krian (1 & 2),Kuala Lumpur,KUL
51100,Jalan Krian,Kuala Lumpur,KUL
51100,Jalan Kuini,Kuala Lumpur,KUL
51100,Jalan Lapan,Kuala Lumpur,KUL
51100,Jalan Latihan,Kuala Lumpur,KUL
51100,Jalan Lenggong (1 & 2),Kuala Lumpur,KUL
51100,Jalan Lenggong,Kuala Lumpur,KUL
51100,Jalan Merak,Kuala Lumpur,KUL
51100,Jalan Nangka,Kuala Lumpur,KUL
51100,Jalan Nuri,Kuala Lumpur,KUL
51100,Jalan Pelangi 15,Kuala Lumpur,KUL
51100,Jalan Perhentian,Kuala Lumpur,KUL
51100,Jalan Pipit,Kuala Lumpur,KUL
51100,Jalan Punggok,Kuala Lumpur,KUL
51100,Jalan Puyoh,Kuala Lumpur,KUL
51100,Jalan Selama (1 - 3),Kuala Lumpur,KUL
51100,Jalan Selama,Kuala Lumpur,KUL
51100,Jalan Sembilan,Kuala Lumpur,KUL
51100,Jalan Sentul Bahagia,Kuala Lumpur,KUL
51100,Jalan Sentul Indah,Kuala Lumpur,KUL
51100,Jalan Sentul Jaya (1 - 2),Kuala Lumpur,KUL
51100,Jalan Sentul Maju,Kuala Lumpur,KUL
51100,Jalan Sentul Sehaluan,Kuala Lumpur,KUL
51100,Jalan Sentul Sempadan,Kuala Lumpur,KUL
51100,Jalan Sepuloh (Sentul),Kuala Lumpur,KUL
51100,Jalan Serindit,Kuala Lumpur,KUL
51100,Jalan St Thomas,Kuala Lumpur,KUL
51100,Jalan Strachan,Kuala Lumpur,KUL
51100,Jalan Sukun,Kuala Lumpur,KUL
51100,Jalan Sungkai,Kuala Lumpur,KUL
51100,Jalan Tapah,Kuala Lumpur,KUL
51100,Jalan Terap,Kuala Lumpur,KUL
51100,Jalan Terkukor,Kuala Lumpur,KUL
51100,Jalan Union (1 - 5),Kuala Lumpur,KUL
51100,Jalan Union,Kuala Lumpur,KUL
51100,Jalan Vethavanam,Kuala Lumpur,KUL
51100,Kampung Batu Muda Tambahan,Kuala Lumpur,KUL
51100,Kampung Batu Muda,Kuala Lumpur,KUL
51100,Kampung Lower Kovil,Kuala Lumpur,KUL
51100,Kampung Medan Batu Muda,Kuala Lumpur,KUL
51100,Kampung Medan Batu Utama,Kuala Lumpur,KUL
51100,Kampung Ratnam Pillay,Kuala Lumpur,KUL
51100,Kampung Seri Batu,Kuala Lumpur,KUL
51100,Lengkok Cumarasami,Kuala Lumpur,KUL
51100,Lengkok Vethavanam,Kuala Lumpur,KUL
51100,Lorong Balam,Kuala Lumpur,KUL
51100,Lorong Grik,Kuala Lumpur,KUL
51100,Lorong Lenggong (1 - 2),Kuala Lumpur,KUL
51100,Lorong Sentul Bahagia (1 - 9),Kuala Lumpur,KUL
51100,Lorong Sentul Kechil,Kuala Lumpur,KUL
51100,Lorong Sentul Maju 1,Kuala Lumpur,KUL
51100,Lorong Sentul Pasar,Kuala Lumpur,KUL
51100,Lorong Sentul Sahaluan,Kuala Lumpur,KUL
51100,Lorong Tapah,Kuala Lumpur,KUL
51100,Million Settlement,Kuala Lumpur,KUL
51100,Perumahan Million,Kuala Lumpur,KUL
51100,Taman Eastern,Kuala Lumpur,KUL
51100,Taman Kosmo Jaya,Kuala Lumpur,KUL
51100,Taman Million,Kuala Lumpur,KUL
51100,Taman Pelangi,Kuala Lumpur,KUL
51100,Taman Rainbow,Kuala Lumpur,KUL
51100,Taman Sentul,Kuala Lumpur,KUL
51200,Anjung Tiara Segambut,Kuala Lumpur,KUL
51200,Bangunan Perkim,Kuala Lumpur,KUL
51200,Batu Housing (Jalan Ipoh),Kuala Lumpur,KUL
51200,Bukit Sentul,Kuala Lumpur,KUL
51200,Flora Impian,Kuala Lumpur,KUL
51200,Jalan 1/57A,Kuala Lumpur,KUL
51200,Jalan 1/57B,Kuala Lumpur,KUL
51200,Jalan 2/57B,Kuala Lumpur,KUL
51200,Jalan 3/57B,Kuala Lumpur,KUL
51200,Jalan 4/57B,Kuala Lumpur,KUL
51200,Jalan Arfah (1 - 4),Kuala Lumpur,KUL
51200,Jalan Bachang,Kuala Lumpur,KUL
51200,Jalan Batu Ambar,Kuala Lumpur,KUL
51200,Jalan Batu Batan,Kuala Lumpur,KUL
51200,Jalan Batu Berani,Kuala Lumpur,KUL
51200,Jalan Batu Kapor (1 & 2),Kuala Lumpur,KUL
51200,Jalan Batu Kapor,Kuala Lumpur,KUL
51200,Jalan Bernam (Kampung Batu),Kuala Lumpur,KUL
51200,Jalan Chenderuh (1 - 8),Kuala Lumpur,KUL
51200,Jalan Chenderuh,Kuala Lumpur,KUL
51200,Jalan Duku,Kuala Lumpur,KUL
51200,Jalan Durian,Kuala Lumpur,KUL
51200,Jalan Dutamas Melati,Kuala Lumpur,KUL
51200,Jalan Dutamas Raya 1/38B Segambut,Kuala Lumpur,KUL
51200,Jalan Dutamas Raya,Kuala Lumpur,KUL
51200,Jalan Ipoh (Hingga Km 8),Kuala Lumpur,KUL
51200,Jalan Ipoh (Km 8.5 - 16),Kuala Lumpur,KUL
51200,Jalan Ipoh (Pekan Batu 5),Kuala Lumpur,KUL
51200,Jalan Ipoh Baharu (Kampung Batu),Kuala Lumpur,KUL
51200,Jalan Ipoh Kanan,Kuala Lumpur,KUL
51200,Jalan Ipoh Kiri,Kuala Lumpur,KUL
51200,Jalan Ismail Ghani,Kuala Lumpur,KUL
51200,Jalan Kasipillay,Kuala Lumpur,KUL
51200,Jalan Kelapa,Kuala Lumpur,KUL
51200,Jalan Kolam Ayer (1 - 4),Kuala Lumpur,KUL
51200,Jalan Kolam Ayer,Kuala Lumpur,KUL
51200,Jalan Kuching,Kuala Lumpur,KUL
51200,Jalan Langsat,Kuala Lumpur,KUL
51200,Jalan Mangga,Kuala Lumpur,KUL
51200,Jalan Manjoi (1 - 9),Kuala Lumpur,KUL
51200,Jalan Manjoi,Kuala Lumpur,KUL
51200,Jalan Matang (1 - 6),Kuala Lumpur,KUL
51200,Jalan Matang,Kuala Lumpur,KUL
51200,Jalan Murai (1 - 2),Kuala Lumpur,KUL
51200,Jalan Padang Rengas,Kuala Lumpur,KUL
51200,Jalan Pakis,Kuala Lumpur,KUL
51200,Jalan Pinggir 1/64,Kuala Lumpur,KUL
51200,Jalan Pinggir,Kuala Lumpur,KUL
51200,Jalan Prima Pelangi,Kuala Lumpur,KUL
51200,Jalan Putramas off Jalan Kuching,Kuala Lumpur,KUL
51200,Jalan Rambai,Kuala Lumpur,KUL
51200,Jalan Santan,Kuala Lumpur,KUL
51200,Jalan Segambut Atas,Kuala Lumpur,KUL
51200,Jalan Segambut Bawah,Kuala Lumpur,KUL
51200,Jalan Segambut Dalam,Kuala Lumpur,KUL
51200,Jalan Segambut Hilir,Kuala Lumpur,KUL
51200,Jalan Segambut Lintang,Kuala Lumpur,KUL
51200,Jalan Segambut Pusat,Kuala Lumpur,KUL
51200,Jalan Segambut Rendah,Kuala Lumpur,KUL
51200,Jalan Segambut Selatan,Kuala Lumpur,KUL
51200,Jalan Segambut Tengah,Kuala Lumpur,KUL
51200,Jalan Segambut Tepi,Kuala Lumpur,KUL
51200,Jalan Segambut Utara,Kuala Lumpur,KUL
51200,Jalan Segambut,Kuala Lumpur,KUL
51200,Jalan Selingsing (1 - 7),Kuala Lumpur,KUL
51200,Jalan Selingsing,Kuala Lumpur,KUL
51200,Jalan Seludang,Kuala Lumpur,KUL
51200,Jalan Selvadurai,Kuala Lumpur,KUL
51200,Jalan Suppiah Pillay,Kuala Lumpur,KUL
51200,Jalan Taman Kok Lian,Kuala Lumpur,KUL
51200,Jalan Tampoi,Kuala Lumpur,KUL
51200,Jalan Tiong,Kuala Lumpur,KUL
51200,Jalan Trolak (1 - 9),Kuala Lumpur,KUL
51200,Jalan Trolak,Kuala Lumpur,KUL
51200,Jalan Umbut,Kuala Lumpur,KUL
51200,Kampung Batu (Jalan Ipoh),Kuala Lumpur,KUL
51200,Kampung Benteng,Kuala Lumpur,KUL
51200,Kampung Padang Pasir Segambut,Kuala Lumpur,KUL
51200,Kampung Pasir Segambut,Kuala Lumpur,KUL
51200,Kampung Railway Station,Kuala Lumpur,KUL
51200,Kampung Segambut Bahagia,Kuala Lumpur,KUL
51200,Kampung Segambut Dalam,Kuala Lumpur,KUL
51200,Kampung Segambut Luar,Kuala Lumpur,KUL
51200,Kampung Segambut Masjid,Kuala Lumpur,KUL
51200,Kampung Segambut Tengah,Kuala Lumpur,KUL
51200,Kampung Segambut,Kuala Lumpur,KUL
51200,Kampung Simpang Batu,Kuala Lumpur,KUL
51200,Kampung Sungai Jernih,Kuala Lumpur,KUL
51200,Kampung Sungai Udang,Kuala Lumpur,KUL
51200,Kampung Taman City,Kuala Lumpur,KUL
51200,Kondominium Alam Puri (Kampung Batu),Kuala Lumpur,KUL
51200,Ladang Batu,Kuala Lumpur,KUL
51200,Lingkungan Umbut,Kuala Lumpur,KUL
51200,Lorong Ismail Ghani,Kuala Lumpur,KUL
51200,Lorong Kelapa Muda,Kuala Lumpur,KUL
51200,Lorong Mangga,Kuala Lumpur,KUL
51200,Lorong Pulasan,Kuala Lumpur,KUL
51200,Lorong Segambut Pusat (1 - 2),Kuala Lumpur,KUL
51200,Menara Duta,Kuala Lumpur,KUL
51200,Menara Megah,Kuala Lumpur,KUL
51200,Mukim Batu,Kuala Lumpur,KUL
51200,"Pangsapuri Rosvilla, Jln Prima Pelangi",Kuala Lumpur,KUL
51200,Persiaran Segambut Dalam,Kuala Lumpur,KUL
51200,Persiaran Segambut Tengah,Kuala Lumpur,KUL
51200,Persiaran Segambut Utara,Kuala Lumpur,KUL
51200,Prima Pelangi,Kuala Lumpur,KUL
51200,Segambut Bahagia,Kuala Lumpur,KUL
51200,Segambut Dalam,Kuala Lumpur,KUL
51200,Taman Bamboo,Kuala Lumpur,KUL
51200,Taman Batu Permai,Kuala Lumpur,KUL
51200,Taman City,Kuala Lumpur,KUL
51200,Taman Desa Segambut,Kuala Lumpur,KUL
51200,Taman Kok Doh,Kuala Lumpur,KUL
51200,Taman Kok Lian,Kuala Lumpur,KUL
51200,Taman Lawa,Kuala Lumpur,KUL
51200,Taman Mastiara,Kuala Lumpur,KUL
51200,Taman Niaga Waris,Kuala Lumpur,KUL
51200,Taman SPKK (Segambut),Kuala Lumpur,KUL
51200,Taman SPPK,Kuala Lumpur,KUL
51200,Taman Segambut Aman,Kuala Lumpur,KUL
51200,Taman Segambut Damai,Kuala Lumpur,KUL
51200,Taman Segambut Indah,Kuala Lumpur,KUL
51200,Taman Segambut Muda,Kuala Lumpur,KUL
51200,Taman Segambut,Kuala Lumpur,KUL
51200,Taman Sejahtera,Kuala Lumpur,KUL
51200,Taman Sri Kucing,Kuala Lumpur,KUL
51200,Taman Sri Sinar,Kuala Lumpur,KUL
51200,"Viva, Jalan Ipoh",Kuala Lumpur,KUL
51700,Sentul - Peti surat 1 & ke atas,Kuala Lumpur,KUL
51990,Sentul - Beg berkunci,Kuala Lumpur,KUL
52000,Ampang Road (Jinjang),Kuala Lumpur,KUL
52000,Birch Road (Jinjang),Kuala Lumpur,KUL
52000,Centre Road,Kuala Lumpur,KUL
52000,Cheras Road (Jinjang),Kuala Lumpur,KUL
52000,Club Road,Kuala Lumpur,KUL
52000,Community Road,Kuala Lumpur,KUL
52000,East Fence Road,Kuala Lumpur,KUL
52000,East Road (1 - 18),Kuala Lumpur,KUL
52000,East Road,Kuala Lumpur,KUL
52000,Garden Street,Kuala Lumpur,KUL
52000,High Street,Kuala Lumpur,KUL
52000,Jalan 1/32 - 4/32,Kuala Lumpur,KUL
52000,Jalan 1/32A - 7/32A,Kuala Lumpur,KUL
52000,Jalan 11/32 - 21/32,Kuala Lumpur,KUL
52000,Jalan 2/16B - 6/16B,Kuala Lumpur,KUL
52000,Jalan 2/16C - 12/16C,Kuala Lumpur,KUL
52000,Jalan 31A/31B - 31C/31B,Kuala Lumpur,KUL
52000,Jalan Besar Jinjang,Kuala Lumpur,KUL
52000,Jalan Jambu Air Laut,Kuala Lumpur,KUL
52000,Jalan Jambu Air Mawar,Kuala Lumpur,KUL
52000,Jalan Jambu Air,Kuala Lumpur,KUL
52000,Jalan Jambu Arang (1 - 2),Kuala Lumpur,KUL
52000,Jalan Jambu Arang,Kuala Lumpur,KUL
52000,Jalan Jambu Batu,Kuala Lumpur,KUL
52000,Jalan Jambu Berasa (1 - 4),Kuala Lumpur,KUL
52000,Jalan Jambu Berteh (1 - 3),Kuala Lumpur,KUL
52000,Jalan Jambu Berteh,Kuala Lumpur,KUL
52000,Jalan Jambu Gajus (1 - 2),Kuala Lumpur,KUL
52000,Jalan Jambu Gajus,Kuala Lumpur,KUL
52000,Jalan Jambu Golok,Kuala Lumpur,KUL
52000,Jalan Jambu Jembah (1 - 3),Kuala Lumpur,KUL
52000,Jalan Jambu Jembah,Kuala Lumpur,KUL
52000,Jalan Jambu Jerteh,Kuala Lumpur,KUL
52000,Jalan Jambu Laut,Kuala Lumpur,KUL
52000,Jalan Jambu Mawar,Kuala Lumpur,KUL
52000,Jalan Jambu Melaka (1 - 5),Kuala Lumpur,KUL
52000,Jalan Jambu Melaka,Kuala Lumpur,KUL
52000,Jalan Jambu Merah (1 - 3),Kuala Lumpur,KUL
52000,Jalan Jambu Merah,Kuala Lumpur,KUL
52000,Jalan Jambu Susu,Kuala Lumpur,KUL
52000,Jalan Jambu,Kuala Lumpur,KUL
52000,Jalan Jinjang Utara,Kuala Lumpur,KUL
52000,Jalan Kepong (Hingga Km 16),Kuala Lumpur,KUL
52000,Jalan Kepong Lama,Kuala Lumpur,KUL
52000,Jalan Vista Mutiara 1,Kuala Lumpur,KUL
52000,Jinjang Baru,Kuala Lumpur,KUL
52000,Jinjang Selatan Tambahan,Kuala Lumpur,KUL
52000,Jinjang Selatan,Kuala Lumpur,KUL
52000,Jinjang Utara Tambahan,Kuala Lumpur,KUL
52000,Jinjang Utara,Kuala Lumpur,KUL
52000,Kampung Batu Delima,Kuala Lumpur,KUL
52000,Kampung DeLima (Jinjang),Kuala Lumpur,KUL
52000,Kampung Haji Manap,Kuala Lumpur,KUL
52000,Kampung Seri DeLima,Kuala Lumpur,KUL
52000,Keow Min Road,Kuala Lumpur,KUL
52000,Keow Min Street,Kuala Lumpur,KUL
52000,Kompleks Darul Kifayah,Kuala Lumpur,KUL
52000,Market Street,Kuala Lumpur,KUL
52000,Min Chong Road,Kuala Lumpur,KUL
52000,Nanyang Estate,Kuala Lumpur,KUL
52000,North Fence Road,Kuala Lumpur,KUL
52000,Padang Road,Kuala Lumpur,KUL
52000,River Road,Kuala Lumpur,KUL
52000,School Lane,Kuala Lumpur,KUL
52000,Segambut Jaya,Kuala Lumpur,KUL
52000,Segambut Road (Jinjang),Kuala Lumpur,KUL
52000,Selangor Road,Kuala Lumpur,KUL
52000,Selayang Road (Jinjang),Kuala Lumpur,KUL
52000,South Fence Road,Kuala Lumpur,KUL
52000,South Road (6 - 7),Kuala Lumpur,KUL
52000,South Street (2 - 10),Kuala Lumpur,KUL
52000,South Street,Kuala Lumpur,KUL
52000,Taman Batu (Jinjang),Kuala Lumpur,KUL
52000,Taman Beringin,Kuala Lumpur,KUL
52000,Taman Cuepacs (Jinjang),Kuala Lumpur,KUL
52000,Taman Fadason,Kuala Lumpur,KUL
52000,Taman Nanyang,Kuala Lumpur,KUL
52000,Taman Seri Segambut,Kuala Lumpur,KUL
52000,Taman TSI Park,Kuala Lumpur,KUL
52000,Tanjung Malim Street,Kuala Lumpur,KUL
52000,Temple Road,Kuala Lumpur,KUL
52000,Theatre Street,Kuala Lumpur,KUL
52000,Ulu Klang Road (Jinjang),Kuala Lumpur,KUL
52000,Village Road,Kuala Lumpur,KUL
52000,Vista Mutiara,Kuala Lumpur,KUL
52000,West Fence Street,Kuala Lumpur,KUL
52000,West Road (1 - 15),Kuala Lumpur,KUL
52000,West Road,Kuala Lumpur,KUL
52100,Cross Street (Jinjang),Kuala Lumpur,KUL
52100,Desa Aman Puri,Kuala Lumpur,KUL
52100,Jalan Ambong (1 - 4),Kuala Lumpur,KUL
52100,Jalan Ambong Kanan (1 & 2),Kuala Lumpur,KUL
52100,Jalan Ambong Kiri (1 & 2),Kuala Lumpur,KUL
52100,Jalan Antoi (1 - 6),Kuala Lumpur,KUL
52100,Jalan Antoi Kanan (1 - 4),Kuala Lumpur,KUL
52100,Jalan Antoi kiri,Kuala Lumpur,KUL
52100,Jalan Antoi,Kuala Lumpur,KUL
52100,Jalan Api-Api (1 - 5),Kuala Lumpur,KUL
52100,Jalan Api-Api Kanan,Kuala Lumpur,KUL
52100,Jalan Api-Api Kiri (1 - 3),Kuala Lumpur,KUL
52100,Jalan Api-Api,Kuala Lumpur,KUL
52100,Jalan Arang (1 - 3),Kuala Lumpur,KUL
52100,Jalan Arang,Kuala Lumpur,KUL
52100,Jalan Asam Kumbang (1 - 2),Kuala Lumpur,KUL
52100,Jalan Asam,Kuala Lumpur,KUL
52100,Jalan Bakau,Kuala Lumpur,KUL
52100,Jalan Bangau,Kuala Lumpur,KUL
52100,Jalan Bayur,Kuala Lumpur,KUL
52100,Jalan Bebarau,Kuala Lumpur,KUL
52100,Jalan Beberek,Kuala Lumpur,KUL
52100,Jalan Begandai,Kuala Lumpur,KUL
52100,Jalan Belabas,Kuala Lumpur,KUL
52100,Jalan Belatuk,Kuala Lumpur,KUL
52100,Jalan Belian,Kuala Lumpur,KUL
52100,Jalan Belibis,Kuala Lumpur,KUL
52100,Jalan Belinggai,Kuala Lumpur,KUL
52100,Jalan Belinjau,Kuala Lumpur,KUL
52100,Jalan Bendarung,Kuala Lumpur,KUL
52100,Jalan Bengkudu,Kuala Lumpur,KUL
52100,Jalan Bengkulang,Kuala Lumpur,KUL
52100,Jalan Berembang (Jinjang),Kuala Lumpur,KUL
52100,Jalan Berombong,Kuala Lumpur,KUL
52100,Jalan Beserah (Kepong),Kuala Lumpur,KUL
52100,Jalan Bidara,Kuala Lumpur,KUL
52100,Jalan Bubut,Kuala Lumpur,KUL
52100,Jalan Bungur,Kuala Lumpur,KUL
52100,Jalan Cemar,Kuala Lumpur,KUL
52100,Jalan FRI,Kuala Lumpur,KUL
52100,Jalan Kepong Baru,Kuala Lumpur,KUL
52100,Jalan Mergastua,Kuala Lumpur,KUL
52100,Jalan Metro 1,Kuala Lumpur,KUL
52100,Jalan Metro Prima,Kuala Lumpur,KUL
52100,Jalan Rimbunan Matahari 3,Kuala Lumpur,KUL
52100,Jalan Seri Bintang 5A,Kuala Lumpur,KUL
52100,Kampung Chin Lee,Kuala Lumpur,KUL
52100,Kampung Kim Kee,Kuala Lumpur,KUL
52100,Kampung Melayu (Kepong),Kuala Lumpur,KUL
52100,Kampung Melayu FRI,Kuala Lumpur,KUL
52100,Kampung Ong Lok,Kuala Lumpur,KUL
52100,Kampung Suria,Kuala Lumpur,KUL
52100,Kawasan PerIndustrian Ehsan Jaya,Kuala Lumpur,KUL
52100,Kawasan PerIndustrian Sri Edaran,Kuala Lumpur,KUL
52100,Kepong Baru Tambahan,Kuala Lumpur,KUL
52100,Kepong Baru,Kuala Lumpur,KUL
52100,Kepong Entrepreneus Park,Kuala Lumpur,KUL
52100,Kepong Ulu,Kuala Lumpur,KUL
52100,Kepong,Kuala Lumpur,KUL
52100,Kompleks Desa,Kuala Lumpur,KUL
52100,Ladang Edinburgh,Kuala Lumpur,KUL
52100,Laman Rimbunan,Kuala Lumpur,KUL
52100,Lorong Bangau (1 - 2),Kuala Lumpur,KUL
52100,Lorong Belibis (1 - 4),Kuala Lumpur,KUL
52100,Lorong Bidara (1 - 3),Kuala Lumpur,KUL
52100,Lorong Helang (1 - 3),Kuala Lumpur,KUL
52100,Lorong Helang Hindik,Kuala Lumpur,KUL
52100,Lorong Mergastua,Kuala Lumpur,KUL
52100,Old Market Street,Kuala Lumpur,KUL
52100,Pusat Perdagangan Desa Jaya,Kuala Lumpur,KUL
52100,Taman Bayu Sri Bintang,Kuala Lumpur,KUL
52100,Taman Bukit Desa (Kepong),Kuala Lumpur,KUL
52100,Taman Bukit Maluri,Kuala Lumpur,KUL
52100,Taman Daya,Kuala Lumpur,KUL
52100,Taman Desa Aman Puri,Kuala Lumpur,KUL
52100,Taman Desa Jaya,Kuala Lumpur,KUL
52100,Taman Ehsan,Kuala Lumpur,KUL
52100,Taman Emas,Kuala Lumpur,KUL
52100,Taman Indah Perdana,Kuala Lumpur,KUL
52100,Taman Intan Baiduri,Kuala Lumpur,KUL
52100,Taman Kepong Baru,Kuala Lumpur,KUL
52100,Taman Kepong Indah,Kuala Lumpur,KUL
52100,Taman Kepong Perdana,Kuala Lumpur,KUL
52100,Taman Kepong,Kuala Lumpur,KUL
52100,Taman Laman Rimbunan,Kuala Lumpur,KUL
52100,Taman Metro Prima,Kuala Lumpur,KUL
52100,Taman Perdana (Kepong),Kuala Lumpur,KUL
52100,Taman Petaling (Kepong),Kuala Lumpur,KUL
52100,Taman Puncak Desa Kepong,Kuala Lumpur,KUL
52100,Taman Seri Bintang,Kuala Lumpur,KUL
52100,Taman Seri Ehsan,Kuala Lumpur,KUL
52100,Taman Seri Indah (Kepong),Kuala Lumpur,KUL
52100,Taman Seri Kepong Baru,Kuala Lumpur,KUL
52100,Taman Seri Kepong,Kuala Lumpur,KUL
52100,Taman Sri Sinar,Kuala Lumpur,KUL
52100,Taman Unijaya,Kuala Lumpur,KUL
52100,Taman Usaha Jaya,Kuala Lumpur,KUL
52100,Taman Usahawan ,Kuala Lumpur,KUL
52100,Ulu Kepong,Kuala Lumpur,KUL
52200,Bandar Baru Seri Damansara,Kuala Lumpur,KUL
52200,Bandar Manjalara,Kuala Lumpur,KUL
52200,Bandar Seri Damansara,Kuala Lumpur,KUL
52200,Desa ParkCity,Kuala Lumpur,KUL
52200,Jalan Cempaka SD 12/5,Kuala Lumpur,KUL
52200,Jalan Desa Anggun 1,Kuala Lumpur,KUL
52200,"Jalan Desa Residen, Levenue",Kuala Lumpur,KUL
52200,Jalan Medan Putra 6,Kuala Lumpur,KUL
52200,Kepong Industry Park,Kuala Lumpur,KUL
52200,Medan Putra Business Centre,Kuala Lumpur,KUL
52200,Medan Putra Business Park,Kuala Lumpur,KUL
52200,Menara Sri Damansara,Kuala Lumpur,KUL
52200,PerIndustrian Tago,Kuala Lumpur,KUL
52200,Plaza Medan Putra,Kuala Lumpur,KUL
52200,Taman Amelia,Kuala Lumpur,KUL
52200,Taman Wangsa Permai,Kuala Lumpur,KUL
52200,Wisma Manjalara,Kuala Lumpur,KUL
53000,Jalan 1/50 - 4/50,Kuala Lumpur,KUL
53000,Jalan 3/21B,Kuala Lumpur,KUL
53000,Jalan 5/65C,Kuala Lumpur,KUL
53000,Jalan 65C,Kuala Lumpur,KUL
53000,Jalan Anggerik,Kuala Lumpur,KUL
53000,Jalan Angsana,Kuala Lumpur,KUL
53000,Jalan Bakubang (1 - 2),Kuala Lumpur,KUL
53000,Jalan Balau (Gombak),Kuala Lumpur,KUL
53000,Jalan Bunga Kantan,Kuala Lumpur,KUL
53000,Jalan Bunga Melati,Kuala Lumpur,KUL
53000,Jalan Bunga Rampai,Kuala Lumpur,KUL
53000,Jalan Bunga Raya (Gombak),Kuala Lumpur,KUL
53000,Jalan Bunga Tanjung,Kuala Lumpur,KUL
53000,Jalan Chempaka (Gombak),Kuala Lumpur,KUL
53000,Jalan Chengal Selatan,Kuala Lumpur,KUL
53000,Jalan Chengal,Kuala Lumpur,KUL
53000,Jalan Chong Hwa,Kuala Lumpur,KUL
53000,Jalan Dedap,Kuala Lumpur,KUL
53000,Jalan Endau,Kuala Lumpur,KUL
53000,Jalan Gombak (Batu 3 1/2),Kuala Lumpur,KUL
53000,Jalan Gombak Sejahtera,Kuala Lumpur,KUL
53000,Jalan Gombak,Kuala Lumpur,KUL
53000,Jalan Jerejak 1,Kuala Lumpur,KUL
53000,Jalan Jerejak,Kuala Lumpur,KUL
53000,Jalan Keruing (Gombak),Kuala Lumpur,KUL
53000,Jalan Ketapang,Kuala Lumpur,KUL
53000,Jalan Kudat,Kuala Lumpur,KUL
53000,Jalan Kukubah Satu,Kuala Lumpur,KUL
53000,Jalan Langgak Bukit,Kuala Lumpur,KUL
53000,Jalan Langkawi,Kuala Lumpur,KUL
53000,Jalan Malawali,Kuala Lumpur,KUL
53000,Jalan Mawar (Gombak),Kuala Lumpur,KUL
53000,Jalan Meranti (Gombak),Kuala Lumpur,KUL
53000,Jalan Merbau,Kuala Lumpur,KUL
53000,Jalan Mertang,Kuala Lumpur,KUL
53000,Jalan Mutiara,Kuala Lumpur,KUL
53000,Jalan Pahang Barat,Kuala Lumpur,KUL
53000,Jalan Pahang,Kuala Lumpur,KUL
53000,Jalan Puah Jaya (1 - 4),Kuala Lumpur,KUL
53000,Jalan Puah Jaya,Kuala Lumpur,KUL
53000,Jalan Puah,Kuala Lumpur,KUL
53000,Jalan Rasak,Kuala Lumpur,KUL
53000,Jalan Ria,Kuala Lumpur,KUL
53000,Jalan Sampadi (1 - 2),Kuala Lumpur,KUL
53000,Jalan Sarikei,Kuala Lumpur,KUL
53000,Jalan Satang (1 - 2),Kuala Lumpur,KUL
53000,Jalan Selamat,Kuala Lumpur,KUL
53000,Jalan Sempurna,Kuala Lumpur,KUL
53000,Jalan Sentosa,Kuala Lumpur,KUL
53000,Jalan Seroja (Gombak),Kuala Lumpur,KUL
53000,Jalan Setapak,Kuala Lumpur,KUL
53000,Jalan Sungai (Gombak),Kuala Lumpur,KUL
53000,Jalan Tawau,Kuala Lumpur,KUL
53000,Jalan Teratai,Kuala Lumpur,KUL
53000,Jalan Terkis,Kuala Lumpur,KUL
53000,Jalan Tioman (1 - 4),Kuala Lumpur,KUL
53000,Jalan Umbun (1 - 2),Kuala Lumpur,KUL
53000,Kampung Bumi Hijau,Kuala Lumpur,KUL
53000,Kampung Chong Hwa,Kuala Lumpur,KUL
53000,Kampung Furlong,Kuala Lumpur,KUL
53000,Kampung Marali,Kuala Lumpur,KUL
53000,Kampung Puah (Gombak),Kuala Lumpur,KUL
53000,Kampung Seri Indah (Gombak),Kuala Lumpur,KUL
53000,Kampung Siam,Kuala Lumpur,KUL
53000,Kampung Sungai Mulia,Kuala Lumpur,KUL
53000,Kampung Wira Jaya,Kuala Lumpur,KUL
53000,Kolej TAR,Kuala Lumpur,KUL
53000,Lorong Balai Raya,Kuala Lumpur,KUL
53000,Lorong Bunga China,Kuala Lumpur,KUL
53000,Lorong Kempas (1 - 2),Kuala Lumpur,KUL
53000,Lorong Pandan,Kuala Lumpur,KUL
53000,Lorong Rasak,Kuala Lumpur,KUL
53000,Lorong Setapak,Kuala Lumpur,KUL
53000,Lorong Siantan,Kuala Lumpur,KUL
53000,Persiaran 65C,Kuala Lumpur,KUL
53000,Persiaran Balau,Kuala Lumpur,KUL
53000,Taman Bunga Raya,Kuala Lumpur,KUL
53000,Taman Desa Gombak,Kuala Lumpur,KUL
53000,Taman Furlong,Kuala Lumpur,KUL
53000,Taman P. Ramlee,Kuala Lumpur,KUL
53000,Taman Setapak,Kuala Lumpur,KUL
53000,Taman Suria Setapak,Kuala Lumpur,KUL
53000,Taman Tai Onn,Kuala Lumpur,KUL
53000,Taman Teratai Mewah,Kuala Lumpur,KUL
53100,Alang Sedayu Resort,Kuala Lumpur,KUL
53100,Gombak (Batu 5 - 13),Kuala Lumpur,KUL
53100,Gombak Setia,Kuala Lumpur,KUL
53100,Jabatan Hal Ehwal Orang Asli Gombak,Kuala Lumpur,KUL
53100,Jalan 2/21D,Kuala Lumpur,KUL
53100,Jalan Desa Melawati,Kuala Lumpur,KUL
53100,Jalan Intan (Gombak),Kuala Lumpur,KUL
53100,Jalan K7 (Taman Melawati),Gombak,SGR
53100,Jalan Madrasah,Kuala Lumpur,KUL
53100,Jalan Melati Indah,Kuala Lumpur,KUL
53100,Jalan Mutiara 9,Gombak,SGR
53100,Jalan Mutiara Utama,Gombak,SGR
53100,Jalan Sekolah,Kuala Lumpur,KUL
53100,Jalan Taman,Gombak,SGR
53100,Jalan Tumbuhan,Kuala Lumpur,KUL
53100,KM 11 Jalan Gombak,Gombak,SGR
53100,Kampung Bukit Lela,Kuala Lumpur,KUL
53100,Kampung Changkat,Kuala Lumpur,KUL
53100,Kampung Genting Klang,Kuala Lumpur,KUL
53100,Kampung Gombak Setia,Kuala Lumpur,KUL
53100,Kampung Kerdas,Kuala Lumpur,KUL
53100,Kampung Klang Gate Baru,Kuala Lumpur,KUL
53100,Kampung Lee Kong Chan,Kuala Lumpur,KUL
53100,Kampung Setia Jaya,Kuala Lumpur,KUL
53100,Kampung Simpang Tiga Gombak,Kuala Lumpur,KUL
53100,Kampung Sungai Cincin,Kuala Lumpur,KUL
53100,Kampung Sungai Pusu,Kuala Lumpur,KUL
53100,Kampung Tengah (Gombak),Kuala Lumpur,KUL
53100,Lorong Kedah,Kuala Lumpur,KUL
53100,Lorong Perak,Kuala Lumpur,KUL
53100,Lorong Selangor,Gombak,SGR
53100,Melawati Urban 2,Gombak,SGR
53100,Mount Estate,Kuala Lumpur,KUL
53100,Pangsapuri Gaya,Gombak,SGR
53100,Pangsapuri Mutiara,Gombak,SGR
53100,Persiaran Contours,Gombak,SGR
53100,Persiaran Kontur,Gombak,SGR
53100,Persiaran Nadayu 1,Gombak,SGR
53100,Pinggiran Mutiara Utama,Gombak,SGR
53100,Pusat Bandar Melawati,Kuala Lumpur,KUL
53100,Pusat Komersial Gaya,Gombak,SGR
53100,Riverview Kemensah,Gombak,SGR
53100,Taman Bukit Mas,Kuala Lumpur,KUL
53100,Taman Bukit Sentosa,Kuala Lumpur,KUL
53100,Taman Cemerlang,Kuala Lumpur,KUL
53100,Taman Contours,Gombak,SGR
53100,Taman Desa Melawati,Kuala Lumpur,KUL
53100,Taman Gombak Indah,Kuala Lumpur,KUL
53100,Taman Gombak Jaya,Kuala Lumpur,KUL
53100,Taman Gombak Ria,Gombak,SGR
53100,Taman Gombak Setia,Kuala Lumpur,KUL
53100,Taman Harmonis,Kuala Lumpur,KUL
53100,Taman Ibukota,Kuala Lumpur,KUL
53100,Taman Kamariah,Kuala Lumpur,KUL
53100,Taman Kenangan,Kuala Lumpur,KUL
53100,Taman Mastika,Kuala Lumpur,KUL
53100,Taman Melati Utama,Kuala Lumpur,KUL
53100,Taman Melati,Kuala Lumpur,KUL
53100,Taman Melawati Indah,Kuala Lumpur,KUL
53100,Taman Melawati Kontur,Gombak,SGR
53100,Taman Melawati,Kuala Lumpur,KUL
53100,Taman Mutiara Gombak 1,Gombak,SGR
53100,Taman Mutiara Gombak,Gombak,SGR
53100,Taman Nadayu,Gombak,SGR
53100,Taman Perwira (Gombak),Kuala Lumpur,KUL
53100,Taman Sahabat,Kuala Lumpur,KUL
53100,Taman Sepakat (Gombak),Kuala Lumpur,KUL
53100,Taman Seri Setia,Kuala Lumpur,KUL
53100,Taman Setia (Gombak),Kuala Lumpur,KUL
53100,Universiti Islam Antarabangsa (UIA),Gombak,SGR
53200,Jalan Ayer Tenang,Kuala Lumpur,KUL
53200,Jalan 10/23G,Kuala Lumpur,KUL
53200,Jalan 8/23G,Kuala Lumpur,KUL
53200,Jalan 9/23G,Kuala Lumpur,KUL
53200,Jalan Ayer Bah,Kuala Lumpur,KUL
53200,Jalan Ayer Batu,Kuala Lumpur,KUL
53200,Jalan Ayer Beku,Kuala Lumpur,KUL
53200,Jalan Ayer Berseh (1 - 5),Kuala Lumpur,KUL
53200,Jalan Ayer Berseh,Kuala Lumpur,KUL
53200,Jalan Ayer Biru,Kuala Lumpur,KUL
53200,Jalan Ayer Chetek,Kuala Lumpur,KUL
53200,Jalan Ayer Chintak,Kuala Lumpur,KUL
53200,Jalan Ayer Dalam,Kuala Lumpur,KUL
53200,Jalan Ayer Deras,Kuala Lumpur,KUL
53200,Jalan Ayer Dusun,Kuala Lumpur,KUL
53200,Jalan Ayer Embun,Kuala Lumpur,KUL
53200,Jalan Ayer Hijau,Kuala Lumpur,KUL
53200,Jalan Ayer Hitam,Kuala Lumpur,KUL
53200,Jalan Ayer Hujan,Kuala Lumpur,KUL
53200,Jalan Ayer Jernih,Kuala Lumpur,KUL
53200,Jalan Ayer Kering,Kuala Lumpur,KUL
53200,Jalan Ayer Keroh,Kuala Lumpur,KUL
53200,Jalan Ayer Kolam,Kuala Lumpur,KUL
53200,Jalan Ayer Kuning,Kuala Lumpur,KUL
53200,Jalan Ayer Laju,Kuala Lumpur,KUL
53200,Jalan Ayer Leleh,Kuala Lumpur,KUL
53200,Jalan Ayer Lembah,Kuala Lumpur,KUL
53200,Jalan Ayer Lombong,Kuala Lumpur,KUL
53200,Jalan Ayer Madu,Kuala Lumpur,KUL
53200,Jalan Ayer Mas,Kuala Lumpur,KUL
53200,Jalan Ayer Masin,Kuala Lumpur,KUL
53200,Jalan Ayer Mata,Kuala Lumpur,KUL
53200,Jalan Ayer Mawar,Kuala Lumpur,KUL
53200,Jalan Ayer Merah,Kuala Lumpur,KUL
53200,Jalan Ayer Molek (1-2),Kuala Lumpur,KUL
53200,Jalan Ayer Molek Kiri,Kuala Lumpur,KUL
53200,Jalan Ayer Molek,Kuala Lumpur,KUL
53200,Jalan Ayer Pahit,Kuala Lumpur,KUL
53200,Jalan Ayer Panas Baru,Kuala Lumpur,KUL
53200,Jalan Ayer Panas,Kuala Lumpur,KUL
53200,Jalan Ayer Pasang,Kuala Lumpur,KUL
53200,Jalan Ayer Penoh,Kuala Lumpur,KUL
53200,Jalan Ayer Pusing,Kuala Lumpur,KUL
53200,Jalan Ayer Putih,Kuala Lumpur,KUL
53200,Jalan Ayer Rimba,Kuala Lumpur,KUL
53200,Jalan Ayer Sejok,Kuala Lumpur,KUL
53200,Jalan Ayer Sungai,Kuala Lumpur,KUL
53200,Jalan Ayer Surut,Kuala Lumpur,KUL
53200,Jalan Ayer Tasek,Kuala Lumpur,KUL
53200,Jalan Ayer Tawar,Kuala Lumpur,KUL
53200,Jalan Ayer Telaga,Kuala Lumpur,KUL
53200,Jalan Ayer Terjun,Kuala Lumpur,KUL
53200,Jalan Beserah (Gombak),Kuala Lumpur,KUL
53200,Jalan Boon Kim,Kuala Lumpur,KUL
53200,Jalan Chan Chin Mooi,Kuala Lumpur,KUL
53200,Jalan Chiew Yoke,Kuala Lumpur,KUL
53200,Jalan Chow Thye,Kuala Lumpur,KUL
53200,Jalan Fletcher,Kuala Lumpur,KUL
53200,Jalan Gin Lek,Kuala Lumpur,KUL
53200,Jalan Keng Hooi,Kuala Lumpur,KUL
53200,Jalan Kilang (1 - 3),Kuala Lumpur,KUL
53200,Jalan Kim Leng,Kuala Lumpur,KUL
53200,Jalan Kong Lam,Kuala Lumpur,KUL
53200,Jalan Kuantan,Kuala Lumpur,KUL
53200,Jalan Loong Hin,Kuala Lumpur,KUL
53200,Jalan Maran,Kuala Lumpur,KUL
53200,Jalan Mata Air (1 - 4),Kuala Lumpur,KUL
53200,Jalan Mata Air,Kuala Lumpur,KUL
53200,Jalan Mentakab,Kuala Lumpur,KUL
53200,Jalan Ng Ngee,Kuala Lumpur,KUL
53200,Jalan Pahang Kecil,Kuala Lumpur,KUL
53200,Jalan Pasir,Kuala Lumpur,KUL
53200,Jalan Perusahaan (1 - 8),Kuala Lumpur,KUL
53200,Jalan Perusahaan Kiri,Kuala Lumpur,KUL
53200,Jalan Perusahaan Ringan,Kuala Lumpur,KUL
53200,Jalan Perusahaan Tengah,Kuala Lumpur,KUL
53200,Jalan Seavoy,Kuala Lumpur,KUL
53200,Jalan Suasa (Gombak),Kuala Lumpur,KUL
53200,Jalan Swee Guat,Kuala Lumpur,KUL
53200,Jalan Tanah Liat,Kuala Lumpur,KUL
53200,Jalan Tembaga,Kuala Lumpur,KUL
53200,Jalan Tembeling,Kuala Lumpur,KUL
53200,Jalan Temerloh,Kuala Lumpur,KUL
53200,Jalan Timah,Kuala Lumpur,KUL
53200,Jalan Titiwangsa,Kuala Lumpur,KUL
53200,Jalan Ushawan (1 - 6),Kuala Lumpur,KUL
53200,Jalan Ushawan,Kuala Lumpur,KUL
53200,Kampung Air Lanjut,Kuala Lumpur,KUL
53200,Kampung Ayer Bah,Kuala Lumpur,KUL
53200,Kampung Temerloh,Kuala Lumpur,KUL
53200,Lengkongan Mata Ayer,Kuala Lumpur,KUL
53200,Lingkungan Mata Air,Kuala Lumpur,KUL
53200,Lorong Ayer Bah (1 - 3),Kuala Lumpur,KUL
53200,Lorong Ayer Bah,Kuala Lumpur,KUL
53200,Lorong Ayer Batu (1 - 13),Kuala Lumpur,KUL
53200,Lorong Ayer Berseh (1 - 5),Kuala Lumpur,KUL
53200,Lorong Ayer Jerneh (1 - 2),Kuala Lumpur,KUL
53200,Lorong Ayer Keroh,Kuala Lumpur,KUL
53200,Lorong Ayer Kuning (1 - 6),Kuala Lumpur,KUL
53200,Lorong Ayer Leleh (1 - 7),Kuala Lumpur,KUL
53200,Lorong Ayer Lombong,Kuala Lumpur,KUL
53200,Lorong Ayer Madu (1 - 5),Kuala Lumpur,KUL
53200,Lorong Ayer Mata,Kuala Lumpur,KUL
53200,Lorong Ayer Mawar (1 - 4),Kuala Lumpur,KUL
53200,Lorong Ayer Pahit (1 - 3),Kuala Lumpur,KUL
53200,Lorong Ayer Panas (1 - 3),Kuala Lumpur,KUL
53200,Lorong Ayer Putih,Kuala Lumpur,KUL
53200,Lorong Ayer Tawar,Kuala Lumpur,KUL
53200,Lorong Ayer Telaga,Kuala Lumpur,KUL
53200,Lorong Ayer Tenang,Kuala Lumpur,KUL
53200,Lorong Chan Chin Mooi (1 - 5),Kuala Lumpur,KUL
53200,Lorong Chan Chin Mooi,Kuala Lumpur,KUL
53200,Lorong Chow Thye,Kuala Lumpur,KUL
53200,Lorong Maran,Kuala Lumpur,KUL
53200,Lorong Mata Air (1 - 3),Kuala Lumpur,KUL
53200,Lorong Perusahaan Ringan,Kuala Lumpur,KUL
53200,Lorong Titiwangsa (1 - 12),Kuala Lumpur,KUL
53200,Medan Makmur,Kuala Lumpur,KUL
53200,PPR Kampung Baru Air Panas,Kuala Lumpur,KUL
53200,Persiaran Kuantan,Kuala Lumpur,KUL
53200,Persiaran Titiwangsa (1 - 3),Kuala Lumpur,KUL
53200,Persiaran Titiwangsa,Kuala Lumpur,KUL
53200,Taman Air Panas,Kuala Lumpur,KUL
53200,Taman Genting,Kuala Lumpur,KUL
53200,Taman Keat Ann,Kuala Lumpur,KUL
53200,Taman Tasek Titiwangsa,Kuala Lumpur,KUL
53300,Apartment Madu Mas,Setapak,KUL
53300,Bandar Baru Wangsa Maju,Kuala Lumpur,KUL
53300,Danau Kota,Kuala Lumpur,KUL
53300,Gonggang Estate,Kuala Lumpur,KUL
53300,Hawthornden Estate,Kuala Lumpur,KUL
53300,Jalan 2/27A Wangsa Maju,Kuala Lumpur,KUL
53300,Jalan 4/27E ,Kuala Lumpur,KUL
53300,Jalan Air Madu,Setapak,KUL
53300,Jalan Danau Saujana 2,Kuala Lumpur,KUL
53300,Jalan Genting Klang,Kuala Lumpur,KUL
53300,Jalan Langkawi (Danau Kota),Kuala Lumpur,KUL
53300,Jalan Metro Wangsa,Kuala Lumpur,KUL
53300,Jalan Prima Setapak 5,Kuala Lumpur,KUL
53300,Jalan Rejang,Kuala Lumpur,KUL
53300,Jalan Seri Wangsa 1,Kuala Lumpur,KUL
53300,Jalan Taman Ibu Kota,Kuala Lumpur,KUL
53300,Jalan Wangsa Perdana 3,Kuala Lumpur,KUL
53300,Jalan wangsa Delima 1A,Kuala Lumpur,KUL
53300,Kem Genting,Kuala Lumpur,KUL
53300,Kem Wardieburn,Kuala Lumpur,KUL
53300,Rumah Panjang Danau Kota,Kuala Lumpur,KUL
53300,Rumah Panjang Kampung Pasir Wardieburn,Kuala Lumpur,KUL
53300,Setapak Height,Kuala Lumpur,KUL
53300,Taman Bukit Melawati,Kuala Lumpur,KUL
53300,Taman Danau Kota,Kuala Lumpur,KUL
53300,Taman Desa Setapak,Kuala Lumpur,KUL
53300,Taman Permata,Kuala Lumpur,KUL
53300,Taman Seri Rampai,Kuala Lumpur,KUL
53300,Taman Setapak Indah,Kuala Lumpur,KUL
53300,Taman Setapak Jaya,Kuala Lumpur,KUL
53300,Taman Wangsa Melawati,Kuala Lumpur,KUL
53300,Villa Wangsamas,Kuala Lumpur,KUL
53300,Wangsa Maju (Seksyen 1 - 10),Kuala Lumpur,KUL
53300,Zon PerIndustrian PKNS (Setapak),Kuala Lumpur,KUL
53700,Gombak - Peti surat (161 - 240),Kuala Lumpur,KUL
53800,Gombak - Peti surat (241 & ke atas),Kuala Lumpur,KUL
53990,Gombak - Beg berkunci,Kuala Lumpur,KUL
54000,Cangkat Keramat Hujung,Kuala Lumpur,KUL
54000,Jalan Bomoh,Kuala Lumpur,KUL
54000,Jalan Bukit Keramat,Kuala Lumpur,KUL
54000,Jalan Chenangkas,Kuala Lumpur,KUL
54000,Jalan Datuk Keramat,Kuala Lumpur,KUL
54000,Jalan Gurney (1 - 4),Kuala Lumpur,KUL
54000,Jalan Kent (1 - 8),Kuala Lumpur,KUL
54000,Jalan Kent,Kuala Lumpur,KUL
54000,Jalan Keramat Dalam,Kuala Lumpur,KUL
54000,Jalan Keramat Hujong,Kuala Lumpur,KUL
54000,Jalan Keramat Hujung,Kuala Lumpur,KUL
54000,Jalan Keramat Jaya,Kuala Lumpur,KUL
54000,Jalan Keramat Tepi,Kuala Lumpur,KUL
54000,Jalan Keramat,Kuala Lumpur,KUL
54000,Jalan Ladang Maktab,Kuala Lumpur,KUL
54000,Jalan Maktab (1 - 8),Kuala Lumpur,KUL
54000,Jalan Maktab,Kuala Lumpur,KUL
54000,Jalan Nujum,Kuala Lumpur,KUL
54000,Jalan Pawang,Kuala Lumpur,KUL
54000,Jalan Perumahan Gurney,Kuala Lumpur,KUL
54000,Kampung Bukit Baru,Kuala Lumpur,KUL
54000,Kampung Datok Keramat,Kuala Lumpur,KUL
54000,Kampung Jaya,Kuala Lumpur,KUL
54000,Kampung Padang Tembak,Kuala Lumpur,KUL
54000,Kampung Semarak,Kuala Lumpur,KUL
54000,Lorong Bukit Keramat (1 - 3),Kuala Lumpur,KUL
54000,Lorong Bukit Keramat,Kuala Lumpur,KUL
54000,Lorong Datuk Keramat,Kuala Lumpur,KUL
54000,Lorong Keramat (1 - 22),Kuala Lumpur,KUL
54000,Lorong Keramat Dalam (1 - 8),Kuala Lumpur,KUL
54000,Lorong Keramat Dalam,Kuala Lumpur,KUL
54000,Lorong Keramat Hujong (1 - 2),Kuala Lumpur,KUL
54000,Lorong Keramat Kiri,Kuala Lumpur,KUL
54000,Lorong Keramat Tepi (1 - 4),Kuala Lumpur,KUL
54000,Lorong Kiri 1 - 20 (Datuk Keramat),Kuala Lumpur,KUL
54000,Lorong Maktab (1 - 8),Kuala Lumpur,KUL
54000,Lorong Pawang,Kuala Lumpur,KUL
54000,Lorong Sabit,Kuala Lumpur,KUL
54000,Pangsapuri Bukit Baru,Kuala Lumpur,KUL
54000,Persiaran Gurney,Kuala Lumpur,KUL
54000,Persiaran Keramat (1 & 2),Kuala Lumpur,KUL
54000,Persiaran Keramat 5,Kuala Lumpur,KUL
54000,Persiaran Keramat Hujong,Kuala Lumpur,KUL
54000,Persiaran Kiri 1,Kuala Lumpur,KUL
54100,Graham Rise,Kuala Lumpur,KUL
54100,Jalan Alan Loke,Kuala Lumpur,KUL
54100,Jalan Badek,Kuala Lumpur,KUL
54100,Jalan Bagot,Kuala Lumpur,KUL
54100,Jalan Bedok,Kuala Lumpur,KUL
54100,Jalan Bukit Lima,Kuala Lumpur,KUL
54100,Jalan Bukit Tinggi (1 - 2),Kuala Lumpur,KUL
54100,Jalan Buku Lima,Kuala Lumpur,KUL
54100,Jalan Chendrik,Kuala Lumpur,KUL
54100,Jalan Douglas,Kuala Lumpur,KUL
54100,Jalan Graham,Kuala Lumpur,KUL
54100,Jalan Gray,Kuala Lumpur,KUL
54100,Jalan Gurney KIRI,Kuala Lumpur,KUL
54100,Jalan Hannigan,Kuala Lumpur,KUL
54100,Jalan Hulubalang,Kuala Lumpur,KUL
54100,Jalan Hussey,Kuala Lumpur,KUL
54100,Jalan Iskandar,Kuala Lumpur,KUL
54100,Jalan Jembai,Kuala Lumpur,KUL
54100,Jalan Jembiah,Kuala Lumpur,KUL
54100,Jalan Kerambit,Kuala Lumpur,KUL
54100,Jalan Lai Tet Loke,Kuala Lumpur,KUL
54100,Jalan Lang Worthy,Kuala Lumpur,KUL
54100,Jalan Lembing,Kuala Lumpur,KUL
54100,Jalan Mac Namara,Kuala Lumpur,KUL
54100,Jalan O'Connel,Kuala Lumpur,KUL
54100,Jalan Padang Tembak,Kuala Lumpur,KUL
54100,Jalan Pahlawan,Kuala Lumpur,KUL
54100,Jalan Ranjau,Kuala Lumpur,KUL
54100,Jalan Samson,Kuala Lumpur,KUL
54100,Jalan San Ah Wing,Kuala Lumpur,KUL
54100,Jalan Semarak,Kuala Lumpur,KUL
54100,Jalan Serampang,Kuala Lumpur,KUL
54100,Jalan Sundang,Kuala Lumpur,KUL
54100,Jalan Talbot,Kuala Lumpur,KUL
54100,Jalan Tekpi,Kuala Lumpur,KUL
54100,Jalan Tembak,Kuala Lumpur,KUL
54100,Jalan Tombak,Kuala Lumpur,KUL
54100,Jalan Tumbok Lada,Kuala Lumpur,KUL
54100,Jalan Wayne,Kuala Lumpur,KUL
54100,Kampung Boyan,Kuala Lumpur,KUL
54100,Laman Pendekar,Kuala Lumpur,KUL
54100,Lorong Baju Besi,Kuala Lumpur,KUL
54100,Lorong Beliong,Kuala Lumpur,KUL
54100,Lorong Golok,Kuala Lumpur,KUL
54100,Lorong Gurney,Kuala Lumpur,KUL
54100,Lorong Kelewang,Kuala Lumpur,KUL
54100,Lorong Kris,Kuala Lumpur,KUL
54100,Lorong Kubu,Kuala Lumpur,KUL
54100,Lorong Lading,Kuala Lumpur,KUL
54100,Lorong Lai Tet Loke (1 - 12),Kuala Lumpur,KUL
54100,Lorong Parang,Kuala Lumpur,KUL
54100,Lorong Pedang,Kuala Lumpur,KUL
54100,Lorong Pendekar,Kuala Lumpur,KUL
54100,Lorong Perisai,Kuala Lumpur,KUL
54100,Lorong Ranjau,Kuala Lumpur,KUL
54100,Lorong Renchong,Kuala Lumpur,KUL
54100,Lorong San Ah Wing,Kuala Lumpur,KUL
54100,Lorong Seligi,Kuala Lumpur,KUL
54100,Lorong Senjata,Kuala Lumpur,KUL
54100,Lorong Silat,Kuala Lumpur,KUL
54100,Lorong Sumpitan,Kuala Lumpur,KUL
54100,Lorong Tombak,Kuala Lumpur,KUL
54100,Lorong Tumbok Lada,Kuala Lumpur,KUL
54100,Polis Depoh,Kuala Lumpur,KUL
54100,Samson Park,Kuala Lumpur,KUL
54200,Desa Tun Hussein Onn,Kuala Lumpur,KUL
54200,Jalan AU 2,Kuala Lumpur,KUL
54200,Jalan AU 2/B,Kuala Lumpur,KUL
54200,Jalan AU 2A/1 - AU 2A/23,Kuala Lumpur,KUL
54200,Jalan AU 3/1,Kuala Lumpur,KUL
54200,Jalan AU 3/28,Kuala Lumpur,KUL
54200,Jalan Enggang Selatan,Kuala Lumpur,KUL
54200,Jalan Enggang Timur,Kuala Lumpur,KUL
54200,Jalan Enggang Utara,Kuala Lumpur,KUL
54200,Jalan Enggang,Kuala Lumpur,KUL
54200,Jalan Jelatek ,Kuala Lumpur,KUL
54200,Jalan Jelatek (1 - 5),Kuala Lumpur,KUL
54200,Kampung Seri Lembah Keramat,Kuala Lumpur,KUL
54200,Kampung Warisan,Kuala Lumpur,KUL
54200,Lorong Enggang (1 - 25),Kuala Lumpur,KUL
54200,Lorong Jelatek Kiri (1 - 3),Kuala Lumpur,KUL
54200,Lorong Jelatek,Kuala Lumpur,KUL
54200,Seri Maya,Kuala Lumpur,KUL
54200,Taman Desa Keramat,Kuala Lumpur,KUL
54200,Taman Keramat Permai,Kuala Lumpur,KUL
54200,Taman Keramat Wangsa,Kuala Lumpur,KUL
54200,Taman Keramat,Kuala Lumpur,KUL
54200,Taman Lembah Keramat (AU 5),Kuala Lumpur,KUL
54200,Taman Sepakat (AU 3),Kuala Lumpur,KUL
54200,Taman Seri Keramat Tengah (AU 4),Kuala Lumpur,KUL
54200,Taman Seri Keramat,Kuala Lumpur,KUL
54200,Taman Setiawangsa,Kuala Lumpur,KUL
54200,Ulu Klang Free Trade Zone,Kuala Lumpur,KUL
55000,Gerbang Ampang Hilir,Kuala Lumpur,KUL
55000,Jalan Aman,Kuala Lumpur,KUL
55000,Jalan Ampang Hilir (1 - 5),Kuala Lumpur,KUL
55000,Jalan Ampang Hilir,Kuala Lumpur,KUL
55000,Jalan Ampang Kiri,Kuala Lumpur,KUL
55000,Jalan Ampang Tengah,Kuala Lumpur,KUL
55000,Jalan Ampang Ulu 3,Kuala Lumpur,KUL
55000,Jalan Ampang Ulu,Kuala Lumpur,KUL
55000,Jalan Berembang (Pudu),Kuala Lumpur,KUL
55000,Jalan Damai,Kuala Lumpur,KUL
55000,Jalan Dedalu,Kuala Lumpur,KUL
55000,Jalan Fajar,Kuala Lumpur,KUL
55000,Jalan Kedondong (1 - 3),Kuala Lumpur,KUL
55000,Jalan Kedondong,Kuala Lumpur,KUL
55000,Jalan Kelab Golf,Kuala Lumpur,KUL
55000,Jalan Keranji (1 - 2),Kuala Lumpur,KUL
55000,Jalan Kundang (1 - 3),Kuala Lumpur,KUL
55000,Jalan Kundang,Kuala Lumpur,KUL
55000,Jalan Langgak Golf,Kuala Lumpur,KUL
55000,Jalan Madge,Kuala Lumpur,KUL
55000,Jalan Mengkuang,Kuala Lumpur,KUL
55000,Jalan Mengkudu,Kuala Lumpur,KUL
55000,Jalan Mesra Off Jalan Damai,Kuala Lumpur,KUL
55000,Jalan Mesra,Kuala Lumpur,KUL
55000,Jalan Murni,Kuala Lumpur,KUL
55000,Jalan Nipah,Kuala Lumpur,KUL
55000,Jalan Pegawai,Kuala Lumpur,KUL
55000,Jalan Penggawa,Kuala Lumpur,KUL
55000,Jalan Ritchie,Kuala Lumpur,KUL
55000,Jalan Ru (Pudu),Kuala Lumpur,KUL
55000,Jalan Sejahtera,Kuala Lumpur,KUL
55000,Jalan Taman U Thant (1 - 4),Kuala Lumpur,KUL
55000,Jalan Taman U Thant,Kuala Lumpur,KUL
55000,Jalan Taman U-Thant,Kuala Lumpur,KUL
55000,Jalan Tun Sri Lanang,Kuala Lumpur,KUL
55000,Jalan U Thant,Kuala Lumpur,KUL
55000,Jalan Wickham,Kuala Lumpur,KUL
55000,Kampung Berembang,Kuala Lumpur,KUL
55000,Kampung Desa Pahlawan,Kuala Lumpur,KUL
55000,Kampung Mengkudu,Kuala Lumpur,KUL
55000,Kampung Perwira Jaya,Kuala Lumpur,KUL
55000,Kelab Golf Di Raja Selangor,Kuala Lumpur,KUL
55000,Kondominium Iringan Hijau,Kuala Lumpur,KUL
55000,Lingkungan U Thant,Kuala Lumpur,KUL
55000,Lorong Ampang 2 (Ampang),Kuala Lumpur,KUL
55000,Lorong Damai (1 - 13),Kuala Lumpur,KUL
55000,Lorong Dedalu,Kuala Lumpur,KUL
55000,Lorong Enau,Kuala Lumpur,KUL
55000,Lorong Kedondong,Kuala Lumpur,KUL
55000,Lorong Kundang,Kuala Lumpur,KUL
55000,Lorong Mengkuang,Kuala Lumpur,KUL
55000,Lorong Mengkudu 1,Kuala Lumpur,KUL
55000,Lorong Mengkudu 2,Kuala Lumpur,KUL
55000,Lorong Mesra 1,Kuala Lumpur,KUL
55000,Lorong Mesra 2,Kuala Lumpur,KUL
55000,Lorong Mesra 3,Kuala Lumpur,KUL
55000,Lorong Mesra 4,Kuala Lumpur,KUL
55000,Lorong Ru Kedua,Kuala Lumpur,KUL
55000,Lorong Ru Pertama,Kuala Lumpur,KUL
55000,Lorong U Thant (1 - 2),Kuala Lumpur,KUL
55000,"Pangsapuri My Habitat, Jalan Aman",Kuala Lumpur,KUL
55000,Persiaran Ampang Hilir,Kuala Lumpur,KUL
55000,Persiaran Ampang,Kuala Lumpur,KUL
55000,Persiaran Anderson,Kuala Lumpur,KUL
55000,Persiaran Madge,Kuala Lumpur,KUL
55000,Persiaran Ritchie,Kuala Lumpur,KUL
55000,Pinggir Ridley,Kuala Lumpur,KUL
55000,U-Thant Residence,Kuala Lumpur,KUL
55100,Akademi Badminton Malaysia,Kuala Lumpur,KUL
55100,Bangunan LTAT,Kuala Lumpur,KUL
55100,Bangunan Yayasan Selangor,Kuala Lumpur,KUL
55100,Cangkat Thambi Dollah,Kuala Lumpur,KUL
55100,Dataran Pandan Prima,Kuala Lumpur,KUL
55100,Desa Pandan,Kuala Lumpur,KUL
55100,Fraser Business Park,Kuala Lumpur,KUL
55100,Hentian Pudu Raya,Kuala Lumpur,KUL
55100,Institut Kemahiran Mara,Kuala Lumpur,KUL
55100,Jalan A (Kampung Pandan),Kuala Lumpur,KUL
55100,Jalan 1/76 Off Jalan Kampung Pandan,Kuala Lumpur,KUL
55100,Jalan 2 (Kampung Pandan),Kuala Lumpur,KUL
55100,Jalan 6/1 - 6/11,Kuala Lumpur,KUL
55100,Jalan Abraham,Kuala Lumpur,KUL
55100,Jalan B (Kampung Pandan),Kuala Lumpur,KUL
55100,Jalan Baba,Kuala Lumpur,KUL
55100,Jalan Badak,Kuala Lumpur,KUL
55100,Jalan Barat,Kuala Lumpur,KUL
55100,Jalan Bayam,Kuala Lumpur,KUL
55100,Jalan Belangkas (1 - 3),Kuala Lumpur,KUL
55100,Jalan Belangkas,Kuala Lumpur,KUL
55100,Jalan Bendahara,Kuala Lumpur,KUL
55100,Jalan Benjamin,Kuala Lumpur,KUL
55100,Jalan Beruang,Kuala Lumpur,KUL
55100,Jalan Brunei Barat,Kuala Lumpur,KUL
55100,Jalan Brunei Selatan,Kuala Lumpur,KUL
55100,Jalan Brunei Utara,Kuala Lumpur,KUL
55100,Jalan Brunei,Kuala Lumpur,KUL
55100,Jalan Bugis,Kuala Lumpur,KUL
55100,Jalan Bukit Bintang,Kuala Lumpur,KUL
55100,Jalan Bulan (1 - 2),Kuala Lumpur,KUL
55100,Jalan Bulan,Kuala Lumpur,KUL
55100,Jalan C (Kampung Pandan),Kuala Lumpur,KUL
55100,Jalan Chan Ah Wing,Kuala Lumpur,KUL
55100,Jalan Cheong Yoke Choy,Kuala Lumpur,KUL
55100,Jalan Coales,Kuala Lumpur,KUL
55100,Jalan Cochrane,Kuala Lumpur,KUL
55100,Jalan D (Kampung Pandan),Kuala Lumpur,KUL
55100,Jalan Davies,Kuala Lumpur,KUL
55100,Jalan Delima,Kuala Lumpur,KUL
55100,Jalan E (Kampung Pandan),Kuala Lumpur,KUL
55100,Jalan F (Kampung Pandan),Kuala Lumpur,KUL
55100,Jalan Gading,Kuala Lumpur,KUL
55100,Jalan Gajah,Kuala Lumpur,KUL
55100,Jalan H (Kampung Pandan),Kuala Lumpur,KUL
55100,Jalan Horley,Kuala Lumpur,KUL
55100,Jalan Imbi,Kuala Lumpur,KUL
55100,Jalan Inai,Kuala Lumpur,KUL
55100,Jalan J (Kampung Pandan),Kuala Lumpur,KUL
55100,Jalan Jarret,Kuala Lumpur,KUL
55100,Jalan Jati,Kuala Lumpur,KUL
55100,Jalan Jejaka,Kuala Lumpur,KUL
55100,Jalan K (Kampung Pandan),Kuala Lumpur,KUL
55100,Jalan Kachang,Kuala Lumpur,KUL
55100,Jalan Kampung Pandan,Kuala Lumpur,KUL
55100,Jalan Kampung,Kuala Lumpur,KUL
55100,Jalan Kanchil,Kuala Lumpur,KUL
55100,Jalan Kangkong,Kuala Lumpur,KUL
55100,Jalan Keledek,Kuala Lumpur,KUL
55100,Jalan Kemuning,Kuala Lumpur,KUL
55100,Jalan Kepah,Kuala Lumpur,KUL
55100,Jalan Ketola,Kuala Lumpur,KUL
55100,Jalan Khoo Teik Ee,Kuala Lumpur,KUL
55100,Jalan Kijang,Kuala Lumpur,KUL
55100,Jalan Kundur,Kuala Lumpur,KUL
55100,Jalan Labu,Kuala Lumpur,KUL
55100,Jalan Laksamana,Kuala Lumpur,KUL
55100,Jalan Laman Peel,Kuala Lumpur,KUL
55100,Jalan Landak,Kuala Lumpur,KUL
55100,Jalan Mahkota,Kuala Lumpur,KUL
55100,Jalan Mc Conechy,Kuala Lumpur,KUL
55100,Jalan Melati,Kuala Lumpur,KUL
55100,Jalan Melor,Kuala Lumpur,KUL
55100,Jalan Memberang,Kuala Lumpur,KUL
55100,Jalan Menteri,Kuala Lumpur,KUL
55100,Jalan Metro Pudu,Kuala Lumpur,KUL
55100,Jalan Nakhoda Yusof (1 - 3),Kuala Lumpur,KUL
55100,Jalan Nakhoda Yusof,Kuala Lumpur,KUL
55100,Jalan Nicholes,Kuala Lumpur,KUL
55100,Jalan Nyonya,Kuala Lumpur,KUL
55100,Jalan Padang Walter Grenier,Kuala Lumpur,KUL
55100,Jalan Palmer,Kuala Lumpur,KUL
55100,Jalan Pandan Indah 4/33,Pandan,SGR
55100,Jalan Pandan Indah 6/10,Pandan,SGR
55100,Jalan Pandan Indah,Pandan,SGR
55100,Jalan Pandan Jaya,Kuala Lumpur,KUL
55100,Jalan Pandan Utama,Kuala Lumpur,KUL
55100,Jalan Pasar Baru,Kuala Lumpur,KUL
55100,Jalan Pasar,Kuala Lumpur,KUL
55100,Jalan Peel,Kuala Lumpur,KUL
55100,Jalan Pelandok,Kuala Lumpur,KUL
55100,Jalan Perkasa (Pudu),Kuala Lumpur,KUL
55100,Jalan Permaisuri,Kuala Lumpur,KUL
55100,Jalan Pertiwi,Kuala Lumpur,KUL
55100,Jalan Perwira,Kuala Lumpur,KUL
55100,Jalan Pudu,Kuala Lumpur,KUL
55100,Jalan Punai,Kuala Lumpur,KUL
55100,Jalan Rawa,Kuala Lumpur,KUL
55100,Jalan Rusa,Kuala Lumpur,KUL
55100,Jalan Satu,Kuala Lumpur,KUL
55100,Jalan Sayor,Kuala Lumpur,KUL
55100,Jalan Seladang,Kuala Lumpur,KUL
55100,Jalan Selatan,Kuala Lumpur,KUL
55100,Jalan Shahbandar,Kuala Lumpur,KUL
55100,Jalan Shelly,Kuala Lumpur,KUL
55100,Jalan Temenggong,Kuala Lumpur,KUL
55100,Jalan Terong,Kuala Lumpur,KUL
55100,Jalan Thaver,Kuala Lumpur,KUL
55100,Jalan Timun,Kuala Lumpur,KUL
55100,Jalan Utara,Kuala Lumpur,KUL
55100,Jalan Walter Grenier,Kuala Lumpur,KUL
55100,Jalan Yap Thai Chi,Kuala Lumpur,KUL
55100,Jalan Yew,Kuala Lumpur,KUL
55100,Kampung Dato Harun,Kuala Lumpur,KUL
55100,Kampung Dollah,Kuala Lumpur,KUL
55100,Kampung Imbi,Kuala Lumpur,KUL
55100,Kampung Loke Yuen,Kuala Lumpur,KUL
55100,Kampung Pandan Dalam,Kuala Lumpur,KUL
55100,Kampung Pandan Luar,Kuala Lumpur,KUL
55100,Kampung Peel,Kuala Lumpur,KUL
55100,Kampung Perwira,Kuala Lumpur,KUL
55100,Kampung Sungai Kerayong,Kuala Lumpur,KUL
55100,Kampung Thambi Dollah,Kuala Lumpur,KUL
55100,Laman Coales,Kuala Lumpur,KUL
55100,Laman Mc Conechy,Kuala Lumpur,KUL
55100,Laman Peel,Kuala Lumpur,KUL
55100,Lebuhraya Peel,Kuala Lumpur,KUL
55100,Lengkok Brunei Selatan,Kuala Lumpur,KUL
55100,Lengkongan Brunei,Kuala Lumpur,KUL
55100,Lorong G1 (Kampung Pandan),Kuala Lumpur,KUL
55100,Lorong G2 (Kampung Pandan),Kuala Lumpur,KUL
55100,Lorong J1 - 5 (Kampung Pandan),Kuala Lumpur,KUL
55100,Lorong L1 - L5 (Kampung Pandan),Kuala Lumpur,KUL
55100,Lorong 1 (Kampung Pandan),Kuala Lumpur,KUL
55100,Lorong 2 (Kampung Pandan),Kuala Lumpur,KUL
55100,Lorong 3 (Kampung Pandan),Kuala Lumpur,KUL
55100,Lorong 4 (Kampung Pandan),Kuala Lumpur,KUL
55100,Lorong 5 (Kampung Pandan),Kuala Lumpur,KUL
55100,Lorong 6 (Kampung Pandan),Kuala Lumpur,KUL
55100,Lorong 7 (Kampung Pandan),Kuala Lumpur,KUL
55100,Lorong 8 (Kampung Pandan),Kuala Lumpur,KUL
55100,Lorong B1 - 8 (Kampung Pandan),Kuala Lumpur,KUL
55100,Lorong Baba,Kuala Lumpur,KUL
55100,Lorong Belangkas (1 - 3),Kuala Lumpur,KUL
55100,Lorong Bendahara,Kuala Lumpur,KUL
55100,Lorong Brunei (1 - 3),Kuala Lumpur,KUL
55100,Lorong Brunei Selatan,Kuala Lumpur,KUL
55100,Lorong Bukit Bintang,Kuala Lumpur,KUL
55100,Lorong C1 - 10 (Kampung Pandan),Kuala Lumpur,KUL
55100,Lorong CJ 1 - 2 (Kampung Pandan),Kuala Lumpur,KUL
55100,Lorong Cheong Yoke Choy,Kuala Lumpur,KUL
55100,Lorong Cochrane,Kuala Lumpur,KUL
55100,Lorong D1 - 12 (Kampung Pandan),Kuala Lumpur,KUL
55100,Lorong Davis,Kuala Lumpur,KUL
55100,Lorong Delapan (Kampung Pandan),Kuala Lumpur,KUL
55100,Lorong Imbi,Kuala Lumpur,KUL
55100,Lorong Jarret (1 - 2),Kuala Lumpur,KUL
55100,Lorong K1 - 5 (Kampung Pandan),Kuala Lumpur,KUL
55100,Lorong Kampung Pandan,Kuala Lumpur,KUL
55100,Lorong Kanan 1 (Kampung Pandan),Kuala Lumpur,KUL
55100,Lorong Kiri 1 - 2 (Kampung Pandan),Kuala Lumpur,KUL
55100,Lorong Laksamana,Kuala Lumpur,KUL
55100,Lorong Mc Conechy,Kuala Lumpur,KUL
55100,Lorong Menteri,Kuala Lumpur,KUL
55100,Lorong Nakhoda Yusof,Kuala Lumpur,KUL
55100,Lorong Panglima,Kuala Lumpur,KUL
55100,Lorong Peel,Kuala Lumpur,KUL
55100,Lorong Permaisuri,Kuala Lumpur,KUL
55100,Lorong Selatan,Kuala Lumpur,KUL
55100,Lorong Shahbandar,Kuala Lumpur,KUL
55100,Lorong Temenggong,Kuala Lumpur,KUL
55100,Lorong Thambi (1 - 2),Kuala Lumpur,KUL
55100,Lorong Walter Grenier,Kuala Lumpur,KUL
55100,Lorong Yap Hin,Kuala Lumpur,KUL
55100,Lorong Yap Tai Chi,Kuala Lumpur,KUL
55100,Majlis Perbandaran Ampang Jaya,Kuala Lumpur,KUL
55100,Medan Imbi,Kuala Lumpur,KUL
55100,Pandan Indah Commercial Centre,Kuala Lumpur,KUL
55100,Pandan Indah,Kuala Lumpur,KUL
55100,Pandan Jaya,Kuala Lumpur,KUL
55100,Pandan Maju,Kuala Lumpur,KUL
55100,Taman Ampang Hilir,Kuala Lumpur,KUL
55100,Taman Maluri,Kuala Lumpur,KUL
55100,Taman Seri Angsana,Kuala Lumpur,KUL
55200,Gourlay Crescent,Kuala Lumpur,KUL
55200,Jalan 2 (Chan Sow Lin 2),Kuala Lumpur,KUL
55200,Jalan 3 (Chan Sow Lin 3),Kuala Lumpur,KUL
55200,Jalan 4 (Chan Sow Lin 4),Kuala Lumpur,KUL
55200,Jalan 5 (Chan Sow Lin 5),Kuala Lumpur,KUL
55200,Jalan 6 (Chan Sow Lin 6),Kuala Lumpur,KUL
55200,Jalan Baiduri,Kuala Lumpur,KUL
55200,Jalan Bijeh,Kuala Lumpur,KUL
55200,Jalan Chan Sow Lin,Kuala Lumpur,KUL
55200,Jalan Chinchin,Kuala Lumpur,KUL
55200,Jalan Foss,Kuala Lumpur,KUL
55200,Jalan Gadek,Kuala Lumpur,KUL
55200,Jalan Galian,Kuala Lumpur,KUL
55200,Jalan Gelang,Kuala Lumpur,KUL
55200,Jalan Gelugor,Kuala Lumpur,KUL
55200,Jalan Gourley,Kuala Lumpur,KUL
55200,Jalan Hang Tuah,Kuala Lumpur,KUL
55200,Jalan Jublee,Kuala Lumpur,KUL
55200,Jalan Kalong,Kuala Lumpur,KUL
55200,Jalan Kelian,Kuala Lumpur,KUL
55200,Jalan Kenanga,Kuala Lumpur,KUL
55200,Jalan Lengkuas,Kuala Lumpur,KUL
55200,Jalan Logam,Kuala Lumpur,KUL
55200,Jalan Loke Yew,Kuala Lumpur,KUL
55200,Jalan Lombong,Kuala Lumpur,KUL
55200,Jalan Mempelam,Kuala Lumpur,KUL
55200,Jalan Meranti,Kuala Lumpur,KUL
55200,Jalan Merlimau,Kuala Lumpur,KUL
55200,Jalan Nilam,Kuala Lumpur,KUL
55200,Jalan Palong,Kuala Lumpur,KUL
55200,Jalan San Peng,Kuala Lumpur,KUL
55200,Jalan Sarawak,Kuala Lumpur,KUL
55200,Jalan Satu Enam,Kuala Lumpur,KUL
55200,Jalan Sunting,Kuala Lumpur,KUL
55200,Kampung Chan Sow Lin,Kuala Lumpur,KUL
55200,Kampung Cheras (Batu 2 1/2),Kuala Lumpur,KUL
55200,Kampung SamYoke,Kuala Lumpur,KUL
55200,Kampung Samuel,Kuala Lumpur,KUL
55200,Lingkungan Jauhari,Kuala Lumpur,KUL
55200,Lorong Gelugor,Kuala Lumpur,KUL
55200,Lorong Gourlay,Kuala Lumpur,KUL
55200,Lorong Jubilee,Kuala Lumpur,KUL
55200,Lorong Kenanga,Kuala Lumpur,KUL
55200,Lorong Loke Yew,Kuala Lumpur,KUL
55200,Lorong Meranti (1 - 3),Kuala Lumpur,KUL
55200,Lorong Meranti,Kuala Lumpur,KUL
55200,Lorong Merbau,Kuala Lumpur,KUL
55200,Lorong Merlimau 1,Kuala Lumpur,KUL
55200,Lorong Merlimau,Kuala Lumpur,KUL
55200,Lorong Sarawak,Kuala Lumpur,KUL
55200,Persiaran Jubilee,Kuala Lumpur,KUL
55200,Taman Miharja,Kuala Lumpur,KUL
55300,Pandan Perdana,Kuala Lumpur,KUL
55700,Pudu - Peti surat 6001 - 6054,Kuala Lumpur,KUL
55700,Pudu - Peti surat 6056 - 6064,Kuala Lumpur,KUL
55700,Pudu - Peti surat 6067 - 6077,Kuala Lumpur,KUL
55700,Pudu - Peti surat 6070 - 6080,Kuala Lumpur,KUL
55710,Pudu - Peti surat 6081 - 6100,Kuala Lumpur,KUL
55710,Pudu - Peti surat 6102,Kuala Lumpur,KUL
55710,Pudu - Peti surat 6104 - 6117,Kuala Lumpur,KUL
55710,Pudu - Peti surat 6119,Kuala Lumpur,KUL
55710,Pudu - Peti surat 6121,Kuala Lumpur,KUL
55710,Pudu - Peti surat 6131,Kuala Lumpur,KUL
55710,Pudu - Peti surat 6133 - 6139,Kuala Lumpur,KUL
55710,Pudu - Peti surat 6141 - 6145,Kuala Lumpur,KUL
55710,Pudu - Peti surat 6147,Kuala Lumpur,KUL
55710,Pudu - Peti surat 6149,Kuala Lumpur,KUL
55710,Pudu - Peti surat 6151 - 6154,Kuala Lumpur,KUL
55710,Pudu - Peti surat 6156 - 6160,Kuala Lumpur,KUL
55720,Pudu - Peti surat 6161 - 6184,Kuala Lumpur,KUL
55720,Pudu - Peti surat 6186 - 6202,Kuala Lumpur,KUL
55720,Pudu - Peti surat 6204 & ke atas,Kuala Lumpur,KUL
55900,Pudu - Peti surat 6055,Kuala Lumpur,KUL
55902,Pudu - Peti surat 6065,Kuala Lumpur,KUL
55904,Pudu - Peti surat 6066,Kuala Lumpur,KUL
55906,Pudu - Peti surat 6078,Kuala Lumpur,KUL
55908,Pudu - Peti surat 6079,Kuala Lumpur,KUL
55910,Pudu - Peti surat 6101,Kuala Lumpur,KUL
55912,Pudu - Peti surat 6103,Kuala Lumpur,KUL
55914,Pudu - Peti surat 6118,Kuala Lumpur,KUL
55916,Pudu - Peti surat 6120,Kuala Lumpur,KUL
55918,Pudu - Peti surat 6122,Kuala Lumpur,KUL
55920,Pudu - Peti surat 6132,Kuala Lumpur,KUL
55922,Pudu - Peti surat 6140,Kuala Lumpur,KUL
55924,Pudu - Peti surat 6146,Kuala Lumpur,KUL
55926,Pudu - Peti surat 6148,Kuala Lumpur,KUL
55928,Pudu - Peti surat 6150,Kuala Lumpur,KUL
55930,Pudu - Peti surat 6155,Kuala Lumpur,KUL
55932,Pudu - Peti surat 6185,Kuala Lumpur,KUL
55934,Pudu - Peti surat 6203,Kuala Lumpur,KUL
55990,Pudu - Beg berkunci,Kuala Lumpur,KUL
56000,Alam Damai,Kuala Lumpur,KUL
56000,Amber Business Plaza 2,Kuala Lumpur,KUL
56000,Bandar Damai Perdana,Kuala Lumpur,KUL
56000,Bandar Sri Permaisuri,Kuala Lumpur,KUL
56000,Bandar Tasik Permaisuri,Kuala Lumpur,KUL
56000,Bandar Tun Razak,Kuala Lumpur,KUL
56000,Bukit Mandarina,Kuala Lumpur,KUL
56000,Desa Tun Razak,Kuala Lumpur,KUL
56000,Jabatan Pentadbiran Awam Hospital Universiti Kebangsaan Malaysia,Kuala Lumpur,KUL
56000,Jalan 1/90 E - 4/90 E,Kuala Lumpur,KUL
56000,Jalan 1/90 G - 5/90 G,Kuala Lumpur,KUL
56000,Jalan Bangsawan,Kuala Lumpur,KUL
56000,Jalan Budiman,Kuala Lumpur,KUL
56000,Jalan Bukit Prima,Kuala Lumpur,KUL
56000,Jalan Chekap,Kuala Lumpur,KUL
56000,Jalan Connaught,Kuala Lumpur,KUL
56000,Jalan Damai Niaga,Kuala Lumpur,KUL
56000,Jalan Damai Perdana 2/7D,Kuala Lumpur,KUL
56000,Jalan Damai Perdana 6/1F,Cheras,SGR
56000,Jalan Damai Perdana 9/2A,Cheras,SGR
56000,Jalan Danau Lumayan,Cheras,KUL
56000,Jalan Dato Haji Harun,Kuala Lumpur,KUL
56000,Jalan Ikan Emas,Kuala Lumpur,KUL
56000,Jalan Jelawat 1,Kuala Lumpur,KUL
56000,Jalan Manda'Rina Damai,Kuala Lumpur,KUL
56000,Jalan Mewah 4,Kuala Lumpur,KUL
56000,Jalan Nadchatiram,Kuala Lumpur,KUL
56000,Jalan Oasis 3,Kuala Lumpur,KUL
56000,Jalan Sebarau,Kuala Lumpur,KUL
56000,Jalan Sekilau,Kuala Lumpur,KUL
56000,Jalan Selimang,Kuala Lumpur,KUL
56000,Jalan Seluang,Kuala Lumpur,KUL
56000,Jalan Sembilang,Kuala Lumpur,KUL
56000,Jalan Sempilai,Kuala Lumpur,KUL
56000,Jalan Sengaring,Kuala Lumpur,KUL
56000,Jalan Siakap,Kuala Lumpur,KUL
56000,Jalan Siput (1 - 4),Kuala Lumpur,KUL
56000,Jalan Siput Akek,Kuala Lumpur,KUL
56000,Jalan Siput,Kuala Lumpur,KUL
56000,Jalan Sri Permaisuri 3,Kuala Lumpur,KUL
56000,Jalan Tasik Permaisuri 2,Kuala Lumpur,KUL
56000,Jalan Tasik Permaisuri 3,Kuala Lumpur,KUL
56000,Jalan Tenteram 1,Kuala Lumpur,KUL
56000,Jalan Tenteram,Kuala Lumpur,KUL
56000,Jalan Tiram (1 - 3),Kuala Lumpur,KUL
56000,Jalan Tiram,Kuala Lumpur,KUL
56000,Kompleks Belia Antarabangsa,Kuala Lumpur,KUL
56000,Kondominium Cengal,Kuala Lumpur,KUL
56000,Laman Oasis Cheras Utama,Kuala Lumpur,KUL
56000,Lingkungan Ikan Emas,Kuala Lumpur,KUL
56000,Lorong Budiman (1 - 4),Kuala Lumpur,KUL
56000,Lorong Ikan Emas (1 - 6),Kuala Lumpur,KUL
56000,Lorong Ikan Emas,Kuala Lumpur,KUL
56000,Pusat Perniagaan Danau Lumayan,Cheras,KUL
56000,Rumah Pangsa Sri Johor,Kuala Lumpur,KUL
56000,Rumah Pangsa Sri Melaka,Kuala Lumpur,KUL
56000,Rumah Pangsa Sri Pulau Pinang,Kuala Lumpur,KUL
56000,Rumah Pangsa Sri Sabah,Kuala Lumpur,KUL
56000,Stadium Badminton,Kuala Lumpur,KUL
56000,Suria Industrial Park,Kuala Lumpur,KUL
56000,Taman Alam Damai,Kuala Lumpur,KUL
56000,Taman Angsana (Cheras),Kuala Lumpur,KUL
56000,Taman Billion,Kuala Lumpur,KUL
56000,Taman Bukit Anggerik,Kuala Lumpur,KUL
56000,Taman Bukit Angsana,Kuala Lumpur,KUL
56000,Taman Bukit Cheras,Kuala Lumpur,KUL
56000,Taman Bukit Hijau,Kuala Lumpur,KUL
56000,Taman Bukit Prima,Cheras,SGR
56000,Taman Cheras Mewah,Kuala Lumpur,KUL
56000,Taman Cheras Utama (Contoh Nama Jalan CU 2),Kuala Lumpur,KUL
56000,Taman Dahlia,Kuala Lumpur,KUL
56000,Taman Damai Impian 2,Kuala Lumpur,KUL
56000,Taman Damai Indah,Kuala Lumpur,KUL
56000,Taman Delima,Kuala Lumpur,KUL
56000,Taman Desa Baiduri,Kuala Lumpur,KUL
56000,Taman Desa Cheras,Kuala Lumpur,KUL
56000,Taman Ikan Emas,Kuala Lumpur,KUL
56000,Taman Jaya Baru,Kuala Lumpur,KUL
56000,Taman Len Seng,Kuala Lumpur,KUL
56000,Taman Midah,Kuala Lumpur,KUL
56000,Taman Minang,Kuala Lumpur,KUL
56000,Taman Mulia,Kuala Lumpur,KUL
56000,Taman Mutiara Barat,Kuala Lumpur,KUL
56000,Taman Mutiara,Kuala Lumpur,KUL
56000,Taman Okid Desa,Kuala Lumpur,KUL
56000,Taman Seri Bahagia,Kuala Lumpur,KUL
56000,Taman Seri Cendekia (Connaught),Kuala Lumpur,KUL
56000,Taman Suet Chow,Kuala Lumpur,KUL
56000,Taman Suria Jaya,Kuala Lumpur,KUL
56000,Taman Tayton View,Kuala Lumpur,KUL
56000,Taman Tenaga (Ikhsan),Kuala Lumpur,KUL
56000,"The Peak, Taman Bukit Prima",Kuala Lumpur,KUL
56100,Apartment Pertama Residensi,Kuala Lumpur,KUL
56100,Astaka Heights,Kuala Lumpur,KUL
56100,Bukit Pandan Bistari,Kuala Lumpur,KUL
56100,Cheras Heights,Kuala Lumpur,KUL
56100,"Dataran Mestika, Cheras",Kuala Lumpur,KUL
56100,Hwa Li Housing,Kuala Lumpur,KUL
56100,Jalan 3/101C,Kuala Lumpur,KUL
56100,Jalan 3/92 B,Kuala Lumpur,KUL
56100,Jalan Badam (1 - 9),Kuala Lumpur,KUL
56100,Jalan Badam,Kuala Lumpur,KUL
56100,Jalan Bawang,Kuala Lumpur,KUL
56100,Jalan Bukit Pandan Bistari 5 Cheras Baru,Cheras,SGR
56100,Jalan Cerapu 1,Kuala Lumpur,KUL
56100,Jalan Cerapu,Kuala Lumpur,KUL
56100,Jalan Cheras (Hingga Km 10.5),Kuala Lumpur,KUL
56100,Jalan Jalak,Kuala Lumpur,KUL
56100,Jalan Jintan Manis,Kuala Lumpur,KUL
56100,Jalan Jintan,Kuala Lumpur,KUL
56100,Jalan Kuari,Kuala Lumpur,KUL
56100,Jalan Lanchang (1 - 4),Kuala Lumpur,KUL
56100,"Jalan Mawar 17, Cheras",Kuala Lumpur,KUL
56100,Jalan Mega 5,Cheras,SGR
56100,Jalan Mega 6,Cheras,SGR
56100,Jalan Palaga,Kuala Lumpur,KUL
56100,Jalan Payang,Kuala Lumpur,KUL
56100,Jalan Pelaga,Kuala Lumpur,KUL
56100,Jalan Pudu Impian,Kuala Lumpur,KUL
56100,Jalan Pudu Ulu,Kuala Lumpur,KUL
56100,Jalan Sekuci,Kuala Lumpur,KUL
56100,Jalan Selangat,Kuala Lumpur,KUL
56100,Jalan Selar (1 - 4),Kuala Lumpur,KUL
56100,Jalan Selar,Kuala Lumpur,KUL
56100,Jalan Selasih,Kuala Lumpur,KUL
56100,Jalan Senjolong,Kuala Lumpur,KUL
56100,Jalan Senohong (1 - 4),Kuala Lumpur,KUL
56100,Jalan Senohong,Kuala Lumpur,KUL
56100,Jalan Serai Wangi,Kuala Lumpur,KUL
56100,Jalan Serkut (1 - 2),Kuala Lumpur,KUL
56100,Jalan Serkut,Kuala Lumpur,KUL
56100,Kampung Cheras Baru,Kuala Lumpur,KUL
56100,Kampung Damai,Kuala Lumpur,KUL
56100,Kampung RajawalI,Kuala Lumpur,KUL
56100,Kampung Semerah Padi (Tangki Air),Kuala Lumpur,KUL
56100,Kampung Seri Damai,Kuala Lumpur,KUL
56100,Kampung Supreme,Kuala Lumpur,KUL
56100,Lintasan Badam,Kuala Lumpur,KUL
56100,Lorong Jintan (1 - 4),Kuala Lumpur,KUL
56100,Lorong Jintan Manis,Kuala Lumpur,KUL
56100,Lorong Lobak,Kuala Lumpur,KUL
56100,Lorong Selangat 1,Kuala Lumpur,KUL
56100,Lorong Selangat,Kuala Lumpur,KUL
56100,Medan Niaga Mutiara Cheras,Kuala Lumpur,KUL
56100,"Pangsapuri Bukit Bayu, Taman Cheras Baru",Kuala Lumpur,KUL
56100,Pudu Heights,Kuala Lumpur,KUL
56100,Pudu Ulu,Kuala Lumpur,KUL
56100,Taman Bukit Mewah,Kuala Lumpur,KUL
56100,Taman Bukit Permai,Kuala Lumpur,KUL
56100,Taman Bukit Ria,Kuala Lumpur,KUL
56100,Taman Bukit Teratai,Kuala Lumpur,KUL
56100,Taman Cantik,Kuala Lumpur,KUL
56100,Taman Cheras Indah,Kuala Lumpur,KUL
56100,Taman Cheras Makmur,Kuala Lumpur,KUL
56100,Taman Cheras Utama (Contoh Nama Jalan 2/95B),Kuala Lumpur,KUL
56100,Taman Cheras,Kuala Lumpur,KUL
56100,Taman Desa Aman,Kuala Lumpur,KUL
56100,Taman Gemilang,Kuala Lumpur,KUL
56100,Taman Industri Bukit Permai,Kuala Lumpur,KUL
56100,Taman Kencana,Cheras,SGR
56100,Taman Kencana,Kuala Lumpur,KUL
56100,Taman Kobena,Kuala Lumpur,KUL
56100,Taman Lembah Maju,Kuala Lumpur,KUL
56100,Taman Maju Jaya,Kuala Lumpur,KUL
56100,Taman Mawar,Kuala Lumpur,KUL
56100,Taman Mega Jaya,Kuala Lumpur,KUL
56100,"Taman Mestika, Cheras",Cheras,KUL
56100,Taman Muda,Kuala Lumpur,KUL
56100,Taman Mutiara Timur,Kuala Lumpur,KUL
56100,Taman Pertama,Kuala Lumpur,KUL
56100,Taman Putra,Kuala Lumpur,KUL
56100,Taman Rajawali,Kuala Lumpur,KUL
56100,Taman Saraya,Kuala Lumpur,KUL
56100,Taman Segar,Kuala Lumpur,KUL
56100,Taman Seraya,Kuala Lumpur,KUL
56100,Taman Seri Bahtera,Kuala Lumpur,KUL
56100,Taman Seri Semudera (Taman Pertama),Kuala Lumpur,KUL
56100,Taman Shamelin Perkasa,Kuala Lumpur,KUL
56100,Taman Shamelin,Kuala Lumpur,KUL
56100,Taman Supreme,Kuala Lumpur,KUL
57000,Aked Esplanad Bukit Jalil,Kuala Lumpur,KUL
57000,Bandar Baru Seri Petaling,Kuala Lumpur,KUL
57000,Bandar Tasik Selatan,Kuala Lumpur,KUL
57000,Bukit Jalil Intergrated Park,Kuala Lumpur,KUL
57000,Bukit Jalil,Kuala Lumpur,KUL
57000,Cross Street (Sungai Besi),Kuala Lumpur,KUL
57000,Desa Tasik,Kuala Lumpur,KUL
57000,Endah Puri,Kuala Lumpur,KUL
57000,Jalan 1/155A Bukit Jalil,Kuala Lumpur,KUL
57000,Jalan Alam Sutera 19,Kuala Lumpur,KUL
57000,Jalan Balai Polis (Sungai Besi),Kuala Lumpur,KUL
57000,Jalan Belakang Balai Polis,Kuala Lumpur,KUL
57000,Jalan Besar Sungai Besi,Kuala Lumpur,KUL
57000,Jalan Gangsa,Kuala Lumpur,KUL
57000,Jalan Jalil Perkasa 7,Kuala Lumpur,KUL
57000,Jalan Pasar (Sungai Besi),Kuala Lumpur,KUL
57000,Jalan Pejabat Pos,Kuala Lumpur,KUL
57000,Jalan Radin Bagus,Kuala Lumpur,KUL
57000,Jalan Silang (Sungai Besi),Kuala Lumpur,KUL
57000,Jalan Toh Kong,Kuala Lumpur,KUL
57000,Jalan Tokong China,Kuala Lumpur,KUL
57000,Jalan Wan Malini,Kuala Lumpur,KUL
57000,Kampung Balakong,Kuala Lumpur,KUL
57000,Kampung Benggali,Kuala Lumpur,KUL
57000,Kampung Pinang,Kuala Lumpur,KUL
57000,Kampung Selamat (Sungai Besi),Kuala Lumpur,KUL
57000,Kampung Seri Muhibbah,Kuala Lumpur,KUL
57000,Kampung Seri Perantau,Kuala Lumpur,KUL
57000,Kelab Lumba Kuda Kuala Lumpur,Kuala Lumpur,KUL
57000,Kelab Lumba Kuda Selangor,Kuala Lumpur,KUL
57000,Kem Gerissen Sungai Besi,Kuala Lumpur,KUL
57000,Kompleks Pasar (Sungai Besi),Kuala Lumpur,KUL
57000,Kompleks Sukan Negara,Kuala Lumpur,KUL
57000,Kuyow Street,Kuala Lumpur,KUL
57000,Kuyow,Kuala Lumpur,KUL
57000,Market Street (Sungai Besi),Kuala Lumpur,KUL
57000,Pangsapuri Savanna 2 Bukit Jalil,Kuala Lumpur,KUL
57000,Savanna Bukit Jalil,Kuala Lumpur,KUL
57000,Serdang Lama (Hingga Km 19),Kuala Lumpur,KUL
57000,Serdang Lama,Kuala Lumpur,KUL
57000,Sungai Besi (Pekan),Kuala Lumpur,KUL
57000,Sungai Besi Camp,Kuala Lumpur,KUL
57000,Sungai Besi Mines,Kuala Lumpur,KUL
57000,Taman Alam Sutera,Kuala Lumpur,KUL
57000,Taman Bukit Intan,Kuala Lumpur,KUL
57000,Taman Bukit Petaling (Sungai Besi),Kuala Lumpur,KUL
57000,Taman Impian Indah,Kuala Lumpur,KUL
57000,Taman LTAT Bukit Jalil,Kuala Lumpur,KUL
57000,Taman Seri Budiman,Kuala Lumpur,KUL
57000,Taman Seri Indah (Sungai Besi),Kuala Lumpur,KUL
57000,Taman Seri Petaling,Kuala Lumpur,KUL
57000,Taman Sri Endah,Kuala Lumpur,KUL
57000,Taman Teknologi Malaysia,Kuala Lumpur,KUL
57100,Batu Kong,Kuala Lumpur,KUL
57100,Jalan 1/108C (Salak Selatan),Kuala Lumpur,KUL
57100,Jalan 1/125A (Desa Petaling),Kuala Lumpur,KUL
57100,Jalan 12/108C (Salak Selatan),Kuala Lumpur,KUL
57100,Jalan 13/108C (Salak Selatan),Kuala Lumpur,KUL
57100,Jalan 14/108C (Salak Selatan),Kuala Lumpur,KUL
57100,Jalan 3/141,Kuala Lumpur,KUL
57100,Jalan 3/89B - 6/89B,Kuala Lumpur,KUL
57100,Jalan 6/108C (Salak Selatan),Kuala Lumpur,KUL
57100,Jalan Belerang,Kuala Lumpur,KUL
57100,Jalan Besar Salak Selatan,Kuala Lumpur,KUL
57100,Jalan Besi Waja (1 & 2),Kuala Lumpur,KUL
57100,Jalan Besi Waja,Kuala Lumpur,KUL
57100,Jalan Emas,Kuala Lumpur,KUL
57100,Jalan Intan,Kuala Lumpur,KUL
57100,Jalan Landai Permai,Kuala Lumpur,KUL
57100,Jalan Lapangan Permai Off Jalan Istana,Kuala Lumpur,KUL
57100,Jalan Maya (Salak Selatan),Kuala Lumpur,KUL
57100,Jalan Permatang Pasir,Kuala Lumpur,KUL
57100,Jalan Sungai Besi,Kuala Lumpur,KUL
57100,Kampung Baru Salak Selatan,Kuala Lumpur,KUL
57100,Kampung Batu Kong,Kuala Lumpur,KUL
57100,Kampung Malaysia Baru,Kuala Lumpur,KUL
57100,Kampung Malaysia Raya,Kuala Lumpur,KUL
57100,Kampung Malaysia Tambahan,Kuala Lumpur,KUL
57100,Kampung Malaysia,Kuala Lumpur,KUL
57100,Kampung Maya,Kuala Lumpur,KUL
57100,Kampung Melayu (Sungai Besi),Kuala Lumpur,KUL
57100,Kampung Pakar,Kuala Lumpur,KUL
57100,Kampung Pasir (Sungai Besi),Kuala Lumpur,KUL
57100,Kampung Pertama,Kuala Lumpur,KUL
57100,Kampung Raya Permai,Kuala Lumpur,KUL
57100,Kampung Satu (Jalan Sungai Besi),Kuala Lumpur,KUL
57100,Kampung Seri Indah,Kuala Lumpur,KUL
57100,Kampung Seri Malaysia,Kuala Lumpur,KUL
57100,Kampung Sungai Besi,Kuala Lumpur,KUL
57100,Kampung Syed Mohamad,Kuala Lumpur,KUL
57100,Kampung Tai San,Kuala Lumpur,KUL
57100,Kawasan PerIndustrian Tri Segi,Kuala Lumpur,KUL
57100,Petaling Indah,Kuala Lumpur,KUL
57100,Pusat Serenti Sungai Besi,Kuala Lumpur,KUL
57100,Salak Selatan Baru,Kuala Lumpur,KUL
57100,Salak Selatan,Kuala Lumpur,KUL
57100,Taman Castlefield,Kuala Lumpur,KUL
57100,Taman Desa Petaling,Kuala Lumpur,KUL
57100,Taman Naga Mas,Kuala Lumpur,KUL
57100,Taman Perumahan Rakyat Seri Malaysia,Kuala Lumpur,KUL
57100,Taman Salak Jaya,Kuala Lumpur,KUL
57100,Taman Salak Selatan,Kuala Lumpur,KUL
57100,Taman Sungai Besi,Kuala Lumpur,KUL
57100,Taman Tasek Selatan,Kuala Lumpur,KUL
57700,Sungai Besi - Peti surat (7001 & ke atas),Kuala Lumpur,KUL
57990,Sungai Besi - Beg berkunci,Kuala Lumpur,KUL
58000,Bedford Bussiness Park,Kuala Lumpur,KUL
58000,Bukit Raja,Kuala Lumpur,KUL
58000,Jalan 10/109C,Kuala Lumpur,KUL
58000,Jalan Batu Laut (1 - 2),Kuala Lumpur,KUL
58000,Jalan Batu Laut,Kuala Lumpur,KUL
58000,Jalan Chekor,Kuala Lumpur,KUL
58000,Jalan Jenjarom,Kuala Lumpur,KUL
58000,Jalan Klang Lama (Hingga Km 9.5),Kuala Lumpur,KUL
58000,Jalan Kota Raja,Kuala Lumpur,KUL
58000,Jalan Padang Jawa,Kuala Lumpur,KUL
58000,Jalan Penghulu Mat,Kuala Lumpur,KUL
58000,Jalan Serai,Kuala Lumpur,KUL
58000,Jalan Sungai Manggis,Kuala Lumpur,KUL
58000,Jalan Taman Seputeh (1 - 7),Kuala Lumpur,KUL
58000,Jalan Tanjong 12,Kuala Lumpur,KUL
58000,Jalan Tanjong Sepat (1 - 2),Kuala Lumpur,KUL
58000,Jalan Tanjong Sepat,Kuala Lumpur,KUL
58000,Jalan Teluk Batu,Kuala Lumpur,KUL
58000,Jalan Teluk Penglima Garang,Kuala Lumpur,KUL
58000,Jalan Teluk Pulai Kanan,Kuala Lumpur,KUL
58000,Jalan Teluk Pulai Kiri,Kuala Lumpur,KUL
58000,Jalan Teluk Pulai,Kuala Lumpur,KUL
58000,Kampung Manggis,Kuala Lumpur,KUL
58000,Kampung Sentosa Sepakat,Kuala Lumpur,KUL
58000,Kampung Sentosa,Kuala Lumpur,KUL
58000,Kampung Seri Sentosa,Kuala Lumpur,KUL
58000,Kampung Teepi Sungai,Kuala Lumpur,KUL
58000,Lengkongan Jenjarom,Kuala Lumpur,KUL
58000,Lorong Bukit Raja,Kuala Lumpur,KUL
58000,Lorong Chekor,Kuala Lumpur,KUL
58000,Lorong Halia,Kuala Lumpur,KUL
58000,Lorong Jambatan,Kuala Lumpur,KUL
58000,Lorong Jeram,Kuala Lumpur,KUL
58000,Lorong Kota Raja,Kuala Lumpur,KUL
58000,Lorong Padang Jawa,Kuala Lumpur,KUL
58000,Lorong Penghulu Mat,Kuala Lumpur,KUL
58000,Lorong Seputih,Kuala Lumpur,KUL
58000,Lorong Teluk Panglima Garang,Kuala Lumpur,KUL
58000,Menara Seputeh,Kuala Lumpur,KUL
58000,Persiaran Seputih,Kuala Lumpur,KUL
58000,Project Jaya Industrial Estate,Kuala Lumpur,KUL
58000,Resource Industrial Centre,Kuala Lumpur,KUL
58000,Taman Bukit Seputeh,Kuala Lumpur,KUL
58000,Taman Halimaton,Kuala Lumpur,KUL
58000,Taman Hock Ann,Kuala Lumpur,KUL
58000,Taman Sentosa,Kuala Lumpur,KUL
58000,Taman Seputeh,Kuala Lumpur,KUL
58000,Taman Seri Sentosa,Kuala Lumpur,KUL
58100,Bukit Pisang,Kuala Lumpur,KUL
58100,Desa Residence,Kuala Lumpur,KUL
58100,Fairview Mansion,Kuala Lumpur,KUL
58100,Hock Ann Estate,Kuala Lumpur,KUL
58100,Jalan Anggor,Kuala Lumpur,KUL
58100,Jalan Banting,Kuala Lumpur,KUL
58100,Jalan Desa Bakti 2,Kuala Lumpur,KUL
58100,Jalan Jugra,Kuala Lumpur,KUL
58100,Jalan Meru Selekoh,Kuala Lumpur,KUL
58100,Jalan Meru,Kuala Lumpur,KUL
58100,Jalan Morib,Kuala Lumpur,KUL
58100,Jalan Permatang Pasir,Kuala Lumpur,KUL
58100,Jalan Pisang,Kuala Lumpur,KUL
58100,Jalan Sungai Buaya,Kuala Lumpur,KUL
58100,Jalan Tasek,Kuala Lumpur,KUL
58100,Jalan Teluk Gadong,Kuala Lumpur,KUL
58100,Kampung Bakti,Kuala Lumpur,KUL
58100,Lorong Anggor,Kuala Lumpur,KUL
58100,Lorong Bandar (1 - 3),Kuala Lumpur,KUL
58100,Lorong Bandar,Kuala Lumpur,KUL
58100,Lorong Bukit Pisang,Kuala Lumpur,KUL
58100,Lorong Jugra,Kuala Lumpur,KUL
58100,Lorong Morib,Kuala Lumpur,KUL
58100,Lorong Permatang Pasir,Kuala Lumpur,KUL
58100,Lorong Pisang (1 - 2),Kuala Lumpur,KUL
58100,Menara Faber,Kuala Lumpur,KUL
58100,Taman Abadi Indah,Kuala Lumpur,KUL
58100,Taman Bukit Desa (Jalan Klang Lama),Kuala Lumpur,KUL
58100,Taman Desa Utama,Kuala Lumpur,KUL
58100,Taman Desa,Kuala Lumpur,KUL
58100,Taman Evergreen,Kuala Lumpur,KUL
58100,Taman Fairview,Kuala Lumpur,KUL
58100,Taman Seri Lempah,Kuala Lumpur,KUL
58100,Taman Shanghai,Kuala Lumpur,KUL
58200,Bukit Indah,Kuala Lumpur,KUL
58200,Jalan Awan Berarak 1,Kuala Lumpur,KUL
58200,Jalan Awan Makmur,Kuala Lumpur,KUL
58200,Jalan Awan Selimpat,Kuala Lumpur,KUL
58200,Jalan Batalong (1 - 3),Kuala Lumpur,KUL
58200,Jalan Batalong,Kuala Lumpur,KUL
58200,Jalan Enak (1 - 3),Kuala Lumpur,KUL
58200,Jalan Enak,Kuala Lumpur,KUL
58200,Jalan Hujan Emas,Kuala Lumpur,KUL
58200,Jalan Jiran (1 - 2),Kuala Lumpur,KUL
58200,Jalan Kuchai (1 - 9),Kuala Lumpur,KUL
58200,Jalan Kuchai Lama,Kuala Lumpur,KUL
58200,Jalan Lazat (1 - 7),Kuala Lumpur,KUL
58200,Jalan Manisan (1 - 3),Kuala Lumpur,KUL
58200,Jalan Manisan,Kuala Lumpur,KUL
58200,Jalan Mas 1,Kuala Lumpur,KUL
58200,Jalan Nikmat,Kuala Lumpur,KUL
58200,Jalan Nyaman (1 - 12),Kuala Lumpur,KUL
58200,Jalan Nyaman,Kuala Lumpur,KUL
58200,Jalan Overseas Union,Kuala Lumpur,KUL
58200,Jalan Pasir Merah,Kuala Lumpur,KUL
58200,Jalan Pasir Puteh,Kuala Lumpur,KUL
58200,Jalan Perisa,Kuala Lumpur,KUL
58200,Jalan Puchong (Hingga Km 12),Kuala Lumpur,KUL
58200,Jalan Ramah,Kuala Lumpur,KUL
58200,Jalan Riang (1 - 15),Kuala Lumpur,KUL
58200,Jalan Riang,Kuala Lumpur,KUL
58200,Jalan Riangria 7,Kuala Lumpur,KUL
58200,Jalan Sekata (1 - 2),Kuala Lumpur,KUL
58200,Jalan Sekata,Kuala Lumpur,KUL
58200,Jalan Sekutu,Kuala Lumpur,KUL
58200,Jalan Selera 1,Kuala Lumpur,KUL
58200,Jalan Selera,Kuala Lumpur,KUL
58200,Jalan Selesa (1 - 12),Kuala Lumpur,KUL
58200,Jalan Selesa,Kuala Lumpur,KUL
58200,Jalan Sepadu (1 - 7),Kuala Lumpur,KUL
58200,Jalan Sepadu,Kuala Lumpur,KUL
58200,Jalan Sepakat,Kuala Lumpur,KUL
58200,Jalan Seragam,Kuala Lumpur,KUL
58200,Jalan Sukacita (1 - 4),Kuala Lumpur,KUL
58200,Jalan Sukacita,Kuala Lumpur,KUL
58200,Kampung Bohol (Indian Settlement),Kuala Lumpur,KUL
58200,Kampung Chetty,Kuala Lumpur,KUL
58200,Kampung Malaysia Jaya,Kuala Lumpur,KUL
58200,Kampung Muhibbah,Kuala Lumpur,KUL
58200,Kampung Pasir,Kuala Lumpur,KUL
58200,Kampung Petaling Bahagia,Kuala Lumpur,KUL
58200,Kinrara Mas Bukit Jalil,Kuala Lumpur,KUL
58200,Kuchai Business Park,Kuala Lumpur,KUL
58200,Kuchai Entrepreneurs Park,Kuala Lumpur,KUL
58200,Lorong Nikmat (1 - 11),Kuala Lumpur,KUL
58200,Lorong Selera,Kuala Lumpur,KUL
58200,Mutiara Bukit Jalil,Kuala Lumpur,KUL
58200,Mutiara Puchong Business Centre,Kuala Lumpur,KUL
58200,Taman Angkasa,Kuala Lumpur,KUL
58200,Taman Awan,Kuala Lumpur,KUL
58200,Taman Bukit Aman,Kuala Lumpur,KUL
58200,Taman Bukit Indah,Kuala Lumpur,KUL
58200,Taman Desa Tiara,Kuala Lumpur,KUL
58200,Taman Gembira (Happy Garden),Kuala Lumpur,KUL
58200,Taman Goodwood,Kuala Lumpur,KUL
58200,Taman Indrahana,Kuala Lumpur,KUL
58200,Taman Kinrara Mas,Kuala Lumpur,KUL
58200,Taman Kuchai Jaya,Kuala Lumpur,KUL
58200,Taman Kuchai,Kuala Lumpur,KUL
58200,Taman Lian Hoe,Kuala Lumpur,KUL
58200,Taman Lucky (Puchong),Kuala Lumpur,KUL
58200,Taman Mega Mendung,Kuala Lumpur,KUL
58200,Taman Nan Fong,Kuala Lumpur,KUL
58200,Taman Overseas Union,Kuala Lumpur,KUL
58200,Taman Pagar Ruyong,Kuala Lumpur,KUL
58200,Taman Perindustrian OUG,Kuala Lumpur,KUL
58200,Taman Puchong (Batu 6 1/4),Kuala Lumpur,KUL
58200,Taman Seri Pandan,Kuala Lumpur,KUL
58200,Taman Skyline,Kuala Lumpur,KUL
58200,Taman Sri Jati,Kuala Lumpur,KUL
58200,Taman Suria,Kuala Lumpur,KUL
58200,Taman Tan Yew Lai,Kuala Lumpur,KUL
58200,Taman United,Kuala Lumpur,KUL
58200,Taman Yarl,Kuala Lumpur,KUL
58700,Jalan Klang Lama - Peti surat 1 - 240,Kuala Lumpur,KUL
58990,Jalan Klang Lama - Beg berkunci,Kuala Lumpur,KUL
59000,"BRDB Towe, Jalan Maarof",Kuala Lumpur,KUL
59000,Bangsar Aman,Kuala Lumpur,KUL
59000,Bangsar Utama,Kuala Lumpur,KUL
59000,Bukit Bangsar,Kuala Lumpur,KUL
59000,Jalan Abdullah,Kuala Lumpur,KUL
59000,"Jalan Bangsar Utama (1,3 & 9)",Kuala Lumpur,KUL
59000,Jalan Bukit Bangsar,Kuala Lumpur,KUL
59000,Jalan Buloh Perindu,Kuala Lumpur,KUL
59000,Jalan Kemuja,Kuala Lumpur,KUL
59000,Jalan Limau Besar,Kuala Lumpur,KUL
59000,Jalan Limau Kasturi,Kuala Lumpur,KUL
59000,Jalan Limau Manis (1 - 3),Kuala Lumpur,KUL
59000,Jalan Limau Nipis,Kuala Lumpur,KUL
59000,Jalan Limau Purut,Kuala Lumpur,KUL
59000,Jalan Maarof,Kuala Lumpur,KUL
59000,Jalan Menarong,Kuala Lumpur,KUL
59000,Jalan Rumah Sakit Bangsar,Kuala Lumpur,KUL
59000,Jalan Rumpai,Kuala Lumpur,KUL
59000,Jalan Senangin,Kuala Lumpur,KUL
59000,Jalan Senuduk,Kuala Lumpur,KUL
59000,Kompleks Maybank,Kuala Lumpur,KUL
59000,Kompleks Niaga Utama,Kuala Lumpur,KUL
59000,Lengkok Abdullah,Kuala Lumpur,KUL
59000,Lorong Abdullah,Kuala Lumpur,KUL
59000,Lorong Buloh Perindu (1 - 5),Kuala Lumpur,KUL
59000,Lorong Limau Kasturi,Kuala Lumpur,KUL
59000,Lorong Limau Manis (1 - 3),Kuala Lumpur,KUL
59000,Lorong Maarof (1 - 4),Kuala Lumpur,KUL
59000,Lorong Maarof,Kuala Lumpur,KUL
59000,Lorong Menarung 1,Kuala Lumpur,KUL
59000,Lorong Menarung,Kuala Lumpur,KUL
59000,Taman Bangsar,Kuala Lumpur,KUL
59000,Taman SA (Satok Amoy),Kuala Lumpur,KUL
59100,Bangsar Baru,Kuala Lumpur,KUL
59100,Bukit Bandaraya,Kuala Lumpur,KUL
59100,Bukit Pantai,Kuala Lumpur,KUL
59100,Cangkat Riong,Kuala Lumpur,KUL
59100,Hospital Universiti,Kuala Lumpur,KUL
59100,Institut Diplomasi & Hubungan Luar Negeri,Kuala Lumpur,KUL
59100,Jalan 1/80C,Kuala Lumpur,KUL
59100,Jalan Api,Kuala Lumpur,KUL
59100,Jalan Ara Kiri,Kuala Lumpur,KUL
59100,Jalan Ara,Kuala Lumpur,KUL
59100,Jalan Bangkong,Kuala Lumpur,KUL
59100,Jalan Bawal,Kuala Lumpur,KUL
59100,Jalan Bilis (1 - 3),Kuala Lumpur,KUL
59100,Jalan Bukit Pantai,Kuala Lumpur,KUL
59100,Jalan Changkat Pantai 1,Kuala Lumpur,KUL
59100,Jalan Chenderai (1 - 3),Kuala Lumpur,KUL
59100,Jalan Elmu,Kuala Lumpur,KUL
59100,Jalan Faraday,Kuala Lumpur,KUL
59100,Jalan Ilmu,Kuala Lumpur,KUL
59100,Jalan Jejawi,Kuala Lumpur,KUL
59100,Jalan Kaloi,Kuala Lumpur,KUL
59100,Jalan Kapas,Kuala Lumpur,KUL
59100,Jalan Kawat,Kuala Lumpur,KUL
59100,Jalan Kemaris,Kuala Lumpur,KUL
59100,Jalan Keruing (Pantai Baru),Kuala Lumpur,KUL
59100,Jalan Kesedang,Kuala Lumpur,KUL
59100,Jalan Kilat,Kuala Lumpur,KUL
59100,Jalan Kipas,Kuala Lumpur,KUL
59100,Jalan Kurau,Kuala Lumpur,KUL
59100,Jalan Liku,Kuala Lumpur,KUL
59100,Jalan Mambu,Kuala Lumpur,KUL
59100,Jalan Medang Kapas,Kuala Lumpur,KUL
59100,Jalan Medang Kunyit,Kuala Lumpur,KUL
59100,Jalan Medang Payong,Kuala Lumpur,KUL
59100,Jalan Medang Serai,Kuala Lumpur,KUL
59100,Jalan Medang Tandok,Kuala Lumpur,KUL
59100,Jalan Medang,Kuala Lumpur,KUL
59100,"Jalan Menerung, Bangsar",Kuala Lumpur,KUL
59100,Jalan Panah,Kuala Lumpur,KUL
59100,Jalan Pantai Endah,Kuala Lumpur,KUL
59100,Jalan Penaga,Kuala Lumpur,KUL
59100,Jalan Piring,Kuala Lumpur,KUL
59100,Jalan Riong,Kuala Lumpur,KUL
59100,Jalan Ru (Pantai Baru),Kuala Lumpur,KUL
59100,Jalan Senangin,Kuala Lumpur,KUL
59100,Jalan Sepat,Kuala Lumpur,KUL
59100,Jalan Taban (1 - 4),Kuala Lumpur,KUL
59100,Jalan Taban,Kuala Lumpur,KUL
59100,Jalan Taman Pantai,Kuala Lumpur,KUL
59100,Jalan Tandok,Kuala Lumpur,KUL
59100,Jalan Telawi (1 - 9),Kuala Lumpur,KUL
59100,Jalan Telawi,Kuala Lumpur,KUL
59100,Jalan Tempinis (1 - 5),Kuala Lumpur,KUL
59100,Jalan Tempinis Kanan,Kuala Lumpur,KUL
59100,Jalan Tempinis Kiri (1 - 2),Kuala Lumpur,KUL
59100,Jalan Tempinis Kiri,Kuala Lumpur,KUL
59100,Jalan Tempinis,Kuala Lumpur,KUL
59100,Jalan Tenggiri,Kuala Lumpur,KUL
59100,Jalan Terasik (1 - 8),Kuala Lumpur,KUL
59100,Jalan Terasik,Kuala Lumpur,KUL
59100,Jalan Tualang,Kuala Lumpur,KUL
59100,Jalan Turi,Kuala Lumpur,KUL
59100,Kompleks Sukan Bangsar,Kuala Lumpur,KUL
59100,Lingkungan Budi,Kuala Lumpur,KUL
59100,Lorong Ara Kiri (1 - 3),Kuala Lumpur,KUL
59100,Lorong Ara,Kuala Lumpur,KUL
59100,Lorong Bukit Pantai (1 - 7),Kuala Lumpur,KUL
59100,Lorong Chenderai,Kuala Lumpur,KUL
59100,Lorong Ilmu,Kuala Lumpur,KUL
59100,Lorong Kaloi,Kuala Lumpur,KUL
59100,Lorong Kemaris (1 - 6),Kuala Lumpur,KUL
59100,Lorong Kurau,Kuala Lumpur,KUL
59100,Lorong Medang,Kuala Lumpur,KUL
59100,Lorong Riong,Kuala Lumpur,KUL
59100,Lorong Taban (1 - 3),Kuala Lumpur,KUL
59100,Lorong Taman Pantai (1 - 7),Kuala Lumpur,KUL
59100,Lorong Taman Pantai,Kuala Lumpur,KUL
59100,Lorong Tempinis Kanan (1 - 3),Kuala Lumpur,KUL
59100,Lorong Tempinis Kiri (1 - 2),Kuala Lumpur,KUL
59100,Lorong Tenggiri,Kuala Lumpur,KUL
59100,Lorong Terasik 1,Kuala Lumpur,KUL
59100,Lorong Terasik Kanan,Kuala Lumpur,KUL
59100,Lorong Universiti A,Kuala Lumpur,KUL
59100,Lorong Universiti,Kuala Lumpur,KUL
59100,Pangsapuri Ken Bangsar,Kuala Lumpur,KUL
59100,Persiaran Ara Kanan,Kuala Lumpur,KUL
59100,Persiaran Ara Kiri 1,Kuala Lumpur,KUL
59100,Persiaran Ara,Kuala Lumpur,KUL
59100,Persiaran Medang Utara,Kuala Lumpur,KUL
59100,Persiaran Terasik,Kuala Lumpur,KUL
59100,Pusat Perubatan Pantai,Kuala Lumpur,KUL
59100,Taman Bandaraya,Kuala Lumpur,KUL
59100,Taman Bukit Pantai,Kuala Lumpur,KUL
59100,Taman Lucky (Bangsar),Kuala Lumpur,KUL
59100,Zhen Bukit Pantai,Kuala Lumpur,KUL
59200,Bandar Mid - Valley,Kuala Lumpur,KUL
59200,Bangsar South,Kuala Lumpur,KUL
59200,Bukit Kerinchi,Kuala Lumpur,KUL
59200,Bukit Putra,Kuala Lumpur,KUL
59200,Jalan 4/83A,Kuala Lumpur,KUL
59200,Jalan Bangsar,Kuala Lumpur,KUL
59200,Jalan Changkat Pantai,Kuala Lumpur,KUL
59200,Jalan Kerinchi Kanan,Kuala Lumpur,KUL
59200,Jalan Kerinchi Kiri,Kuala Lumpur,KUL
59200,Jalan Kerinchi,Kuala Lumpur,KUL
59200,Jalan Lembah Pantai,Kuala Lumpur,KUL
59200,Jalan Pantai Baru,Kuala Lumpur,KUL
59200,Jalan Pantai Dalam,Kuala Lumpur,KUL
59200,Jalan Pantai Jaya,Kuala Lumpur,KUL
59200,Jalan Pantai Permai 1,Kuala Lumpur,KUL
59200,Jalan Selekoh,Kuala Lumpur,KUL
59200,Kampung Haji Abdullah Hukum,Kuala Lumpur,KUL
59200,Kampung Kerinchi,Kuala Lumpur,KUL
59200,Kampung Padang,Kuala Lumpur,KUL
59200,Kampung Pantai,Kuala Lumpur,KUL
59200,Kampung Pasir Kiri,Kuala Lumpur,KUL
59200,Kampung Paya,Kuala Lumpur,KUL
59200,Kampung Selamat (Pantai Baru),Kuala Lumpur,KUL
59200,Lingkaran Syed Putra,Kuala Lumpur,KUL
59200,Lorong Kerinchi Kanan (1 - 2),Kuala Lumpur,KUL
59200,Lorong Kerinchi Kiri (1 - 2),Kuala Lumpur,KUL
59200,Lorong Kerinchi,Kuala Lumpur,KUL
59200,Taman Bukit Angkasa,Kuala Lumpur,KUL
59200,Taman Desa Aman,Kuala Lumpur,KUL
59200,Taman Desa Kerinci,Kuala Lumpur,KUL
59200,Taman Ghazali Shafie,Kuala Lumpur,KUL
59200,The Park Residences 1,Kuala Lumpur,KUL
59700,Jalan Pantai Baru - Peti surat 1121 - 1200,Kuala Lumpur,KUL
59800,Jalan Pantai Baru - Peti surat 1201 & ke atas,Kuala Lumpur,KUL
59990,Jalan Pantai Baru - Beg berkunci,Kuala Lumpur,KUL
60000,Bukit Kiara Equestrian,Kuala Lumpur,KUL
60000,Bukit Kiara Estate,Kuala Lumpur,KUL
60000,Bukit Kiara,Kuala Lumpur,KUL
60000,Bukit Lanjan,Kuala Lumpur,KUL
60000,Jalan Abang Haji Openg (1 - 2),Kuala Lumpur,KUL
60000,Jalan Abang Haji Openg,Kuala Lumpur,KUL
60000,Jalan Aminuddin Baki,Kuala Lumpur,KUL
60000,Jalan Burhanuddin Helmi (1 - 3),Kuala Lumpur,KUL
60000,Jalan Burhanuddin Helmi,Kuala Lumpur,KUL
60000,Jalan Damansara (Km 10 ke atas),Kuala Lumpur,KUL
60000,Jalan Datuk Suleiman (1 - 7),Kuala Lumpur,KUL
60000,Jalan Datuk Suleiman,Kuala Lumpur,KUL
60000,Jalan Persiaran Zaaba,Kuala Lumpur,KUL
60000,Jalan Rahim Kajai Kajai,Kuala Lumpur,KUL
60000,Jalan Taman Zaaba,Kuala Lumpur,KUL
60000,Jalan Tun Mohd Fuad (1 - 4),Kuala Lumpur,KUL
60000,Jalan Tun Mohd Fuad,Kuala Lumpur,KUL
60000,Jalan Wan Kadir (1 - 4),Kuala Lumpur,KUL
60000,Kampung Baru Damansara,Kuala Lumpur,KUL
60000,Kampung Bukit Lanjan,Kuala Lumpur,KUL
60000,Kampung Damansara (Bahagian Kiri),Kuala Lumpur,KUL
60000,Kampung Kenangan (Damansara),Kuala Lumpur,KUL
60000,Kampung Palimbayam Tanah 60,Kuala Lumpur,KUL
60000,Kampung Palimbayan,Kuala Lumpur,KUL
60000,Kampung Pelibangan Indah,Kuala Lumpur,KUL
60000,Kampung Pinggir,Kuala Lumpur,KUL
60000,Kampung Sungai Penchala,Kuala Lumpur,KUL
60000,Lengkok Aminuddin Baki,Kuala Lumpur,KUL
60000,Lengkok Zaaba (1 - 2),Kuala Lumpur,KUL
60000,Lengkok Zaaba,Kuala Lumpur,KUL
60000,Lorong Abang Haji Openg,Kuala Lumpur,KUL
60000,Lorong Aminuddin Baki (1 - 4),Kuala Lumpur,KUL
60000,Lorong Burhanuddin Helmi (1 - 11),Kuala Lumpur,KUL
60000,Lorong Datuk Suleiman (1 - 8),Kuala Lumpur,KUL
60000,Lorong Datuk Suleiman,Kuala Lumpur,KUL
60000,Lorong Rahim Kajai (1 - 15),Kuala Lumpur,KUL
60000,Lorong Zaaba,Kuala Lumpur,KUL
60000,Medan Burhanuddin Helmi,Kuala Lumpur,KUL
60000,Persiaran Abang Haji Openg,Kuala Lumpur,KUL
60000,Persiaran Burhanuddin Helmi,Kuala Lumpur,KUL
60000,Pinggir Zaaba,Kuala Lumpur,KUL
60000,Taman Tun Dr Ismail,Kuala Lumpur,KUL