"POSTCODE","ADDRESS","CITY","STATE"
"70000","Bangunan Yayasan Negeri Sembilan","Seremban","NSN"
"70000","Jalan Bandar Tunggal","Seremban","NSN"
"70000","Jalan Bathurst","Seremban","NSN"
"70000","Jalan Berhala","Seremban","NSN"
"70000","Jalan Bukit Lemon","Seremban","NSN"
"70000","Jalan Campbell","Seremban","NSN"
"70000","Jalan Dato Abdul Kadir","Seremban","NSN"
"70000","Jalan Dato Abdul Malek","Seremban","NSN"
"70000","Jalan Dato Abdul Rahman","Seremban","NSN"
"70000","Jalan Dato Bandar Tunggal","Seremban","NSN"
"70000","Jalan Dato Hamzah","Seremban","NSN"
"70000","Jalan Dato Lee Fong Yee","Seremban","NSN"
"70000","Jalan Dato Sheikh Ahmad","Seremban","NSN"
"70000","Jalan Dr Krishnan","Seremban","NSN"
"70000","Jalan Dr Murugesu","Seremban","NSN"
"70000","Jalan Dr Samuel","Seremban","NSN"
"70000","Jalan Kapitan Tam Yeong","Seremban","NSN"
"70000","Jalan Kong Sang","Seremban","NSN"
"70000","Jalan Lee Fong Yee","Seremban","NSN"
"70000","Jalan Lee Sam","Seremban","NSN"
"70000","Jalan Liat","Seremban","NSN"
"70000","Jalan Lim Kee Siong","Seremban","NSN"
"70000","Jalan Lintang","Seremban","NSN"
"70000","Jalan Nunis (Jalan Locke)","Seremban","NSN"
"70000","Jalan Pasar","Seremban","NSN"
"70000","Jalan Raja Ali","Seremban","NSN"
"70000","Jalan Sheikh Ahmad","Seremban","NSN"
"70000","Jalan Siow Loong Hin","Seremban","NSN"
"70000","Jalan Tuanku Munawir","Seremban","NSN"
"70000","Jalan Tunku Hassan","Seremban","NSN"
"70000","Jalan Utam Singh","Seremban","NSN"
"70000","Jalan Wolff","Seremban","NSN"
"70000","Jalan Yam Tuan","Seremban","NSN"
"70000","Lorong Java (1 & 2)","Seremban","NSN"
"70000","Medan Suria","Seremban","NSN"
"70000","Taman Selera","Seremban","NSN"
"70000","Taman Sim","Seremban","NSN"
"70000","Wisma Negeri","Seremban","NSN"
"70000","Wisma Persekutuan","Seremban","NSN"
"70100","Bukit Ampangan","Seremban","NSN"
"70100","Dusun Nyior Rahang Kecil","Seremban","NSN"
"70100","Jalan Aminuddin Baki","Seremban","NSN"
"70100","Jalan Atas","Seremban","NSN"
"70100","Jalan Dato Muda Linggi","Seremban","NSN"
"70100","Jalan Dato Siamang Gagap","Seremban","NSN"
"70100","Jalan Dato Wong Yik Tong","Seremban","NSN"
"70100","Jalan Dr Chong Ah Khoon","Seremban","NSN"
"70100","Jalan Gan Tam","Seremban","NSN"
"70100","Jalan Gereja","Seremban","NSN"
"70100","Jalan Jelebu - Ampangan","Seremban","NSN"
"70100","Jalan Keliling","Seremban","NSN"
"70100","Jalan Medan Rahang","Seremban","NSN"
"70100","Jalan Muti Ahmad","Seremban","NSN"
"70100","Jalan Penghulu Cantik","Seremban","NSN"
"70100","Jalan Rahang","Seremban","NSN"
"70100","Jalan Raja Muda Ali","Seremban","NSN"
"70100","Jalan Siamang Gagap","Seremban","NSN"
"70100","Jalan Singkat","Seremban","NSN"
"70100","Jalan Taman Bunga","Seremban","NSN"
"70100","Jalan Tasek","Seremban","NSN"
"70100","Jalan Tetamu","Seremban","NSN"
"70100","Jalan Tok Ungku","Seremban","NSN"
"70100","Jalan Tuan Haji Said","Seremban","NSN"
"70100","Jalan Tuanku Antah","Seremban","NSN"
"70100","Jalan Zaaba","Seremban","NSN"
"70100","Kampung Abok","Seremban","NSN"
"70100","Kampung Baru Rahang","Seremban","NSN"
"70100","Kampung Lee Siew Joo","Seremban","NSN"
"70100","Kondo Allson Klana","Seremban","NSN"
"70100","Medan Rahang","Seremban","NSN"
"70100","Rahang Kecil","Seremban","NSN"
"70100","Rahang","Seremban","NSN"
"70100","Rumah Murah Dusun Nyior","Seremban","NSN"
"70100","Taman Beng Foh","Seremban","NSN"
"70100","Taman Bidara","Seremban","NSN"
"70100","Taman Blossom","Seremban","NSN"
"70100","Taman Bukit Blossom","Seremban","NSN"
"70100","Taman Bukit Pelangi","Seremban","NSN"
"70100","Taman Cermai Jaya","Seremban","NSN"
"70100","Taman Channer","Seremban","NSN"
"70100","Taman Choong Loong","Seremban","NSN"
"70100","Taman Dusun Setia","Seremban","NSN"
"70100","Taman Forest Height","Seremban","NSN"
"70100","Taman Ideal","Seremban","NSN"
"70100","Taman Kian Kee","Seremban","NSN"
"70100","Taman Lee Siew Joo","Seremban","NSN"
"70100","Taman Lelayang","Seremban","NSN"
"70100","Taman Loop","Seremban","NSN"
"70100","Taman Mawar","Seremban","NSN"
"70100","Taman Ming Hoe","Seremban","NSN"
"70100","Taman Murugesu","Seremban","NSN"
"70100","Taman Nyior Gading","Seremban","NSN"
"70100","Taman Nyior Hijau","Seremban","NSN"
"70100","Taman Nyior","Seremban","NSN"
"70100","Taman Punca Mas","Seremban","NSN"
"70100","Taman Rahang","Seremban","NSN"
"70100","Taman Sea","Seremban","NSN"
"70100","Taman Sejahtera","Seremban","NSN"
"70100","Taman Seremban","Seremban","NSN"
"70100","Taman Seri Kamban","Seremban","NSN"
"70100","Taman Seri Loop","Seremban","NSN"
"70100","Taman Setia Jaya","Seremban","NSN"
"70100","Taman South East","Seremban","NSN"
"70100","Taman Sri Puteh","Seremban","NSN"
"70100","Taman Sri Rahang","Seremban","NSN"
"70100","Taman Starlight","Seremban","NSN"
"70100","Taman Tan Chee Hoe","Seremban","NSN"
"70100","Taman Thivy Jaya","Seremban","NSN"
"70100","Taman Ujong","Seremban","NSN"
"70100","Taman Yoon Chan","Seremban","NSN"
"70100","Taman Yoon FooK","Seremban","NSN"
"70200","Bukit Jong","Seremban","NSN"
"70200","Bukit Kaya","Seremban","NSN"
"70200","Bukit Lemon","Seremban","NSN"
"70200","Bukit Limbok","Seremban","NSN"
"70200","Bukit Lobak","Seremban","NSN"
"70200","Dawn Estate","Seremban","NSN"
"70200","Hillside Estate","Seremban","NSN"
"70200","Jade Villa","Seremban","NSN"
"70200","Jalan Dato Abdullah","Seremban","NSN"
"70200","Jalan Dato Kelana Maamor","Seremban","NSN"
"70200","Jalan Haji Abdul Hamid","Seremban","NSN"
"70200","Jalan Han Hui Foong","Seremban","NSN"
"70200","Jalan Kilat","Seremban","NSN"
"70200","Jalan Kuala Lumpur (Km 5)","Seremban","NSN"
"70200","Jalan Kuala Lumpur (Km 8)","Seremban","NSN"
"70200","Jalan Kwang Tong","Seremban","NSN"
"70200","Jalan Labu (Km 1.5)","Seremban","NSN"
"70200","Jalan Labu (Km 5)","Seremban","NSN"
"70200","Jalan Labu Lama","Seremban","NSN"
"70200","Jalan Labu","Seremban","NSN"
"70200","Jalan Lam Teck Choon","Seremban","NSN"
"70200","Jalan Lt. Adnan","Seremban","NSN"
"70200","Jalan Manickavasagam","Seremban","NSN"
"70200","Jalan Muthu Cumaru","Seremban","NSN"
"70200","Jalan Off Keng Heng","Seremban","NSN"
"70200","Jalan Off Tun Dr Ismail","Seremban","NSN"
"70200","Jalan Quek Kai Dong","Seremban","NSN"
"70200","Jalan Sawmill","Seremban","NSN"
"70200","Jalan Seng Meng Lee","Seremban","NSN"
"70200","Jalan Sentul","Seremban","NSN"
"70200","Jalan Sungai Ujong","Seremban","NSN"
"70200","Jalan Temiang Lama","Seremban","NSN"
"70200","Jalan Temiang","Seremban","NSN"
"70200","Jalan Tun Dr Ismail","Seremban","NSN"
"70200","Jalan Ulu Temiang","Seremban","NSN"
"70200","Jalan Veloo","Seremban","NSN"
"70200","Jalan Yazid Ahmad","Seremban","NSN"
"70200","Kampung Baru Bukit Temiang","Seremban","NSN"
"70200","Kampung Baru Cina","Seremban","NSN"
"70200","Kampung Baru Templer","Seremban","NSN"
"70200","Kampung Baru Ulu Temiang","Seremban","NSN"
"70200","Kampung Benggali","Seremban","NSN"
"70200","Kampung Dato Hj Mohd Said","Seremban","NSN"
"70200","Kampung Kepayang","Seremban","NSN"
"70200","Kampung Kin Ching","Seremban","NSN"
"70200","Kampung Lobak","Seremban","NSN"
"70200","Kampung Melayu Ulu Temiang","Seremban","NSN"
"70200","Kampung Penghulu","Seremban","NSN"
"70200","Kemayan Square","Seremban","NSN"
"70200","Kondo Bukit Kaya","Seremban","NSN"
"70200","Permata Villa Kondo","Seremban","NSN"
"70200","Seri Kenangan","Seremban","NSN"
"70200","Sri Bukit Jade","Seremban","NSN"
"70200","Taman AST","Seremban","NSN"
"70200","Taman Baiduri","Seremban","NSN"
"70200","Taman Bangawan","Seremban","NSN"
"70200","Taman Bukit Berlian","Seremban","NSN"
"70200","Taman Bukit Desa Tembaga","Seremban","NSN"
"70200","Taman Bukit Galena","Seremban","NSN"
"70200","Taman Bukit Intan","Seremban","NSN"
"70200","Taman Bukit Jade","Seremban","NSN"
"70200","Taman Bukit Kaya","Seremban","NSN"
"70200","Taman Bukit Kelisa","Seremban","NSN"
"70200","Taman Bukit Kepayang","Seremban","NSN"
"70200","Taman Bukit Kristal","Seremban","NSN"
"70200","Taman Bukit Labu","Seremban","NSN"
"70200","Taman Bukit Markisa","Seremban","NSN"
"70200","Taman Bukit Mika","Seremban","NSN"
"70200","Taman Bukit Mutiara","Seremban","NSN"
"70200","Taman Bukit Sentosa","Seremban","NSN"
"70200","Taman Cheng Shiang","Seremban","NSN"
"70200","Taman Chip Aik","Seremban","NSN"
"70200","Taman Cuepacs","Seremban","NSN"
"70200","Taman Delima","Seremban","NSN"
"70200","Taman Desa Temiang","Seremban","NSN"
"70200","Taman Duyong","Seremban","NSN"
"70200","Taman Harmonium Indah","Seremban","NSN"
"70200","Taman Harmonium Utama","Seremban","NSN"
"70200","Taman Jasper","Seremban","NSN"
"70200","Taman Jaya Mas","Seremban","NSN"
"70200","Taman Kepayang Baru","Seremban","NSN"
"70200","Taman King Wong","Seremban","NSN"
"70200","Taman Kong Heong","Seremban","NSN"
"70200","Taman Koop","Seremban","NSN"
"70200","Taman Kotamas","Seremban","NSN"
"70200","Taman Kwan Tong","Seremban","NSN"
"70200","Taman Labu Jaya","Seremban","NSN"
"70200","Taman Labu Utama","Seremban","NSN"
"70200","Taman Ladang Dawn / Bukit Dawn","Seremban","NSN"
"70200","Taman Lam Teck Choon","Seremban","NSN"
"70200","Taman Lucky Height","Seremban","NSN"
"70200","Taman Makmur","Seremban","NSN"
"70200","Taman Mon't Jade","Seremban","NSN"
"70200","Taman Mutiara Galla","Seremban","NSN"
"70200","Taman Nee Yan","Seremban","NSN"
"70200","Taman Oakland","Seremban","NSN"
"70200","Taman Permai (1 - 3)","Seremban","NSN"
"70200","Taman Permai","Seremban","NSN"
"70200","Taman Permata","Seremban","NSN"
"70200","Taman Saga","Seremban","NSN"
"70200","Taman Seni Budaya","Seremban","NSN"
"70200","Taman Sentosa Baru","Seremban","NSN"
"70200","Taman Sentosa","Seremban","NSN"
"70200","Taman Seri Labu","Seremban","NSN"
"70200","Taman Seruling Jaya","Seremban","NSN"
"70200","Taman Serunai Indah","Seremban","NSN"
"70200","Taman Setosa Baru","Seremban","NSN"
"70200","Taman Sri Amber","Seremban","NSN"
"70200","Taman Sri Pinang","Seremban","NSN"
"70200","Taman Suria","Seremban","NSN"
"70200","Taman Temiang","Seremban","NSN"
"70200","Taman Templer","Seremban","NSN"
"70200","Taman Tuanku Abd Rahman","Seremban","NSN"
"70200","Taman Union","Seremban","NSN"
"70200","Taman Yoon Seng","Seremban","NSN"
"70200","Taman Zamrud","Seremban","NSN"
"70200","Templer Terrace","Seremban","NSN"
"70200","Ulu Temiang","Seremban","NSN"
"70300","Biz Avenue","Seremban","NSN"
"70300","Bukit Nanas Estate","Seremban","NSN"
"70300","Bukit Nanas","Seremban","NSN"
"70300","Bukit Rasah","Seremban","NSN"
"70300","CEB Site Garden","Seremban","NSN"
"70300","Central Park Seremban 2","Seremban","NSN"
"70300","Centre Park Seremban 2","Seremban","NSN"
"70300","Emerald Park Seremban 2","Seremban","NSN"
"70300","Garden Avenue Seremban 2","Seremban","NSN"
"70300","Garden City Homes","Seremban","NSN"
"70300","Garden Homes Seremban 2","Seremban","NSN"
"70300","Green Street Homes Seremban 2","Seremban","NSN"
"70300","Green Tech. Park","Seremban","NSN"
"70300","Jalan Bukit Nenas","Seremban","NSN"
"70300","Jalan Bukit Rasah","Seremban","NSN"
"70300","Jalan Bukit Tembok","Seremban","NSN"
"70300","Jalan Dr Muthu","Seremban","NSN"
"70300","Jalan Good Yard","Seremban","NSN"
"70300","Jalan Hill","Seremban","NSN"
"70300","Jalan Kuala Sawah (Hingga Km 13)","Seremban","NSN"
"70300","Jalan Locoshed","Seremban","NSN"
"70300","Jalan Osman","Seremban","NSN"
"70300","Jalan Port Dickson (Km 13)","Seremban","NSN"
"70300","Jalan Rasah","Seremban","NSN"
"70300","Jalan Seremban - Port Dickson (Km 4 - 4.5)","Seremban","NSN"
"70300","Jalan Ulu Ara (Hingga km 6.5)","Seremban","NSN"
"70300","Jalan Yusof","Seremban","NSN"
"70300","Kampung Baru Mambau","Seremban","NSN"
"70300","Kampung Baru Rasah","Seremban","NSN"
"70300","Kampung Bemban","Seremban","NSN"
"70300","Kampung Bukit Chedang","Seremban","NSN"
"70300","Kampung Datuk Mansor","Seremban","NSN"
"70300","Kampung Kayu Ara Hilir","Seremban","NSN"
"70300","Kampung Kayu Ara","Seremban","NSN"
"70300","Kampung Mantau","Seremban","NSN"
"70300","Kampung Masjid","Seremban","NSN"
"70300","Kampung Mawar","Seremban","NSN"
"70300","Kampung Melayu Rasah","Seremban","NSN"
"70300","Kampung Pasir","Seremban","NSN"
"70300","Kampung Pondok","Seremban","NSN"
"70300","Kampung Puchong","Seremban","NSN"
"70300","Kampung Ulu Ara","Seremban","NSN"
"70300","Kem Rasah","Seremban","NSN"
"70300","Ladang Shanghai","Seremban","NSN"
"70300","Lake View Square","Seremban","NSN"
"70300","Mambau (Km 13)","Seremban","NSN"
"70300","Mambau (Km 9)","Seremban","NSN"
"70300","Mambau","Seremban","NSN"
"70300","Oakland Industrial Park","Seremban","NSN"
"70300","Park Avenue","Seremban","NSN"
"70300","Rasah Kemayan Seremban 2","Seremban","NSN"
"70300","Rumah Murah Mambau","Seremban","NSN"
"70300","S2 Height","Seremban","NSN"
"70300","Seremban 2 Heights","Seremban","NSN"
"70300","Seremban 3","Seremban","NSN"
"70300","Sri Carcosa Seremban 2","Seremban","NSN"
"70300","Taman Anggor Jaya","Seremban","NSN"
"70300","Taman Angsamas","Seremban","NSN"
"70300","Taman Arowana Impian","Seremban","NSN"
"70300","Taman Arowana Indah","Seremban","NSN"
"70300","Taman Ban Aik","Seremban","NSN"
"70300","Taman Belida","Seremban","NSN"
"70300","Taman Belimbing Height","Seremban","NSN"
"70300","Taman Bukit Belida Fasa II","Seremban","NSN"
"70300","Taman Bukit Cedang","Seremban","NSN"
"70300","Taman Bukit Marlin","Seremban","NSN"
"70300","Taman Bukit Nanas","Seremban","NSN"
"70300","Taman Bukit Nuri Indah","Seremban","NSN"
"70300","Taman Bukit Rasah","Seremban","NSN"
"70300","Taman Bunga Raya","Seremban","NSN"
"70300","Taman Desa Rasah","Seremban","NSN"
"70300","Taman Guru Rasah","Seremban","NSN"
"70300","Taman Happy","Seremban","NSN"
"70300","Taman Harapan Baru","Seremban","NSN"
"70300","Taman Ho","Seremban","NSN"
"70300","Taman Kelab Tuanku","Seremban","NSN"
"70300","Taman Kelana Jubilee","Seremban","NSN"
"70300","Taman Kok Ann","Seremban","NSN"
"70300","Taman Koop","Seremban","NSN"
"70300","Taman Lian","Seremban","NSN"
"70300","Taman Limau Emas","Seremban","NSN"
"70300","Taman Lucky","Seremban","NSN"
"70300","Taman Mambau Baru","Seremban","NSN"
"70300","Taman Mambau Height","Seremban","NSN"
"70300","Taman Mambau Jaya","Seremban","NSN"
"70300","Taman Mambau","Seremban","NSN"
"70300","Taman Mantau Indah","Seremban","NSN"
"70300","Taman Megah","Seremban","NSN"
"70300","Taman Mok Sum","Seremban","NSN"
"70300","Taman Negeri (Rasah)","Seremban","NSN"
"70300","Taman Patin Indah","Seremban","NSN"
"70300","Taman Raja Hanifah","Seremban","NSN"
"70300","Taman Rasah Jaya Utama","Seremban","NSN"
"70300","Taman Rasah Jaya","Seremban","NSN"
"70300","Taman Rasah Utama","Seremban","NSN"
"70300","Taman Rasah","Seremban","NSN"
"70300","Taman Serenggam","Seremban","NSN"
"70300","Taman Seri Putih","Seremban","NSN"
"70300","Taman Sungai Ujong","Seremban","NSN"
"70300","Taman Tuan Sheikh","Seremban","NSN"
"70300","Taman Yuen Lian","Seremban","NSN"
"70300","Taman Zaharah","Seremban","NSN"
"70300","Up Town Avenue","Seremban","NSN"
"70300","Vision Homes Seremban 2","Seremban","NSN"
"70400","Appartment Kasturi","Seremban","NSN"
"70400","Appartment Seroja","Seremban","NSN"
"70400","Bandar Baru Ampangan","Seremban","NSN"
"70400","Flat Cengal Utama","Seremban","NSN"
"70400","Flat Paroi","Seremban","NSN"
"70400","Flat Taman Casuarina","Seremban","NSN"
"70400","Gedong Lalang 162","Seremban","NSN"
"70400","Gedung Lalang 50","Seremban","NSN"
"70400","Jalan Ampangan","Seremban","NSN"
"70400","Jalan Jelebu (Hingga Km 3.5)","Seremban","NSN"
"70400","Jalan Kuala Pilah (Km 3 - 4)","Seremban","NSN"
"70400","Jalan Kuala Pilah","Seremban","NSN"
"70400","Jalan Sikamat","Seremban","NSN"
"70400","Jalan Temiang Jaya","Seremban","NSN"
"70400","Jalan Tok Dagang","Seremban","NSN"
"70400","Jalan Tunku Kurshiah","Seremban","NSN"
"70400","Jalan Ujong Pasir","Seremban","NSN"
"70400","Kampung Baru Paroi","Seremban","NSN"
"70400","Kampung Baru Sikamat","Seremban","NSN"
"70400","Kampung Belachan","Seremban","NSN"
"70400","Kampung Bukit Merbah","Seremban","NSN"
"70400","Kampung Dato Wong Seng Chow","Seremban","NSN"
"70400","Kampung Durian Tiga Batang","Seremban","NSN"
"70400","Kampung Dusun Nyior","Seremban","NSN"
"70400","Kampung Gedung Lalang Lama","Seremban","NSN"
"70400","Kampung Ismail","Seremban","NSN"
"70400","Kampung Jiboi Baru","Seremban","NSN"
"70400","Kampung Jiboi","Seremban","NSN"
"70400","Kampung Merbah Indah","Seremban","NSN"
"70400","Kampung Paroi","Seremban","NSN"
"70400","Kampung Sekolah","Seremban","NSN"
"70400","Kampung Sentosa Ampangan","Seremban","NSN"
"70400","Kampung Seri Landak","Seremban","NSN"
"70400","Kampung Sikamat","Seremban","NSN"
"70400","Kampung Sri Panchor","Seremban","NSN"
"70400","Kampung Sungai Landak","Seremban","NSN"
"70400","Kampung Sungai Pupoh","Seremban","NSN"
"70400","Kampung Ujong Pasir","Seremban","NSN"
"70400","Kem Sikamat","Seremban","NSN"
"70400","Lot 1767 Sikamat","Seremban","NSN"
"70400","Lot 1768 Sikamat","Seremban","NSN"
"70400","Lot 780 Sikamat","Seremban","NSN"
"70400","Rumah Murah Km 5 Sikamat","Seremban","NSN"
"70400","Seremban Putra","Seremban","NSN"
"70400","Stadium Tuanku Abdul Rahman","Seremban","NSN"
"70400","Taman Ampangan Jaya","Seremban","NSN"
"70400","Taman Ampangan","Seremban","NSN"
"70400","Taman Anzac","Seremban","NSN"
"70400","Taman Bakawali","Seremban","NSN"
"70400","Taman Bukit Kelana","Seremban","NSN"
"70400","Taman Bukit Nibong","Seremban","NSN"
"70400","Taman Bukti Setia","Seremban","NSN"
"70400","Taman Bukti","Seremban","NSN"
"70400","Taman Casurina Fasa 2","Seremban","NSN"
"70400","Taman College Height","Seremban","NSN"
"70400","Taman Coral Height","Seremban","NSN"
"70400","Taman Dato Shah Bandar","Seremban","NSN"
"70400","Taman Dato Wan","Seremban","NSN"
"70400","Taman Desa Beringin","Seremban","NSN"
"70400","Taman Desa Jaya","Seremban","NSN"
"70400","Taman Desa Kiara","Seremban","NSN"
"70400","Taman Desa Manggis","Seremban","NSN"
"70400","Taman Desa Rhu","Seremban","NSN"
"70400","Taman Desa Ros","Seremban","NSN"
"70400","Taman England","Seremban","NSN"
"70400","Taman Golf Heights","Seremban","NSN"
"70400","Taman Indah (Ampangan)","Seremban","NSN"
"70400","Taman JS Union","Seremban","NSN"
"70400","Taman Jerlang Indah","Seremban","NSN"
"70400","Taman Jujur","Seremban","NSN"
"70400","Taman Kiambang Indah","Seremban","NSN"
"70400","Taman Kim Soon","Seremban","NSN"
"70400","Taman Lavender Height","Seremban","NSN"
"70400","Taman Megaway","Seremban","NSN"
"70400","Taman Meranti Jaya","Seremban","NSN"
"70400","Taman Murni","Seremban","NSN"
"70400","Taman NZ","Seremban","NSN"
"70400","Taman Negeri (Ampangan)","Seremban","NSN"
"70400","Taman PJ Perdana","Seremban","NSN"
"70400","Taman Panchor Jaya","Seremban","NSN"
"70400","Taman Paroi Jaya","Seremban","NSN"
"70400","Taman Pelangi","Seremban","NSN"
"70400","Taman Pinang Gading","Seremban","NSN"
"70400","Taman Pinggiran Golf","Seremban","NSN"
"70400","Taman Pulai Impian","Seremban","NSN"
"70400","Taman Pulai Perdana","Seremban","NSN"
"70400","Taman Purba","Seremban","NSN"
"70400","Taman Rashibah Indah","Seremban","NSN"
"70400","Taman Sakura","Seremban","NSN"
"70400","Taman Selasih","Seremban","NSN"
"70400","Taman Sena Jaya","Seremban","NSN"
"70400","Taman Seri Landak","Seremban","NSN"
"70400","Taman Seri Negeri","Seremban","NSN"
"70400","Taman Seri Paroi","Seremban","NSN"
"70400","Taman Seri Rambai","Seremban","NSN"
"70400","Taman Seri Tanjung","Seremban","NSN"
"70400","Taman Shukor","Seremban","NSN"
"70400","Taman Sikamat Indah","Seremban","NSN"
"70400","Taman Sikamat Jaya","Seremban","NSN"
"70400","Taman Sikamat Utama","Seremban","NSN"
"70400","Taman Sikamat","Seremban","NSN"
"70400","Taman Sri Inai","Seremban","NSN"
"70400","Taman Sri Penaga 11","Seremban","NSN"
"70400","Taman Sri Pulai 3","Seremban","NSN"
"70400","Taman Sri Pulai","Seremban","NSN"
"70400","Taman Sri Telawi","Seremban","NSN"
"70400","Taman Suliana 2","Seremban","NSN"
"70400","Taman Suliana","Seremban","NSN"
"70400","Taman Tasek Jaya (1 & 2)","Seremban","NSN"
"70400","Taman Temiang Jaya","Seremban","NSN"
"70400","Taman Zaiton Indah","Seremban","NSN"
"70400","Tepian Gelanggang","Seremban","NSN"
"70400","Zon Perindustrian Tasek Jaya","Seremban","NSN"
"70450","City Square Senawang","Seremban","NSN"
"70450","Flat Senawang Jaya","Seremban","NSN"
"70450","Flat Sri Mawar","Seremban","NSN"
"70450","Jalan Tampin (Hingga Km 7)","Seremban","NSN"
"70450","Kampung Baru Senawang","Seremban","NSN"
"70450","Kawasan Perindustrian Senawang","Seremban","NSN"
"70450","Kawasan Perusahaan Senawang","Seremban","NSN"
"70450","Senawang Business Park","Seremban","NSN"
"70450","Senawang Commercial Park","Seremban","NSN"
"70450","Senawang Industrial Estate","Seremban","NSN"
"70450","Senawang","Seremban","NSN"
"70450","Taman Alamanda","Seremban","NSN"
"70450","Taman Bandar Senawang","Seremban","NSN"
"70450","Taman Bukit Emas","Seremban","NSN"
"70450","Taman Cempaka","Seremban","NSN"
"70450","Taman Desa Anggerik","Seremban","NSN"
"70450","Taman Desa Dahlia","Seremban","NSN"
"70450","Taman Desa Exora","Seremban","NSN"
"70450","Taman Desa Flora","Seremban","NSN"
"70450","Taman Desa Melor","Seremban","NSN"
"70450","Taman Desa Orkid","Seremban","NSN"
"70450","Taman Duranta","Seremban","NSN"
"70450","Taman Fajar Indah","Seremban","NSN"
"70450","Taman Guru-Guru","Seremban","NSN"
"70450","Taman Imigresen","Seremban","NSN"
"70450","Taman Jasmine Indah","Seremban","NSN"
"70450","Taman Jasmine","Seremban","NSN"
"70450","Taman Kemuning","Seremban","NSN"
"70450","Taman Kobena","Seremban","NSN"
"70450","Taman Lily Sutra","Seremban","NSN"
"70450","Taman Lily","Seremban","NSN"
"70450","Taman Marida","Seremban","NSN"
"70450","Taman Matahari Height (Bukit Matahari)","Seremban","NSN"
"70450","Taman Matahari Indah","Seremban","NSN"
"70450","Taman Merpati","Seremban","NSN"
"70450","Taman Pusat Bandar Senawang","Seremban","NSN"
"70450","Taman RPKR Senawang","Seremban","NSN"
"70450","Taman Rasa Sayang","Seremban","NSN"
"70450","Taman Rashidah Utama","Seremban","NSN"
"70450","Taman Rose Mewah","Seremban","NSN"
"70450","Taman Satria","Seremban","NSN"
"70450","Taman Senangin","Seremban","NSN"
"70450","Taman Senawang Indah","Seremban","NSN"
"70450","Taman Senawang Jaya","Seremban","NSN"
"70450","Taman Seremban Jaya","Seremban","NSN"
"70450","Taman Seri Kasih","Seremban","NSN"
"70450","Taman Seri Mawar","Seremban","NSN"
"70450","Taman Seri Pagi","Seremban","NSN"
"70450","Taman Setia Hati","Seremban","NSN"
"70450","Taman Siantan","Seremban","NSN"
"70450","Taman Sri Bayu","Seremban","NSN"
"70450","Taman Teratai Indah","Seremban","NSN"
"70450","Taman Teratai","Seremban","NSN"
"70450","Taman Widuri","Seremban","NSN"
"70500","DYMM Yang Di Pertuan Besar Negeri Sembilan","Seremban","NSN"
"70502","YAB Menteri Besar Negeri Sembilan","Seremban","NSN"
"70503","Setiausaha Kerajaan Negeri","Seremban","NSN"
"70504","Biro Bantuan Guaman","Seremban","NSN"
"70505","Biro Pengaduan Awam","Seremban","NSN"
"70506","Mahkamah Tinggi","Seremban","NSN"
"70508","Amanah Raya Berhad","Seremban","NSN"
"70512","Penasihat Undang-Undang Negeri","Seremban","NSN"
"70516","Jabatan Pemegang Harta","Seremban","NSN"
"70517","Jabatan Perpaduan Negara","Seremban","NSN"
"70518","Ketua Audit Negeri","Seremban","NSN"
"70532","Jabatan Sumber Manusia","Seremban","NSN"
"70534","Jabatan Kilang & Jentera","Seremban","NSN"
"70536","Jabatan Perhubungan Perusahaan","Seremban","NSN"
"70540","Jabatan Tenaga Rakyat","Seremban","NSN"
"70546","Pejabat Rela Negeri","Seremban","NSN"
"70548","Jabatan Hal Ehwal Orang Asli","Seremban","NSN"
"70550","Jabatan Imigresen","Seremban","NSN"
"70551","Jabatan Pendaftaran Negara","Seremban","NSN"
"70558","Penguasa Penjara","Seremban","NSN"
"70560","Ketua Polis Negeri","Seremban","NSN"
"70564","Jabatan Kebajikan Masyarakat","Seremban","NSN"
"70570","Jabatan Belia & Sukan","Seremban","NSN"
"70572","Perpustakaan Awam Negeri","Seremban","NSN"
"70576","Jabatan Tanah & Galian","Seremban","NSN"
"70578","Jabatan Ukur & Pemetaan","Seremban","NSN"
"70582","Jabatan Kerja Raya","Seremban","NSN"
"70586","Hospital Seremban","Seremban","NSN"
"70590","Jabatan Kesihatan","Seremban","NSN"
"70592","Pegawai Kewangan Negeri","Seremban","NSN"
"70594","Akauntan Negeri","Seremban","NSN"
"70596","Jabatan Kastam & Eksais Di Raja","Seremban","NSN"
"70600","Lembaga Hasil Dalam Negeri","Seremban","NSN"
"70604","Jabatan Pendidikan","Seremban","NSN"
"70606","Jabatan Kemajuan Masyarakat (Kemas)","Seremban","NSN"
"70608","Jabatan Pembangunan Koperasi","Seremban","NSN"
"70609","Pejabat Mara Negeri","Seremban","NSN"
"70610","Bahagian Pelesenan - Kementerian Penerangan","Seremban","NSN"
"70620","Jabatan Pengangkutan Jalan","Seremban","NSN"
"70626","Jabatan Pengairan & Saliran","Seremban","NSN"
"70628","Jabatan Perikanan","Seremban","NSN"
"70632","Jabatan Pertanian","Seremban","NSN"
"70634","Panglima Markas 1 Breged (Kem Rasah)","Seremban","NSN"
"70644","Majlis Perbandaran Seremban","Seremban","NSN"
"70646","Jabatan Perancang Bandar & Desa","Seremban","NSN"
"70648","Jabatan Bomba & PenyeLamat","Seremban","NSN"
"70658","Jabatan Kajibumi","Seremban","NSN"
"70664","Jabatan Perhilitan","Seremban","NSN"
"70670","Pos Malaysia Berhad","Seremban","NSN"
"70672","Telekom Malaysia Berhad","Seremban","NSN"
"70673","Tenaga Nasional Berhad","Seremban","NSN"
"70674","Pegawai Kemajuan Negeri","Seremban","NSN"
"70676","Jabatan Agama Islam Negeri Sembilan","Seremban","NSN"
"70690","Suruhanjaya Pilihan Raya Negeri","Seremban","NSN"
"70700","Seremban - Peti surat 1 - 80","Seremban","NSN"
"70710","Seremban - Peti surat 81 - 160","Seremban","NSN"
"70720","Seremban - Peti surat 161 - 240","Seremban","NSN"
"70730","Seremban - Peti surat 241 - 320","Seremban","NSN"
"70740","Seremban - Peti surat 321 - 400","Seremban","NSN"
"70750","Seremban - Peti surat 401 & ke atas","Seremban","NSN"
"70990","Seremban - Beg berkunci","Seremban","NSN"
"71000","Andrappan Block","Port Dickson","NSN"
"71000","Arkid Mara","Port Dickson","NSN"
"71000","Ayer Meleleh","Port Dickson","NSN"
"71000","Bukit Tuan Sheikh","Port Dickson","NSN"
"71000","Ginder Singh Block","Port Dickson","NSN"
"71000","Goh San Block","Port Dickson","NSN"
"71000","Kampung Arab","Port Dickson","NSN"
"71000","Kampung Bagan Pinang Batu 2 1/2","Port Dickson","NSN"
"71000","Kampung Bagan Pinang","Port Dickson","NSN"
"71000","Kampung Benggali","Port Dickson","NSN"
"71000","Kampung Chokra","Port Dickson","NSN"
"71000","Kampung Cina","Port Dickson","NSN"
"71000","Kampung Dhoby","Port Dickson","NSN"
"71000","Kampung Gelam","Port Dickson","NSN"
"71000","Kampung Gopal Raju","Port Dickson","NSN"
"71000","Kampung Hailam","Port Dickson","NSN"
"71000","Kampung Jawa","Port Dickson","NSN"
"71000","Kampung Melayu","Port Dickson","NSN"
"71000","Kampung Paya","Port Dickson","NSN"
"71000","Kampung Raja Hitam","Port Dickson","NSN"
"71000","Kampung Teck Lin","Port Dickson","NSN"
"71000","Kompleks Pendidikan Sentosa Jalan Pantai","Port Dickson","NSN"
"71000","Kompleks Pendidikan Sri Pinang Jalan Pantai","Port Dickson","NSN"
"71000","Ladang Mann","Port Dickson","NSN"
"71000","Ladang Port Dickson Lukut","Port Dickson","NSN"
"71000","Ladang St Leonard","Port Dickson","NSN"
"71000","Ladang Sua Betong","Port Dickson","NSN"
"71000","Ladang Sunggala","Port Dickson","NSN"
"71000","Ladang Tanah Merah","Port Dickson","NSN"
"71000","Port Dickson","Port Dickson","NSN"
"71000","Quarters Pegawai Kanan TNB Batu 1 1/2 Jalan Pantai","Port Dickson","NSN"
"71000","Quarters TNB Kampung Gelam Jalan Seremban","Port Dickson","NSN"
"71000","Shell Garden","Port Dickson","NSN"
"71000","Simpang Ampat","Port Dickson","NSN"
"71000","Taman Bakti II","Port Dickson","NSN"
"71000","Taman Bukit Samudera Baru","Port Dickson","NSN"
"71000","Taman Bukit Samudra","Port Dickson","NSN"
"71000","Taman Bukit Tuan Sheikh","Port Dickson","NSN"
"71000","Taman Damai","Port Dickson","NSN"
"71000","Taman Desa Permai","Port Dickson","NSN"
"71000","Taman Desa Pinang","Port Dickson","NSN"
"71000","Taman Desa Setia Jalan Pantai","Port Dickson","NSN"
"71000","Taman Eksklusif","Port Dickson","NSN"
"71000","Taman Flora","Port Dickson","NSN"
"71000","Taman Four Sea","Port Dickson","NSN"
"71000","Taman Gelam","Port Dickson","NSN"
"71000","Taman Happy","Port Dickson","NSN"
"71000","Taman Indah Desa","Port Dickson","NSN"
"71000","Taman Indah Emas","Port Dickson","NSN"
"71000","Taman Kampung Paya Utama","Port Dickson","NSN"
"71000","Taman Kenangan","Port Dickson","NSN"
"71000","Taman Kian Yap","Port Dickson","NSN"
"71000","Taman Kiara","Port Dickson","NSN"
"71000","Taman Koperasi Setia","Port Dickson","NSN"
"71000","Taman Megah","Port Dickson","NSN"
"71000","Taman Mekar","Port Dickson","NSN"
"71000","Taman Mewah","Port Dickson","NSN"
"71000","Taman Mika Mas","Port Dickson","NSN"
"71000","Taman Minang","Port Dickson","NSN"
"71000","Taman Muhibbah","Port Dickson","NSN"
"71000","Taman NLFCS","Port Dickson","NSN"
"71000","Taman Negeri Baru","Port Dickson","NSN"
"71000","Taman Negeri","Port Dickson","NSN"
"71000","Taman Nesa","Port Dickson","NSN"
"71000","Taman Orkid","Port Dickson","NSN"
"71000","Taman PD Lagenda","Port Dickson","NSN"
"71000","Taman PD Mewah","Port Dickson","NSN"
"71000","Taman PD Suria","Port Dickson","NSN"
"71000","Taman PD Sutera","Port Dickson","NSN"
"71000","Taman PD Utama","Port Dickson","NSN"
"71000","Taman Pantai Mas","Port Dickson","NSN"
"71000","Taman Pendang","Port Dickson","NSN"
"71000","Taman Perdana","Port Dickson","NSN"
"71000","Taman Persiaran Kurau","Port Dickson","NSN"
"71000","Taman Pertama","Port Dickson","NSN"
"71000","Taman Putra","Port Dickson","NSN"
"71000","Taman Putri","Port Dickson","NSN"
"71000","Taman Ria","Port Dickson","NSN"
"71000","Taman Samudra","Port Dickson","NSN"
"71000","Taman Sea View","Port Dickson","NSN"
"71000","Taman Sejahtera","Port Dickson","NSN"
"71000","Taman Selasih","Port Dickson","NSN"
"71000","Taman Seri Bandar","Port Dickson","NSN"
"71000","Taman Seri Bayu","Port Dickson","NSN"
"71000","Taman Seri Intan","Port Dickson","NSN"
"71000","Taman Seri Tanjong","Port Dickson","NSN"
"71000","Taman Seroja","Port Dickson","NSN"
"71000","Taman Sri Mawar Fasa II","Port Dickson","NSN"
"71000","Taman Sukaria","Port Dickson","NSN"
"71000","Taman Tanjong Fasa II","Port Dickson","NSN"
"71000","Taman Tanjong Fasa III","Port Dickson","NSN"
"71000","Taman Tanjong Fasa IV","Port Dickson","NSN"
"71000","Taman Tanjong","Port Dickson","NSN"
"71000","Taman Tuan Sheikh","Port Dickson","NSN"
"71000","Tan Book Kwee Block","Port Dickson","NSN"
"71000","Tan Liew Block","Port Dickson","NSN"
"71000","Tan Toh Guan Block","Port Dickson","NSN"
"71000","Tanjung Gemok","Port Dickson","NSN"
"71000","Tanjung Kemuning","Port Dickson","NSN"
"71000","Tong Seng Block","Port Dickson","NSN"
"71007","Port Dickson - Peti surat","Port Dickson","NSN"
"71009","Port Dickson - Beg berkunci","Port Dickson","NSN"
"71010","Bandar Baru Lukut Jaya","Port Dickson","NSN"
"71010","Bandar Baru Lukut","Port Dickson","NSN"
"71010","Bandar Spring Hill Fasa 2","Port Dickson","NSN"
"71010","Bandar Spring Hill Fasa 3","Port Dickson","NSN"
"71010","Bandar Spring Hill Fasa 4","Port Dickson","NSN"
"71010","Bandar Spring Hill","Port Dickson","NSN"
"71010","Dataran Segar","Port Dickson","NSN"
"71010","Kampung Bukit Palong","Port Dickson","NSN"
"71010","Kampung Parit Gila","Port Dickson","NSN"
"71010","Kampung Pasir","Port Dickson","NSN"
"71010","Kampung Sungai Sendayan","Rantau","NSN"
"71010","Kompleks Pendidikan Guru","Port Dickson","NSN"
"71010","Kuala Lukut","Port Dickson","NSN"
"71010","Lukut","Port Dickson","NSN"
"71010","Taman Aman","Port Dickson","NSN"
"71010","Taman Bunga Raya","Port Dickson","NSN"
"71010","Taman Cemerlang","Port Dickson","NSN"
"71010","Taman Desaru","Port Dickson","NSN"
"71010","Taman Indah Baru","Port Dickson","NSN"
"71010","Taman Indah Jaya","Port Dickson","NSN"
"71010","Taman Industri","Port Dickson","NSN"
"71010","Taman Jaya Lukut","Port Dickson","NSN"
"71010","Taman Jaya","Port Dickson","NSN"
"71010","Taman Jimah Jaya","Port Dickson","NSN"
"71010","Taman Kian Yap","Port Dickson","NSN"
"71010","Taman Lukut Permai","Port Dickson","NSN"
"71010","Taman Lukut","Port Dickson","NSN"
"71010","Taman PD Jaya","Port Dickson","NSN"
"71010","Taman Sentosa","Port Dickson","NSN"
"71010","Taman Seri Jimah","Port Dickson","NSN"
"71010","Taman Seroja","Port Dickson","NSN"
"71010","Taman Sri Aman","Port Dickson","NSN"
"71010","Taman Sri Lukut","Port Dickson","NSN"
"71010","Taman Tun Sambanthan","Port Dickson","NSN"
"71010","Taman Vista Jaya","Port Dickson","NSN"
"71010","Taman Wawasan","Port Dickson","NSN"
"71050","Bandar Baru Sunggala","Si Rusa","NSN"
"71050","Coco Bay","Si Rusa","NSN"
"71050","Institut Teknologi Kejuruteraan","Si Rusa","NSN"
"71050","Jalan Pantai (Batu 4 - 10)","Si Rusa","NSN"
"71050","Kampung Askot","Si Rusa","NSN"
"71050","Kampung Baru SiRusa","Si Rusa","NSN"
"71050","Kampung Baru Sunggala","Si Rusa","NSN"
"71050","Kampung Orang Asli","Si Rusa","NSN"
"71050","Kampung Sawah Sunggala","Si Rusa","NSN"
"71050","Kampung Si Rusa","Si Rusa","NSN"
"71050","Kampung Sungai Menyala","Si Rusa","NSN"
"71050","Kampung Telok Kemang","Si Rusa","NSN"
"71050","Kem 1 Woksyop Brigade","Si Rusa","NSN"
"71050","Kem Lateda","Si Rusa","NSN"
"71050","Kem Pulamor","Si Rusa","NSN"
"71050","Kem Pusarti","Si Rusa","NSN"
"71050","Kem Pusat Olah Perang","Si Rusa","NSN"
"71050","Kem Sebatang Kara","Si Rusa","NSN"
"71050","Kem Segenting","Si Rusa","NSN"
"71050","Kem Sekolah Pengurusan Tentera Darat","Si Rusa","NSN"
"71050","Kem Sunggala","Si Rusa","NSN"
"71050","PD Garison","Si Rusa","NSN"
"71050","Resort Laguna","Si Rusa","NSN"
"71050","Resort Sri Bulan","Si Rusa","NSN"
"71050","Segenting","Si Rusa","NSN"
"71050","Si Rusa","Si Rusa","NSN"
"71050","Siginting Estate","Si Rusa","NSN"
"71050","Sua Betong","Si Rusa","NSN"
"71050","Taman Abu Zarim","Si Rusa","NSN"
"71050","Taman Anika","Si Rusa","NSN"
"71050","Taman Astana Harmoni","Si Rusa","NSN"
"71050","Taman Baru Kemang","Si Rusa","NSN"
"71050","Taman Bukit Perdana","Si Rusa","NSN"
"71050","Taman Bunga Kertas","Si Rusa","NSN"
"71050","Taman Dato Abdul Samad","Si Rusa","NSN"
"71050","Taman Desa Rusa","Si Rusa","NSN"
"71050","Taman Eastern Fasa 2","Si Rusa","NSN"
"71050","Taman Eastern","Si Rusa","NSN"
"71050","Taman Green View (Batu 12)","Si Rusa","NSN"
"71050","Taman Intan Perdana","Si Rusa","NSN"
"71050","Taman Koperasi Guru","Si Rusa","NSN"
"71050","Taman Melati","Si Rusa","NSN"
"71050","Taman Minda","Si Rusa","NSN"
"71050","Taman Orkid","Si Rusa","NSN"
"71050","Taman Pantai Port Dickson","Si Rusa","NSN"
"71050","Taman Politeknik","Si Rusa","NSN"
"71050","Taman Selayang","Si Rusa","NSN"
"71050","Taman Seri Pinang","Si Rusa","NSN"
"71050","Taman Sirusa","Si Rusa","NSN"
"71050","Taman Sua Betong","Si Rusa","NSN"
"71050","Taman TKK","Si Rusa","NSN"
"71050","Taman Tiara","Si Rusa","NSN"
"71050","Teluk Kemang","Si Rusa","NSN"
"71050","Teluk Pelandok","Si Rusa","NSN"
"71059","Si Rusa - Beg Berkunci","Si Rusa","NSN"
"71100","Atherthon Estate","Rantau","NSN"
"71100","Bradwall Estate","Rantau","NSN"
"71100","Guthrie Latex","Rantau","NSN"
"71100","Kampung Haji Ali Saga","Rantau","NSN"
"71100","Ladang Jemima","Rantau","NSN"
"71100","Ladang Saga","Rantau","NSN"
"71100","Ladang Sendayan","Rantau","NSN"
"71100","Ladang Siliau Selatan","Rantau","NSN"
"71100","Ladang Sungai Salak","Rantau","NSN"
"71100","Saga","Rantau","NSN"
"71100","Siliau Estate","Rantau","NSN"
"71100","Siliau","Rantau","NSN"
"71100","Sungai Sendayan Estate","Rantau","NSN"
"71100","Takau (Km 34)","Rantau","NSN"
"71100","Taman Cemerlang","Rantau","NSN"
"71100","Taman Sri Ramai Kuala Sawah","Rantau","NSN"
"71109","Siliau - Beg berkunci","Rantau","NSN"
"71150","Kampung Air Hitam","Linggi","NSN"
"71150","Kampung Bangsal Atap","Linggi","NSN"
"71150","Kampung Baru Linggi","Linggi","NSN"
"71150","Kampung Baru Nerambai","Linggi","NSN"
"71150","Kampung Baru Semin","Linggi","NSN"
"71150","Kampung Baru Simin","Linggi","NSN"
"71150","Kampung Baru Titian Akar","Linggi","NSN"
"71150","Kampung Bukit Chakong","Linggi","NSN"
"71150","Kampung Haji Yusof","Linggi","NSN"
"71150","Kampung Hulu Semin Baru","Linggi","NSN"
"71150","Kampung Hulu Simin","Linggi","NSN"
"71150","Kampung Kemadak","Linggi","NSN"
"71150","Kampung Kubang Badak","Linggi","NSN"
"71150","Kampung Linggi","Linggi","NSN"
"71150","Kampung Nerambai","Linggi","NSN"
"71150","Kampung Panchang","Linggi","NSN"
"71150","Kampung Pedas Estate","Linggi","NSN"
"71150","Kampung Pengkalan Kempas","Linggi","NSN"
"71150","Kampung Permatang Pasir","Linggi","NSN"
"71150","Kampung Semin","Linggi","NSN"
"71150","Kampung Sungai Radin Dalam","Linggi","NSN"
"71150","Kampung Sungai Radin","Linggi","NSN"
"71150","Kampung Sungai Timun Dalam","Linggi","NSN"
"71150","Kampung Sungai Timun","Linggi","NSN"
"71150","Kampung Tampin Linggi Dalam","Linggi","NSN"
"71150","Kampung Tampin Linggi","Linggi","NSN"
"71150","Kampung Tanah Arab","Linggi","NSN"
"71150","Kampung Titian Akar","Linggi","NSN"
"71150","Kampung Titian Bentagor","Linggi","NSN"
"71150","Kampung Titian Bintangor Hulu","Linggi","NSN"
"71150","Kampung Ulu Semin","Linggi","NSN"
"71150","Kampung Yeow Kim Fong","Linggi","NSN"
"71150","Kuala Pedas Estate","Linggi","NSN"
"71150","Ladang Angkok","Linggi","NSN"
"71150","Ladang Bukit Bertam","Linggi","NSN"
"71150","Ladang Kempas","Linggi","NSN"
"71150","Ladang Kuala Pedas","Linggi","NSN"
"71150","Ladang Marlow","Linggi","NSN"
"71150","Ladang Pengkalan Durian","Linggi","NSN"
"71150","Ladang Sungai Baru","Linggi","NSN"
"71150","Ladang Tarzan","Linggi","NSN"
"71150","Ladang Tiong Hoe","Linggi","NSN"
"71150","Linggi","Linggi","NSN"
"71150","Pengkalan Durian","Linggi","NSN"
"71150","Pengkalan Kempas","Linggi","NSN"
"71150","Rumah Rakyat Lubok China","Linggi","NSN"
"71150","Rumah Rakyat Pengkalan Durian","Linggi","NSN"
"71150","Rumah Rakyat Pengkalan Fasa 2","Linggi","NSN"
"71150","Rumah Rakyat Sungai Timun","Linggi","NSN"
"71150","Sua Manggis Estate","Linggi","NSN"
"71150","Sua Manggis","Linggi","NSN"
"71150","Sungai Baru Estate","Linggi","NSN"
"71150","Takau (Km 34)","Linggi","NSN"
"71150","Taman Kempas","Linggi","NSN"
"71150","Taman Linggi","Linggi","NSN"
"71150","Titian Bintangor Estate","Linggi","NSN"
"71150","Titian Bintangor","Linggi","NSN"
"71159","Linggi - Beg berkunci","Linggi","NSN"
"71200","Bandar Ekar Rantau","Rantau","NSN"
"71200","Jalan Mutiara 1 - 3","Rantau","NSN"
"71200","Jalan Nilam 2 - 5","Rantau","NSN"
"71200","Kampung Barisan","Rantau","NSN"
"71200","Kampung Baru Kombok","Rantau","NSN"
"71200","Kampung Baru Rantau","Rantau","NSN"
"71200","Kampung Belangkan","Rantau","NSN"
"71200","Kampung Kanapathy","Rantau","NSN"
"71200","Kampung Kanchong","Rantau","NSN"
"71200","Kampung Kuala Sawah","Rantau","NSN"
"71200","Kampung Linsum","Rantau","NSN"
"71200","Kampung Masjid Solok","Rantau","NSN"
"71200","Kampung Nyatoh","Rantau","NSN"
"71200","Kampung Pasir Jalan Kuala Sawah","Rantau","NSN"
"71200","Kampung Pasir Jalan Silau","Rantau","NSN"
"71200","Kampung Pasir Mas","Rantau","NSN"
"71200","Kampung Pasir","Rantau","NSN"
"71200","Kampung Pening","Rantau","NSN"
"71200","Kampung Ribu","Rantau","NSN"
"71200","Kampung Saga","Rantau","NSN"
"71200","Kampung Sega Hilir","Rantau","NSN"
"71200","Kampung Sega Tengah","Rantau","NSN"
"71200","Kampung Sega Ulu","Rantau","NSN"
"71200","Kampung Sega","Rantau","NSN"
"71200","Kampung Setesen","Rantau","NSN"
"71200","Kampung Siliau","Rantau","NSN"
"71200","Kampung Sri Lalang","Rantau","NSN"
"71200","Kampung Takau (Batu 17)","Rantau","NSN"
"71200","Kampung Takau","Rantau","NSN"
"71200","Kampung Tanjong Rantau","Rantau","NSN"
"71200","Kampung Ulu Belangkan","Rantau","NSN"
"71200","Kampung Ulu Lalang","Rantau","NSN"
"71200","Kampung Ulu Sawah","Rantau","NSN"
"71200","Kombok Estate","Rantau","NSN"
"71200","Kuala Sawah","Rantau","NSN"
"71200","Ladang Ayer Kuning","Rantau","NSN"
"71200","Ladang Leong Hin Sin","Rantau","NSN"
"71200","Ladang Linsum","Rantau","NSN"
"71200","Ladang Ribu","Rantau","NSN"
"71200","Linsun (Km 22)","Rantau","NSN"
"71200","Rantau","Rantau","NSN"
"71200","Rumah Rakyat Jalan Linsun","Rantau","NSN"
"71200","Rumah Rakyat Kuala Sawah","Rantau","NSN"
"71200","Rumah Rakyat Nyatoh","Rantau","NSN"
"71200","Rumah Rakyat Sri Lalang","Rantau","NSN"
"71200","Rumah Rakyat Taman Rantau","Rantau","NSN"
"71200","Sua Grensing","Rantau","NSN"
"71200","Takau (Km 27)","Rantau","NSN"
"71200","Taman Air Kuning","Rantau","NSN"
"71200","Taman Anggerik","Rantau","NSN"
"71200","Taman Baru Sua Betong","Rantau","NSN"
"71200","Taman Bersatu","Rantau","NSN"
"71200","Taman Bunga Raya (Jalan Siliau)","Rantau","NSN"
"71200","Taman Bunga Raya 2 (Ulu Sawah)","Rantau","NSN"
"71200","Taman Bunga Sejati (1 & 2)","Rantau","NSN"
"71200","Taman Cempaka","Rantau","NSN"
"71200","Taman Delima","Rantau","NSN"
"71200","Taman Desa PD","Rantau","NSN"
"71200","Taman Industri Ringan Nilam","Rantau","NSN"
"71200","Taman Jed Indah Kuala Sawah","Rantau","NSN"
"71200","Taman Koperasi Kuala sawah","Rantau","NSN"
"71200","Taman Kristal","Rantau","NSN"
"71200","Taman Mewah Linggi","Rantau","NSN"
"71200","Taman Mutiara","Rantau","NSN"
"71200","Taman Orkid (Kampung Siliau)","Rantau","NSN"
"71200","Taman Pasir Mas","Rantau","NSN"
"71200","Taman Rantau Jaya","Rantau","NSN"
"71200","Taman Rantau","Rantau","NSN"
"71200","Taman Seri Aman","Rantau","NSN"
"71200","Taman Seri Intan","Rantau","NSN"
"71200","Taman Seri Ramai 1","Rantau","NSN"
"71200","Taman Seri Ramai 2","Rantau","NSN"
"71200","Taman Sri Anggerik","Rantau","NSN"
"71200","Taman Sri Mawar","Rantau","NSN"
"71200","Tampin Linggi Estate","Rantau","NSN"
"71200","Ulu Belangkan","Rantau","NSN"
"71200","Ulu Kanchong Estate","Rantau","NSN"
"71200","Ulu Sawah","Rantau","NSN"
"71209","Rantau - Beg berkunci","Rantau","NSN"
"71250","Air Hitam","Si Rusa","NSN"
"71250","Bengal Estate","Si Rusa","NSN"
"71250","Jalan Pantai (Batu 13 & 15)","Si Rusa","NSN"
"71250","Kampung Balak","Si Rusa","NSN"
"71250","Kampung Bukit Ibol","Si Rusa","NSN"
"71250","Kampung Bukit Kepong","Si Rusa","NSN"
"71250","Kampung Bukit Tembok","Si Rusa","NSN"
"71250","Kampung Orang Asli","Si Rusa","NSN"
"71250","Kampung Pasir Panjang","Si Rusa","NSN"
"71250","Kampung Pasir Tanjong","Si Rusa","NSN"
"71250","Kampung Sengkang (A - C)","Si Rusa","NSN"
"71250","Kampung Sengkang","Si Rusa","NSN"
"71250","Kampung Sungai Raya","Si Rusa","NSN"
"71250","Kampung Sungai Sekawang","Si Rusa","NSN"
"71250","Kampung Tanjong Agas","Si Rusa","NSN"
"71250","Kampung Telok","Si Rusa","NSN"
"71250","Pasir Panjang","Si Rusa","NSN"
"71250","Rumah Murah Pasir Panjang","Si Rusa","NSN"
"71250","Taman Chye","Si Rusa","NSN"
"71250","Taman Pasir Panjang","Si Rusa","NSN"
"71250","Taman Sengkang","Si Rusa","NSN"
"71250","Taman Seri Cermai","Si Rusa","NSN"
"71250","Taman Setia","Si Rusa","NSN"
"71250","Tanjung Agas","Si Rusa","NSN"
"71259","Ladang Sengkang (Batu 14, 18 & 22)","Si Rusa","NSN"
"71259","Pasir Panjang - Beg berkunci","Si Rusa","NSN"
"71300","Ampang Batu Chembong","Rembau","NSN"
"71300","Ampang Penajis","Rembau","NSN"
"71300","Ayer Sekapas","Rembau","NSN"
"71300","Batu Nunggul","Rembau","NSN"
"71300","Batu Puteh","Rembau","NSN"
"71300","Chembong (Km 27)","Rembau","NSN"
"71300","Chembong Halt","Rembau","NSN"
"71300","Chembong Kechil","Rembau","NSN"
"71300","Chengkau","Rembau","NSN"
"71300","Chenong","Rembau","NSN"
"71300","Desa Chembong","Rembau","NSN"
"71300","Desa Permai Mampong","Rembau","NSN"
"71300","Desa Permai Pilin","Rembau","NSN"
"71300","Durian Tunggal","Rembau","NSN"
"71300","Jalan Durian Daun (Batu 1/4)","Rembau","NSN"
"71300","Jirat Tok Budi","Rembau","NSN"
"71300","Kampung Ampang Batu (Batu Hampar)","Rembau","NSN"
"71300","Kampung Ayer Itam Chembong","Rembau","NSN"
"71300","Kampung Baru Ayer Hitam","Rembau","NSN"
"71300","Kampung Baru Bongek Acheh","Rembau","NSN"
"71300","Kampung Baru Chuai Ulu","Rembau","NSN"
"71300","Kampung Baru Mampong","Rembau","NSN"
"71300","Kampung Baru Nerasau","Rembau","NSN"
"71300","Kampung Baru Penajis","Rembau","NSN"
"71300","Kampung Baru Pulau Bongek","Rembau","NSN"
"71300","Kampung Baru Pulau Bukit","Rembau","NSN"
"71300","Kampung Baru Rembau","Rembau","NSN"
"71300","Kampung Baru Seberang (Batu Hampar)","Rembau","NSN"
"71300","Kampung Baru Senama Hilir","Rembau","NSN"
"71300","Kampung Batu 17 (Jalan Tampin)","Rembau","NSN"
"71300","Kampung Batu 7 (Jalan Tampin)","Rembau","NSN"
"71300","Kampung Batu Hampar","Rembau","NSN"
"71300","Kampung Batu","Rembau","NSN"
"71300","Kampung Berkat Chembong","Rembau","NSN"
"71300","Kampung Bintongan","Rembau","NSN"
"71300","Kampung Bongek Acheh","Rembau","NSN"
"71300","Kampung Bongek Tengah","Rembau","NSN"
"71300","Kampung Bongek","Rembau","NSN"
"71300","Kampung Bukit Tambang Kuda","Rembau","NSN"
"71300","Kampung Chenong Hulu","Rembau","NSN"
"71300","Kampung Chuai Hulu","Rembau","NSN"
"71300","Kampung Chuai","Rembau","NSN"
"71300","Kampung Durian Daun","Rembau","NSN"
"71300","Kampung Fajar Harapan Bongek","Rembau","NSN"
"71300","Kampung Jalan Wanita Sungai Layang","Rembau","NSN"
"71300","Kampung Kayu Ara","Rembau","NSN"
"71300","Kampung Lada","Rembau","NSN"
"71300","Kampung Mampong Hilir","Rembau","NSN"
"71300","Kampung Mampong","Rembau","NSN"
"71300","Kampung Masjid Senama","Rembau","NSN"
"71300","Kampung Masjid Tanah","Rembau","NSN"
"71300","Kampung Mayon","Rembau","NSN"
"71300","Kampung Miku Lama","Rembau","NSN"
"71300","Kampung Miku PIndah","Rembau","NSN"
"71300","Kampung Mulia","Rembau","NSN"
"71300","Kampung Nerasau Chengkau","Rembau","NSN"
"71300","Kampung Nerasau Senama","Rembau","NSN"
"71300","Kampung Padang Lebar","Rembau","NSN"
"71300","Kampung Paya Lebar","Rembau","NSN"
"71300","Kampung Penajis Chengkau","Rembau","NSN"
"71300","Kampung Penajis Tanjong","Rembau","NSN"
"71300","Kampung Perigi Batu Penajis","Rembau","NSN"
"71300","Kampung Perigi Jernih","Rembau","NSN"
"71300","Kampung Pilin","Rembau","NSN"
"71300","Kampung Pulau Acheh","Rembau","NSN"
"71300","Kampung Pulau Besar","Rembau","NSN"
"71300","Kampung Pulau Bintongan","Rembau","NSN"
"71300","Kampung Pulau Bongek","Rembau","NSN"
"71300","Kampung Pulau Bukit","Rembau","NSN"
"71300","Kampung Pulau Chuai","Rembau","NSN"
"71300","Kampung Pulau Hanyut","Rembau","NSN"
"71300","Kampung Pulau Mampat","Rembau","NSN"
"71300","Kampung Pulau Tengah","Rembau","NSN"
"71300","Kampung Relong","Rembau","NSN"
"71300","Kampung Rendah","Rembau","NSN"
"71300","Kampung Selemak Bongek","Rembau","NSN"
"71300","Kampung Selemak Sungai Layang","Rembau","NSN"
"71300","Kampung Selemak Ulu","Rembau","NSN"
"71300","Kampung Selemak","Rembau","NSN"
"71300","Kampung Senama Baru","Rembau","NSN"
"71300","Kampung Senama Hilir","Rembau","NSN"
"71300","Kampung Senama Tengah","Rembau","NSN"
"71300","Kampung Senama","Rembau","NSN"
"71300","Kampung Solok Jelawai","Rembau","NSN"
"71300","Kampung Sungai Layang","Rembau","NSN"
"71300","Kampung Tengah Penajis","Rembau","NSN"
"71300","Kampung Tengah Seperi","Rembau","NSN"
"71300","Kampung Ulu Chembong","Rembau","NSN"
"71300","Ladang Batu Hampar","Rembau","NSN"
"71300","Ladang Bukit Jelutong","Rembau","NSN"
"71300","Ladang Chembong","Rembau","NSN"
"71300","Ladang Kian Seng","Rembau","NSN"
"71300","Ladang Sang Lee","Rembau","NSN"
"71300","Ladang St Ives","Rembau","NSN"
"71300","Ladang Sungai Dua","Rembau","NSN"
"71300","Ladang Tong Hong","Rembau","NSN"
"71300","Ladang Weng Tat Pilin","Rembau","NSN"
"71300","Nerasau","Rembau","NSN"
"71300","Rembau","Rembau","NSN"
"71300","Rumah Rakyat Chembong","Rembau","NSN"
"71300","Seberang Batu Hampar","Rembau","NSN"
"71300","Senama Ulu","Rembau","NSN"
"71300","Simpang Kling","Rembau","NSN"
"71300","Solok Ampang Batu","Rembau","NSN"
"71300","Solok Chengkau","Rembau","NSN"
"71300","Taman Chembong Jaya","Rembau","NSN"
"71300","Taman Chembong Utama","Rembau","NSN"
"71300","Taman Dato Lela Maharaja","Rembau","NSN"
"71300","Taman Dato Sedia Raja","Rembau","NSN"
"71300","Taman Desa Chembong","Rembau","NSN"
"71300","Taman Kebun Kelapa","Rembau","NSN"
"71300","Taman Rembau Jaya","Rembau","NSN"
"71300","Taman Rembau Permata","Rembau","NSN"
"71300","Taman Rembau Utama","Rembau","NSN"
"71300","Taman Seri Puteri","Rembau","NSN"
"71300","Taman Sri Rembau","Rembau","NSN"
"71300","Tanah Datar","Rembau","NSN"
"71300","Tanjung Kling","Rembau","NSN"
"71300","Tanjung Sena Hilir","Rembau","NSN"
"71300","Tanjung Sena Hulu","Rembau","NSN"
"71300","Tengah Penajis","Rembau","NSN"
"71300","Tengah Sepri","Rembau","NSN"
"71300","Titian Teras","Rembau","NSN"
"71300","Waris Tebat","Rembau","NSN"
"71309","Rembau - Beg berkunci","Rembau","NSN"
"71350","Astana Raja","Kota","NSN"
"71350","Ayer Melintang","Kota","NSN"
"71350","Batang Nyamor","Kota","NSN"
"71350","Jalan Batang Nyamor","Kota","NSN"
"71350","Kampung Agam","Kota","NSN"
"71350","Kampung Baru Kendong","Kota","NSN"
"71350","Kampung Baru Semerbok","Kota","NSN"
"71350","Kampung Bukit Keledang","Kota","NSN"
"71350","Kampung Bukit Serajin","Kota","NSN"
"71350","Kampung Bukit Terap","Kota","NSN"
"71350","Kampung Chengai Sawah Raja","Kota","NSN"
"71350","Kampung Chengkau Hulu","Kota","NSN"
"71350","Kampung Cik Tambi","Kota","NSN"
"71350","Kampung Gadong","Kota","NSN"
"71350","Kampung Jawa","Kota","NSN"
"71350","Kampung Jeram","Kota","NSN"
"71350","Kampung Kendong Jaya","Kota","NSN"
"71350","Kampung Kendong Lama","Kota","NSN"
"71350","Kampung Kota","Kota","NSN"
"71350","Kampung Kuala Dadeh","Kota","NSN"
"71350","Kampung Limau Kambing","Kota","NSN"
"71350","Kampung Mungkal","Kota","NSN"
"71350","Kampung Padang Lebar","Kota","NSN"
"71350","Kampung Padang","Kota","NSN"
"71350","Kampung Perah","Kota","NSN"
"71350","Kampung Pulau Kota","Kota","NSN"
"71350","Kampung Sawah Raja","Kota","NSN"
"71350","Kampung Semabok (A - B)","Kota","NSN"
"71350","Kampung Semabok Masjid","Kota","NSN"
"71350","Kampung Semabok Sungai Serai","Kota","NSN"
"71350","Kampung Semerbok","Kota","NSN"
"71350","Kampung Solok Rembia","Kota","NSN"
"71350","Kampung Solok Tanjung Berangan","Kota","NSN"
"71350","Kampung Solok","Kota","NSN"
"71350","Kampung Tanah Datar","Kota","NSN"
"71350","Kampung Tanjong Legong Ulu","Kota","NSN"
"71350","Kampung Tanjong Pisang","Kota","NSN"
"71350","Kampung Tanjong","Kota","NSN"
"71350","Kampung Tiga Batu","Kota","NSN"
"71350","Kampung Tiga Nenek","Kota","NSN"
"71350","Kampung Titian Akar","Kota","NSN"
"71350","Kampung Ulu Gadong","Kota","NSN"
"71350","Kem Latihan Khidmat Negara Titian Bintangor","Kota","NSN"
"71350","Kem Latihan Khidmat Negara Ulu Pari","Kota","NSN"
"71350","Kendong Baru","Kota","NSN"
"71350","Kota","Kota","NSN"
"71350","Ladang Ban Lee","Kota","NSN"
"71350","Ladang Gadong","Kota","NSN"
"71350","Ladang Kendong","Kota","NSN"
"71350","Ladang Weng Tat","Kota","NSN"
"71350","Ladang Yap Han Soon","Kota","NSN"
"71350","Ladang Yusof","Kota","NSN"
"71350","Legong Hulu","Kota","NSN"
"71350","Legong Jaya","Kota","NSN"
"71350","Okod Harimau Legong Jaya","Kota","NSN"
"71350","Seberang Paya","Kota","NSN"
"71350","Seri Kendong","Kota","NSN"
"71350","Seri Melenggang","Kota","NSN"
"71350","Seri Tambah","Kota","NSN"
"71350","Solok Fajar","Kota","NSN"
"71350","Taman Azizah","Kota","NSN"
"71350","Taman Gadong","Kota","NSN"
"71350","Taman Kaki Bukit Keledang","Kota","NSN"
"71350","Taman Kota Indah","Kota","NSN"
"71350","Taman Perindustrian Gunung Tahan","Kota","NSN"
"71350","Taman Sri Kota","Kota","NSN"
"71350","Taman Sri Meranti","Kota","NSN"
"71350","Tiga Bator","Kota","NSN"
"71359","Kota - Beg berkunci","Kota","NSN"
"71400","Ayer Belerang","Rembau","NSN"
"71400","Ayer Panas","Rembau","NSN"
"71400","Denai Keroh","Rembau","NSN"
"71400","Desa Permai Kundur","Rembau","NSN"
"71400","Kampung Ampang Batu Sepri","Rembau","NSN"
"71400","Kampung Anak Ayer Kundur","Rembau","NSN"
"71400","Kampung Baru Sepri","Rembau","NSN"
"71400","Kampung Chembong","Rembau","NSN"
"71400","Kampung Contoh Sepri","Rembau","NSN"
"71400","Kampung Gaing Baru","Rembau","NSN"
"71400","Kampung Gaing","Rembau","NSN"
"71400","Kampung Kundur","Rembau","NSN"
"71400","Kampung Merbau Sembilan","Rembau","NSN"
"71400","Kampung Mincing Baru","Rembau","NSN"
"71400","Kampung Mincing Lama","Rembau","NSN"
"71400","Kampung Mungkal Sepri","Rembau","NSN"
"71400","Kampung Paya Besar","Rembau","NSN"
"71400","Kampung Pecha Estate","Rembau","NSN"
"71400","Kampung Pedas Hilir","Rembau","NSN"
"71400","Kampung Pedas Tengah","Rembau","NSN"
"71400","Kampung Pedas","Rembau","NSN"
"71400","Kampung Penajis Sepri","Rembau","NSN"
"71400","Kampung Percha Estate","Rembau","NSN"
"71400","Kampung Sungai Beringin","Rembau","NSN"
"71400","Kampung Sungai Ibor","Rembau","NSN"
"71400","Kampung Tanjung Semut","Rembau","NSN"
"71400","Ladang Ayer Panas","Rembau","NSN"
"71400","Ladang Bukit Payang","Rembau","NSN"
"71400","Ladang Chety","Rembau","NSN"
"71400","Ladang Sungai Langsat","Rembau","NSN"
"71400","Pedas","Rembau","NSN"
"71400","Taman Desa Permai","Rembau","NSN"
"71400","Taman KSNS","Rembau","NSN"
"71400","Taman Kayu Manis","Rembau","NSN"
"71400","Taman Koperasi","Rembau","NSN"
"71400","Taman Pedas Indah","Rembau","NSN"
"71400","Taman Pedas Perdana","Rembau","NSN"
"71400","Taman Pinggiran","Rembau","NSN"
"71400","Tanjung Berangan","Rembau","NSN"
"71400","Tanjung Terap","Rembau","NSN"
"71400","Tebing Tinggi","Rembau","NSN"
"71400","Tontong","Rembau","NSN"
"71400","Ulu Pedas Estate","Rembau","NSN"
"71400","Ulu Sepri","Rembau","NSN"
"71409","Pedas - Beg berkunci","Rembau","NSN"
"71450","Bandar Seremban Selatan","Seremban","NSN"
"71450","Jalan Tampin (Batu 6 - 10)","Seremban","NSN"
"71450","Kampung Sungai Gadut","Seremban","NSN"
"71450","Kampung Ulu Rantau","Seremban","NSN"
"71450","Kawasan Perindustrian Sungai Gadut","Seremban","NSN"
"71450","Kawasan Perindustrian Tuanku Jaafar","Seremban","NSN"
"71450","Kawasan Perusahaan Andalas","Seremban","NSN"
"71450","Ladang Paroi","Seremban","NSN"
"71450","Ladang Perhentian Tinggi","Seremban","NSN"
"71450","Ladang Senawang","Seremban","NSN"
"71450","Ladang Seremban","Seremban","NSN"
"71450","Ladang Terentang","Seremban","NSN"
"71450","Perusahaan Ringan Senawang Light","Seremban","NSN"
"71450","Rumah Keluarga Angkatan Tentera","Seremban","NSN"
"71450","Senawang Central Park","Seremban","NSN"
"71450","Sungai Gadut","Seremban","NSN"
"71450","Taman Bukit Sri Senawang","Seremban","NSN"
"71450","Taman Pinggiran Senawang","Seremban","NSN"
"71450","Taman Sri Permata","Seremban","NSN"
"71450","Taman Tuanku Ampuan Najihah","Seremban","NSN"
"71450","Taman Tuanku Jaafar Golf & Country Resort","Seremban","NSN"
"71450","Taman Tuanku Jaafar Selatan","Seremban","NSN"
"71450","Taman Tuanku Jaafar","Seremban","NSN"
"71450","Ulu Rantau","Seremban","NSN"
"71450","Zon Perindustrian Seri Senawang","Seremban","NSN"
"71459","Sungai Gadut - Beg berkunci","Seremban","NSN"
"71500","Ampang Serong","Tanjong Ipoh","NSN"
"71500","Ampang Tinggi Seberang","Tanjong Ipoh","NSN"
"71500","Ampang Tinggi","Tanjong Ipoh","NSN"
"71500","Kampung Ayer Hitam","Tanjong Ipoh","NSN"
"71500","Kampung Baru Lanjut Manis","Tanjong Ipoh","NSN"
"71500","Kampung Baru Talang","Tanjong Ipoh","NSN"
"71500","Kampung Baru Ulu Bendol","Tanjong Ipoh","NSN"
"71500","Kampung Bukit Laksa","Tanjong Ipoh","NSN"
"71500","Kampung Bukit Perah","Tanjong Ipoh","NSN"
"71500","Kampung Bukit Seberang","Tanjong Ipoh","NSN"
"71500","Kampung Bukit Seri Menanti","Tanjong Ipoh","NSN"
"71500","Kampung Durian Hijau","Tanjong Ipoh","NSN"
"71500","Kampung Gedang","Tanjong Ipoh","NSN"
"71500","Kampung Gemetir Seberang","Tanjong Ipoh","NSN"
"71500","Kampung Gemetir","Tanjong Ipoh","NSN"
"71500","Kampung Ibol","Tanjong Ipoh","NSN"
"71500","Kampung Jeram Talang","Tanjong Ipoh","NSN"
"71500","Kampung Kayu Ara","Tanjong Ipoh","NSN"
"71500","Kampung Kuala Parit","Tanjong Ipoh","NSN"
"71500","Kampung Kuala Serdang","Tanjong Ipoh","NSN"
"71500","Kampung Kuala Talang","Tanjong Ipoh","NSN"
"71500","Kampung Kubangan","Tanjong Ipoh","NSN"
"71500","Kampung Kundangan Seberang","Tanjong Ipoh","NSN"
"71500","Kampung Kundangan","Tanjong Ipoh","NSN"
"71500","Kampung Lanjut Manis","Tanjong Ipoh","NSN"
"71500","Kampung Mampas Besar","Tanjong Ipoh","NSN"
"71500","Kampung Mampas Kecil","Tanjong Ipoh","NSN"
"71500","Kampung Orang Asli Langkap","Tanjong Ipoh","NSN"
"71500","Kampung Orang Asli Ulu Mampas","Tanjong Ipoh","NSN"
"71500","Kampung Padang Lebar","Tanjong Ipoh","NSN"
"71500","Kampung Parit Istana","Tanjong Ipoh","NSN"
"71500","Kampung Parit Mainau","Tanjong Ipoh","NSN"
"71500","Kampung Parit Mungkar","Tanjong Ipoh","NSN"
"71500","Kampung Parit Seberang","Tanjong Ipoh","NSN"
"71500","Kampung Parit Terachi","Tanjong Ipoh","NSN"
"71500","Kampung Pauh","Tanjong Ipoh","NSN"
"71500","Kampung Perigi Jernih","Tanjong Ipoh","NSN"
"71500","Kampung Pulau Jelebu","Tanjong Ipoh","NSN"
"71500","Kampung Purun","Tanjong Ipoh","NSN"
"71500","Kampung Sawah Liat","Tanjong Ipoh","NSN"
"71500","Kampung Simpang Seberang","Tanjong Ipoh","NSN"
"71500","Kampung Simpang Seri Menanti","Tanjong Ipoh","NSN"
"71500","Kampung Talang Ulu","Tanjong Ipoh","NSN"
"71500","Kampung Tanah Liat","Tanjong Ipoh","NSN"
"71500","Kampung Tanjong Bangkong","Tanjong Ipoh","NSN"
"71500","Kampung Tanjong Limau Purut","Tanjong Ipoh","NSN"
"71500","Kampung Tebing Tinggi","Tanjong Ipoh","NSN"
"71500","Kampung Tengah Hilir","Tanjong Ipoh","NSN"
"71500","Kampung Tengah Pulau","Tanjong Ipoh","NSN"
"71500","Kampung Ulu Bendol","Tanjong Ipoh","NSN"
"71500","Kampung Ulu Parit","Tanjong Ipoh","NSN"
"71500","Kubang Gajah","Tanjong Ipoh","NSN"
"71500","Rumah Rakyat Ampang Tinggi","Tanjong Ipoh","NSN"
"71500","Rumah Rakyat Tanjung Ipoh","Tanjong Ipoh","NSN"
"71500","Taman Seri Terachi","Tanjong Ipoh","NSN"
"71500","Taman Ulu Bendol","Tanjong Ipoh","NSN"
"71500","Tanjung Ipoh","Tanjong Ipoh","NSN"
"71500","Tanjung Petai","Tanjong Ipoh","NSN"
"71500","Ujong Tanjong","Tanjong Ipoh","NSN"
"71500","Ulu Kok","Tanjong Ipoh","NSN"
"71509","Tanjung Ipoh - Beg berkunci","Tanjong Ipoh","NSN"
"71550","Ampang Batu","Tanjong Ipoh","NSN"
"71550","Batu Hampar","Tanjong Ipoh","NSN"
"71550","Gunung Pasir","Tanjong Ipoh","NSN"
"71550","Istana Kayangan","Tanjong Ipoh","NSN"
"71550","Istana KeNanga","Tanjong Ipoh","NSN"
"71550","Istana Lama / Besar","Tanjong Ipoh","NSN"
"71550","Kampung Baru Seri Menanti","Tanjong Ipoh","NSN"
"71550","Kampung Bukit Alai","Tanjong Ipoh","NSN"
"71550","Kampung Bukit Lintang","Tanjong Ipoh","NSN"
"71550","Kampung Bukit Seri Menanti","Tanjong Ipoh","NSN"
"71550","Kampung Bukit Tempurong","Tanjong Ipoh","NSN"
"71550","Kampung Bukit Terang","Tanjong Ipoh","NSN"
"71550","Kampung Bukit","Tanjong Ipoh","NSN"
"71550","Kampung Buyau","Tanjong Ipoh","NSN"
"71550","Kampung Galau","Tanjong Ipoh","NSN"
"71550","Kampung Gamin","Tanjong Ipoh","NSN"
"71550","Kampung Gunung Pasir","Tanjong Ipoh","NSN"
"71550","Kampung Juar","Tanjong Ipoh","NSN"
"71550","Kampung Jumbang","Tanjong Ipoh","NSN"
"71550","Kampung Kabong Hilir","Tanjong Ipoh","NSN"
"71550","Kampung Kubor Masjid","Tanjong Ipoh","NSN"
"71550","Kampung Lereng","Tanjong Ipoh","NSN"
"71550","Kampung Masjid Lama","Tanjong Ipoh","NSN"
"71550","Kampung Masjid Terbakar","Tanjong Ipoh","NSN"
"71550","Kampung Mertang Seberang","Tanjong Ipoh","NSN"
"71550","Kampung Merual","Tanjong Ipoh","NSN"
"71550","Kampung Padang Biawas","Tanjong Ipoh","NSN"
"71550","Kampung Pauh","Tanjong Ipoh","NSN"
"71550","Kampung Pulau Gunung Pasir","Tanjong Ipoh","NSN"
"71550","Kampung Sekolah Gunong Pasir","Tanjong Ipoh","NSN"
"71550","Kampung Sikai","Tanjong Ipoh","NSN"
"71550","Kampung Simpai","Tanjong Ipoh","NSN"
"71550","Kampung Sungai Layang","Tanjong Ipoh","NSN"
"71550","Kampung Tobek Godang","Tanjong Ipoh","NSN"
"71550","Kampung Umor","Tanjong Ipoh","NSN"
"71550","Seberang Tanjong Beringin","Tanjong Ipoh","NSN"
"71550","Seri Menanti","Tanjong Ipoh","NSN"
"71550","Tanah Datar","Tanjong Ipoh","NSN"
"71550","Tanjung Bachang","Tanjong Ipoh","NSN"
"71550","Tanjung Beringin","Tanjong Ipoh","NSN"
"71550","Tanjung Galau","Tanjong Ipoh","NSN"
"71550","Tanjung Limau","Tanjong Ipoh","NSN"
"71550","Tanjung Sepam","Tanjong Ipoh","NSN"
"71550","Tengah Panglang","Tanjong Ipoh","NSN"
"71559","Seri Menanti - Beg berkunci","Tanjong Ipoh","NSN"
"71600","Kampung Amar Penghulu","Kuala Klawang","NSN"
"71600","Kampung Ampang Batu","Kuala Klawang","NSN"
"71600","Kampung Bakong","Kuala Klawang","NSN"
"71600","Kampung Bandar Tinggi","Kuala Klawang","NSN"
"71600","Kampung Baru Petaling","Kuala Klawang","NSN"
"71600","Kampung Batu 17","Kuala Klawang","NSN"
"71600","Kampung Batu Serambai","Kuala Klawang","NSN"
"71600","Kampung Binjai","Kuala Klawang","NSN"
"71600","Kampung Bukit Piatu","Kuala Klawang","NSN"
"71600","Kampung Bukit","Kuala Klawang","NSN"
"71600","Kampung Chenderak","Kuala Klawang","NSN"
"71600","Kampung Chenor","Kuala Klawang","NSN"
"71600","Kampung Chepum","Kuala Klawang","NSN"
"71600","Kampung Dulang","Kuala Klawang","NSN"
"71600","Kampung Durian Gasing","Kuala Klawang","NSN"
"71600","Kampung Gagu","Kuala Klawang","NSN"
"71600","Kampung Geliu","Kuala Klawang","NSN"
"71600","Kampung Gepu","Kuala Klawang","NSN"
"71600","Kampung Grisik","Kuala Klawang","NSN"
"71600","Kampung Guntong","Kuala Klawang","NSN"
"71600","Kampung Jambatan Serong","Kuala Klawang","NSN"
"71600","Kampung Jelatang","Kuala Klawang","NSN"
"71600","Kampung Jelebu Tengah","Kuala Klawang","NSN"
"71600","Kampung Jeletang Petasih","Kuala Klawang","NSN"
"71600","Kampung Jelin","Kuala Klawang","NSN"
"71600","Kampung Jelutong","Kuala Klawang","NSN"
"71600","Kampung Kachu Petaseh","Kuala Klawang","NSN"
"71600","Kampung Kampai","Kuala Klawang","NSN"
"71600","Kampung Kelembang","Kuala Klawang","NSN"
"71600","Kampung Kemin Beringin","Kuala Klawang","NSN"
"71600","Kampung Kemin Luar (Batu 22)","Kuala Klawang","NSN"
"71600","Kampung Kemin Tanjong","Kuala Klawang","NSN"
"71600","Kampung Kerangai","Kuala Klawang","NSN"
"71600","Kampung Klakor","Kuala Klawang","NSN"
"71600","Kampung Kuala Klawang","Kuala Klawang","NSN"
"71600","Kampung Kuala Pah","Kuala Klawang","NSN"
"71600","Kampung Larong","Kuala Klawang","NSN"
"71600","Kampung Mangkan","Kuala Klawang","NSN"
"71600","Kampung Mengkan Dalam","Kuala Klawang","NSN"
"71600","Kampung Mengkan Luar","Kuala Klawang","NSN"
"71600","Kampung Mengkan","Kuala Klawang","NSN"
"71600","Kampung Merbau","Kuala Klawang","NSN"
"71600","Kampung Peninjau","Kuala Klawang","NSN"
"71600","Kampung Peradong","Kuala Klawang","NSN"
"71600","Kampung Pergai","Kuala Klawang","NSN"
"71600","Kampung Petaling","Kuala Klawang","NSN"
"71600","Kampung Petaseh Hilir","Kuala Klawang","NSN"
"71600","Kampung Petaseh Hulu","Kuala Klawang","NSN"
"71600","Kampung Petaseh Tengah","Kuala Klawang","NSN"
"71600","Kampung Petaseh","Kuala Klawang","NSN"
"71600","Kampung Pianggu","Kuala Klawang","NSN"
"71600","Kampung Purun","Kuala Klawang","NSN"
"71600","Kampung Rambai Baris","Kuala Klawang","NSN"
"71600","Kampung Renal","Kuala Klawang","NSN"
"71600","Kampung Rendah","Kuala Klawang","NSN"
"71600","Kampung Sarin","Kuala Klawang","NSN"
"71600","Kampung Sawah Liat","Kuala Klawang","NSN"
"71600","Kampung Sepam","Kuala Klawang","NSN"
"71600","Kampung Seperi Hulu","Kuala Klawang","NSN"
"71600","Kampung Sepri Hilir","Kuala Klawang","NSN"
"71600","Kampung Sepri Tengah","Kuala Klawang","NSN"
"71600","Kampung Sepri","Kuala Klawang","NSN"
"71600","Kampung Seri Temoi","Kuala Klawang","NSN"
"71600","Kampung Simpang Bakong","Kuala Klawang","NSN"
"71600","Kampung Solok Pelai","Kuala Klawang","NSN"
"71600","Kampung Sungai Bijeh","Kuala Klawang","NSN"
"71600","Kampung Sungai Daun","Kuala Klawang","NSN"
"71600","Kampung Sungai Kua","Kuala Klawang","NSN"
"71600","Kampung Sungai Lalang","Kuala Klawang","NSN"
"71600","Kampung Sungai Legom","Kuala Klawang","NSN"
"71600","Kampung Sungai Raya","Kuala Klawang","NSN"
"71600","Kampung Tanjong Chachar","Kuala Klawang","NSN"
"71600","Kampung Tembun","Kuala Klawang","NSN"
"71600","Kampung Tengkoh Banir","Kuala Klawang","NSN"
"71600","Kampung Teriang","Kuala Klawang","NSN"
"71600","Kampung Ulu Klawang","Kuala Klawang","NSN"
"71600","Kuala Klawang - Beg berkunci","Kuala Klawang","NSN"
"71600","Kuala Klawang","Kuala Klawang","NSN"
"71600","Ladang Jelebu","Kuala Klawang","NSN"
"71600","Rumah Murah Petaling","Kuala Klawang","NSN"
"71600","Rumah Rakyat Larong","Kuala Klawang","NSN"
"71600","Sekolah Kebangsaan Triang","Kuala Klawang","NSN"
"71600","Simpang Gelami","Kuala Klawang","NSN"
"71600","Taman Angsana","Kuala Klawang","NSN"
"71600","Taman Bandar Tinggi","Kuala Klawang","NSN"
"71600","Taman Berlian","Kuala Klawang","NSN"
"71600","Taman Bukit Petaling","Kuala Klawang","NSN"
"71600","Taman Cengal","Kuala Klawang","NSN"
"71600","Taman Dato Abdullah","Kuala Klawang","NSN"
"71600","Taman Dato Moyang Salleh","Kuala Klawang","NSN"
"71600","Taman Irama","Kuala Klawang","NSN"
"71600","Taman Jati","Kuala Klawang","NSN"
"71600","Taman Jelebu (1 - 2)","Kuala Klawang","NSN"
"71600","Taman KSM","Kuala Klawang","NSN"
"71600","Taman Pembina Jaya","Kuala Klawang","NSN"
"71600","Taman Petaling","Kuala Klawang","NSN"
"71600","Taman Poem","Kuala Klawang","NSN"
"71600","Taman Seri Cempedak","Kuala Klawang","NSN"
"71600","Taman Seri Kenaboi","Kuala Klawang","NSN"
"71600","Taman Wangsa Indah Larong","Kuala Klawang","NSN"
"71600","Tanjung Berangan","Kuala Klawang","NSN"
"71600","Teluk Belai","Kuala Klawang","NSN"
"71600","Temoi","Kuala Klawang","NSN"
"71600","Ulu Jelebu","Kuala Klawang","NSN"
"71609","Taman Bukit Kempas","Kuala Klawang","NSN"
"71650","Felda Titi","Kuala Klawang","NSN"
"71650","Hosapa","Kuala Klawang","NSN"
"71650","Kampung Baru Sungai Muntoh","Kuala Klawang","NSN"
"71650","Kampung Bertam","Kuala Klawang","NSN"
"71650","Kampung Chenah","Kuala Klawang","NSN"
"71650","Kampung Dusun Kubor","Kuala Klawang","NSN"
"71650","Kampung Felda Titi","Kuala Klawang","NSN"
"71650","Kampung Kenan","Kuala Klawang","NSN"
"71650","Kampung Puom","Kuala Klawang","NSN"
"71650","Kampung Semarail","Kuala Klawang","NSN"
"71650","Kampung Seperi Tengah","Kuala Klawang","NSN"
"71650","Kampung Seperi","Kuala Klawang","NSN"
"71650","Kampung Sungai Kekaru","Kuala Klawang","NSN"
"71650","Kampung Sungai Muntoh","Kuala Klawang","NSN"
"71650","Kampung Sungai Rotan","Kuala Klawang","NSN"
"71650","Kampung Telekong","Kuala Klawang","NSN"
"71650","Ladang Jelebu","Kuala Klawang","NSN"
"71650","Mah Fong","Kuala Klawang","NSN"
"71650","Pusat Perikanan Air Tawar (Gelem - Lemi)","Kuala Klawang","NSN"
"71650","Rumah Rakyat Sungai Rotan","Kuala Klawang","NSN"
"71650","Taman Bukit Kempas","Kuala Klawang","NSN"
"71650","Taman Desa Permai","Kuala Klawang","NSN"
"71650","Taman Kin San","Kuala Klawang","NSN"
"71650","Taman Mawar","Kuala Klawang","NSN"
"71650","Taman Mok Sum","Kuala Klawang","NSN"
"71650","Taman Naga Mas","Kuala Klawang","NSN"
"71650","Taman Seri Jelebu","Kuala Klawang","NSN"
"71650","Taman Titi","Kuala Klawang","NSN"
"71650","Titi","Kuala Klawang","NSN"
"71659","Titi - Beg berkunci","Kuala Klawang","NSN"
"71700","Apartment Sri Palma","Mantin","NSN"
"71700","Bandar Universiti Teknologi Lagenda","Mantin","NSN"
"71700","BandarSri Pajam","Mantin","NSN"
"71700","Bayu Lake Home","Mantin","NSN"
"71700","College Height Pajam","Mantin","NSN"
"71700","Gebok Division Estate","Mantin","NSN"
"71700","Kampung Baru Batang Benar","Mantin","NSN"
"71700","Kampung Baru Mantin","Mantin","NSN"
"71700","Kampung Baru Pajam","Mantin","NSN"
"71700","Kampung Baru Sungai Mahang","Mantin","NSN"
"71700","Kampung Batang Benar","Mantin","NSN"
"71700","Kampung Batu 12","Mantin","NSN"
"71700","Kampung Batu 8","Mantin","NSN"
"71700","Kampung Batu 9","Mantin","NSN"
"71700","Kampung Cik Lah","Mantin","NSN"
"71700","Kampung Gebok","Mantin","NSN"
"71700","Kampung Mantin Dalam","Mantin","NSN"
"71700","Kampung Masjid","Mantin","NSN"
"71700","Kampung Staffield","Mantin","NSN"
"71700","Kampung Ulu Batang Benar","Mantin","NSN"
"71700","Kawasan Biru","Mantin","NSN"
"71700","Kawasan Hijau","Mantin","NSN"
"71700","Kawasan Kuning","Mantin","NSN"
"71700","Kawasan Merah","Mantin","NSN"
"71700","Kawasan Tong Sing","Mantin","NSN"
"71700","Kem Sri Perkasa","Mantin","NSN"
"71700","Kolej Legenda","Mantin","NSN"
"71700","Mantin","Mantin","NSN"
"71700","Mukim Setul","Mantin","NSN"
"71700","Pajam","Mantin","NSN"
"71700","Pangsapuri Legenda","Mantin","NSN"
"71700","Rumah Rakyat Batang Benar","Mantin","NSN"
"71700","Rumah Rakyat Mantin","Mantin","NSN"
"71700","Sri Palma Villa","Mantin","NSN"
"71700","Staffield Country Resort","Mantin","NSN"
"71700","Taman Akasia","Mantin","NSN"
"71700","Taman Anggerik","Mantin","NSN"
"71700","Taman Angsana","Mantin","NSN"
"71700","Taman Asoka","Mantin","NSN"
"71700","Taman Bukit Belian Fasa 2","Mantin","NSN"
"71700","Taman Bukit Belian Fasa 3","Mantin","NSN"
"71700","Taman Bukit Belian","Mantin","NSN"
"71700","Taman Bukit Inai","Mantin","NSN"
"71700","Taman Bukit Mantin","Mantin","NSN"
"71700","Taman Bukit Saga","Mantin","NSN"
"71700","Taman Bunga Raya II","Mantin","NSN"
"71700","Taman Bunga Raya","Mantin","NSN"
"71700","Taman Dahlia Batang Benar","Mantin","NSN"
"71700","Taman Dahlia Indah","Mantin","NSN"
"71700","Taman Desa Mantin","Mantin","NSN"
"71700","Taman Desa Pelangi","Mantin","NSN"
"71700","Taman Desa Pinggiran Bayu","Mantin","NSN"
"71700","Taman KS","Mantin","NSN"
"71700","Taman Kempas","Mantin","NSN"
"71700","Taman Kenari","Mantin","NSN"
"71700","Taman Lai Loy","Mantin","NSN"
"71700","Taman Maju Jaya","Mantin","NSN"
"71700","Taman Mantin 2","Mantin","NSN"
"71700","Taman Mantin Jaya","Mantin","NSN"
"71700","Taman Mantin","Mantin","NSN"
"71700","Taman Medang","Mantin","NSN"
"71700","Taman Meranti","Mantin","NSN"
"71700","Taman Merbau","Mantin","NSN"
"71700","Taman Mulia","Mantin","NSN"
"71700","Taman Mutiara","Mantin","NSN"
"71700","Taman Orkid","Mantin","NSN"
"71700","Taman Pelangi Indah","Mantin","NSN"
"71700","Taman Perdana College Heights","Mantin","NSN"
"71700","Taman Permai Jaya","Mantin","NSN"
"71700","Taman Pertama","Mantin","NSN"
"71700","Taman Rose","Mantin","NSN"
"71700","Taman Ru","Mantin","NSN"
"71700","Taman Sentosa","Mantin","NSN"
"71700","Taman Seraya","Mantin","NSN"
"71700","Taman Seri Impian","Mantin","NSN"
"71700","Taman Setul","Mantin","NSN"
"71700","Taman Sri Damar","Mantin","NSN"
"71700","Taman Sri Mawar","Mantin","NSN"
"71700","Taman Sri Pajam","Mantin","NSN"
"71700","Ulu Batang Benar","Mantin","NSN"
"71707","Mantin - Peti surat","Mantin","NSN"
"71709","Mantin - Beg berkunci","Mantin","NSN"
"71750","Broga","Mantin","NSN"
"71750","Jalan Klana Jaya 1 - 5","Mantin","NSN"
"71750","Kampung Baru Broga","Mantin","NSN"
"71750","Kampung Baru Lenggeng","Mantin","NSN"
"71750","Kampung Baru Ulu Beranang","Mantin","NSN"
"71750","Kampung Batu 18","Mantin","NSN"
"71750","Kampung Chelogeh","Mantin","NSN"
"71750","Kampung Daching Hilir","Mantin","NSN"
"71750","Kampung Daching Hulu","Mantin","NSN"
"71750","Kampung Daching Tengah","Mantin","NSN"
"71750","Kampung Jelatok","Mantin","NSN"
"71750","Kampung Jelebu","Mantin","NSN"
"71750","Kampung Jeram Kedah","Mantin","NSN"
"71750","Kampung Kapal","Mantin","NSN"
"71750","Kampung Katub","Mantin","NSN"
"71750","Kampung Lombong Jerneh","Mantin","NSN"
"71750","Kampung Masjid","Mantin","NSN"
"71750","Kampung Mendom","Mantin","NSN"
"71750","Kampung Pendekar Raja","Mantin","NSN"
"71750","Kampung Sompo","Mantin","NSN"
"71750","Kampung Sungai Bioh","Mantin","NSN"
"71750","Kampung Sungai Bunga","Mantin","NSN"
"71750","Kampung Sungai Jai","Mantin","NSN"
"71750","Kampung Sungai Machang Hilir","Mantin","NSN"
"71750","Kampung Sungai Machang Ulu","Mantin","NSN"
"71750","Kampung Tarun","Mantin","NSN"
"71750","Kampung Tegor","Mantin","NSN"
"71750","Kampung Tengah","Mantin","NSN"
"71750","Kampung Ulu Beranang","Mantin","NSN"
"71750","Ladang Lenggeng","Mantin","NSN"
"71750","Ladang Sungai Beranang","Mantin","NSN"
"71750","Lenggeng","Mantin","NSN"
"71750","Lorong Klana Jaya 3/1","Mantin","NSN"
"71750","Rawa Hilir","Mantin","NSN"
"71750","Rawa Ulu","Mantin","NSN"
"71750","Rumah Rakyat Lenggeng","Mantin","NSN"
"71750","Rumah Rakyat Ulu Beranang","Mantin","NSN"
"71750","Sungai Petai","Mantin","NSN"
"71750","Taman Broga","Mantin","NSN"
"71750","Taman Desa Klana Lenggeng","Mantin","NSN"
"71750","Taman Kelana Jaya","Mantin","NSN"
"71750","Taman Melati","Mantin","NSN"
"71750","Taman Ulu Beranang","Mantin","NSN"
"71750","Ulu Beranang","Mantin","NSN"
"71759","Lenggeng - Beg berkunci","Mantin","NSN"
"71760","Bandar Baru ENSTEK","Bandar Baru Enstek","NSN"
"71760","Jalan Cendrawasih 1 - 2","Bandar Baru Enstek","NSN"
"71760","Jalan Jentayu, Lengkuk 1-9","Bandar Baru Enstek","NSN"
"71760","Kampung LB Johnson","Bandar Baru Enstek","NSN"
"71760","Kampung LBJ (Felda)","Bandar Baru Enstek","NSN"
"71760","Taman Ekar Matahari","Bandar Baru Enstek","NSN"
"71760","Taman Seri Labu","Bandar Baru Enstek","NSN"
"71770","Bandar Warisan Puteri","Seremban","NSN"
"71770","Kampung Baru Pantai","Seremban","NSN"
"71770","Kampung Batu 4 (Jalan Jelebu)","Seremban","NSN"
"71770","Kampung Berembun","Seremban","NSN"
"71770","Kampung Pantai","Seremban","NSN"
"71770","Ladang Pantai","Seremban","NSN"
"71770","Pantai Estate","Seremban","NSN"
"71770","Pantai","Seremban","NSN"
"71770","Rumah Murah Km 5 Jalan Jelebu","Seremban","NSN"
"71770","Rumah Rakyat Pantai","Seremban","NSN"
"71770","Taman Desa Permai Pantai","Seremban","NSN"
"71770","Taman Kayu Manis","Seremban","NSN"
"71770","Taman Perwira","Seremban","NSN"
"71800","Dusun Labu Valley","Nilai","NSN"
"71800","Kampung Atap","Nilai","NSN"
"71800","Kampung Baru Nilai","Nilai","NSN"
"71800","Kampung Belakang Pekan","Nilai","NSN"
"71800","Kampung Bukit Kadir","Nilai","NSN"
"71800","Kampung Chelet","Nilai","NSN"
"71800","Kampung Haji","Nilai","NSN"
"71800","Kampung Jijan Hilir","Nilai","NSN"
"71800","Kampung Jijan Ulu","Nilai","NSN"
"71800","Kampung Jijan","Nilai","NSN"
"71800","Kampung Kondok","Nilai","NSN"
"71800","Kampung Kubang","Nilai","NSN"
"71800","Kampung Muhammad Sultan","Nilai","NSN"
"71800","Kampung Orang Asli","Nilai","NSN"
"71800","Kampung Stesyen","Nilai","NSN"
"71800","Kampung Sungai Labu","Nilai","NSN"
"71800","Kampung Sungai Mahang","Nilai","NSN"
"71800","Kampung Sungai Sekah","Nilai","NSN"
"71800","Kampung Tanjong","Nilai","NSN"
"71800","Kasturi Hight (Bandar Baru Nilai)","Nilai","NSN"
"71800","Kawasan Perindustrian Nilai","Nilai","NSN"
"71800","Kuarters KLIA","Nilai","NSN"
"71800","Ladang Bute","Nilai","NSN"
"71800","Ladang Cairo","Nilai","NSN"
"71800","Ladang Hamilton","Nilai","NSN"
"71800","Ladang Jenderam","Nilai","NSN"
"71800","Ladang Kubang","Nilai","NSN"
"71800","Ladang Labu Baru","Nilai","NSN"
"71800","Ladang Sungai Mahang","Nilai","NSN"
"71800","Ladang Sungai Sekah","Nilai","NSN"
"71800","Lembah Dusun Labu","Nilai","NSN"
"71800","Nilai 2","Nilai","NSN"
"71800","Nilai 3","Nilai","NSN"
"71800","Nilai Spring","Nilai","NSN"
"71800","Nilai","Nilai","NSN"
"71800","Planters Heaven","Nilai","NSN"
"71800","Simpang Tiga","Nilai","NSN"
"71800","Taman Abdul Karim","Nilai","NSN"
"71800","Taman Bakawali","Nilai","NSN"
"71800","Taman Ban Aik","Nilai","NSN"
"71800","Taman Casuarina","Nilai","NSN"
"71800","Taman Desa Anggerik","Nilai","NSN"
"71800","Taman Desa Cempaka Puri","Nilai","NSN"
"71800","Taman Desa Cempaka","Nilai","NSN"
"71800","Taman Desa Indah ( Bandar Baru Nilai)","Nilai","NSN"
"71800","Taman Desa Jasmin","Nilai","NSN"
"71800","Taman Desa Jati","Nilai","NSN"
"71800","Taman Desa Kasia, Putra Nilai","Nilai","NSN"
"71800","Taman Desa Kolej (Bandar Baru Nilai)","Nilai","NSN"
"71800","Taman Desa Melati (Bandar Baru Nilai)","Nilai","NSN"
"71800","Taman Desa Palma","Nilai","NSN"
"71800","Taman Desa Ria 2","Nilai","NSN"
"71800","Taman Desa Ria","Nilai","NSN"
"71800","Taman Impiana","Nilai","NSN"
"71800","Taman Kota Sri Mas","Nilai","NSN"
"71800","Taman Nilai Impian","Nilai","NSN"
"71800","Taman Nilai Perdana","Nilai","NSN"
"71800","Taman Nilai","Nilai","NSN"
"71800","Taman Rose Merah","Nilai","NSN"
"71800","Taman Santalia (Bandar Baru Nilai)","Nilai","NSN"
"71800","Taman Semarak","Nilai","NSN"
"71800","Zon Perindustrian Arab-Malaysian","Nilai","NSN"
"71807","Nilai - Peti surat","Nilai","NSN"
"71809","Nilai - Beg berkunci","Nilai","NSN"
"71900","Jerengkang Darat","Labu","NSN"
"71900","Jerengkang","Labu","NSN"
"71900","Kampung Baru Batu 8","Labu","NSN"
"71900","Kampung Baru Cina","Labu","NSN"
"71900","Kampung Batu 5 1/2","Labu","NSN"
"71900","Kampung Bukit Buak","Labu","NSN"
"71900","Kampung Gadong Jaya","Labu","NSN"
"71900","Kampung Gadong Lama","Labu","NSN"
"71900","Kampung Gadong S/C","Labu","NSN"
"71900","Kampung Jawa","Labu","NSN"
"71900","Kampung Jerangkang","Labu","NSN"
"71900","Kampung Kering","Labu","NSN"
"71900","Kampung Kilang Padi","Labu","NSN"
"71900","Kampung Labu Hilir","Labu","NSN"
"71900","Kampung Labu","Labu","NSN"
"71900","Kampung Lambar","Labu","NSN"
"71900","Kampung Masjid Lama","Labu","NSN"
"71900","Kampung Merbah Condong","Labu","NSN"
"71900","Kampung Pasir Puteh","Labu","NSN"
"71900","Kampung Pelebar","Labu","NSN"
"71900","Kampung Pelenggong Tengah","Labu","NSN"
"71900","Kampung Pelenggong","Labu","NSN"
"71900","Kampung Pulau Labu","Labu","NSN"
"71900","Kampung Sekolah Lama","Labu","NSN"
"71900","Kampung Seri","Labu","NSN"
"71900","Kampung Tekir","Labu","NSN"
"71900","Kampung Tengah","Labu","NSN"
"71900","Kampung Tiroi","Labu","NSN"
"71900","Labu Batu 8","Labu","NSN"
"71900","Ladang Lembah Labu","Labu","NSN"
"71900","Ladang Pasala","Labu","NSN"
"71900","Rumah Rakyat Batu 13","Labu","NSN"
"71900","Rumah Rakyat Batu 7","Labu","NSN"
"71900","Taman Dato Shahardin","Labu","NSN"
"71900","Taman Gadong Indah","Labu","NSN"
"71900","Taman Gadong Jaya","Labu","NSN"
"71900","Taman Orchid","Labu","NSN"
"71900","Taman Tiroi Batu 6","Labu","NSN"
"71900","Tebing Tinggi","Labu","NSN"
"71907","Labu - Peti surat","Labu","NSN"
"71909","Labu - Beg berkunci","Labu","NSN"
"71950","Bandar Sri Sendayan (Felda)","Seremban","NSN"
"71950","Felda Sendayan","Seremban","NSN"
"71950","Jalan Bukit Sendayan","Seremban","NSN"
"71950","Kampung Jimah Baru","Seremban","NSN"
"71950","Kampung Jimah Lama","Seremban","NSN"
"71950","Taman Nusari Bayu","Seremban","NSN"
"71950","Taman Sendayan Indah","Seremban","NSN"
"71960","Kampung Bakar Arang","Port Dickson","NSN"
"71960","Kampung Baru Sungai Nipah","Port Dickson","NSN"
"71960","Kampung Baru Tanah Merah Site C","Port Dickson","NSN"
"71960","Kampung Bukit Melintang","Port Dickson","NSN"
"71960","Kampung Bukit Pelandok","Port Dickson","NSN"
"71960","Kampung Chuah","Port Dickson","NSN"
"71960","Kampung Cina Bukit Pelandok","Port Dickson","NSN"
"71960","Kampung Cina Chuah","Port Dickson","NSN"
"71960","Kampung India","Port Dickson","NSN"
"71960","Kampung Jangging","Port Dickson","NSN"
"71960","Kampung Jawa Bukit Pelandok","Port Dickson","NSN"
"71960","Kampung Melayu (Chuah)","Port Dickson","NSN"
"71960","Kampung Pacitan","Port Dickson","NSN"
"71960","Kampung Pantai Chuah","Port Dickson","NSN"
"71960","Kampung Sawah","Port Dickson","NSN"
"71960","Kampung Sungai Rambai (Chuah)","Port Dickson","NSN"
"71960","Kampung Yap Ah Peng","Port Dickson","NSN"
"71960","Kuala Lukut (Chuah)","Port Dickson","NSN"
"71960","Ladang New Langka","Port Dickson","NSN"
"71960","Sungai Nipah Chuah","Port Dickson","NSN"
"71960","Taman Bukit Pelandok","Port Dickson","NSN"
"71960","Tanah Merah Site C","Port Dickson","NSN"
"72000","Kampung Acheh","Kuala Pilah","NSN"
"72000","Kampung Batang Pilah","Kuala Pilah","NSN"
"72000","Kampung Batu 26 (Jalan Bahau)","Kuala Pilah","NSN"
"72000","Kampung Batu 30","Kuala Pilah","NSN"
"72000","Kampung Batu 46","Kuala Pilah","NSN"
"72000","Kampung Batu Meraong","Kuala Pilah","NSN"
"72000","Kampung Bemban","Kuala Pilah","NSN"
"72000","Kampung Beting","Kuala Pilah","NSN"
"72000","Kampung Bukit Temensu","Kuala Pilah","NSN"
"72000","Kampung Bukit","Kuala Pilah","NSN"
"72000","Kampung Cheriau","Kuala Pilah","NSN"
"72000","Kampung Dioh Besar","Kuala Pilah","NSN"
"72000","Kampung Dioh Kecil","Kuala Pilah","NSN"
"72000","Kampung Gachong","Kuala Pilah","NSN"
"72000","Kampung Gemuruh","Kuala Pilah","NSN"
"72000","Kampung Gentam","Kuala Pilah","NSN"
"72000","Kampung Jawa","Kuala Pilah","NSN"
"72000","Kampung Jemapoh Tengah","Kuala Pilah","NSN"
"72000","Kampung Juasseh Tengah","Kuala Pilah","NSN"
"72000","Kampung Kuala Dioh","Kuala Pilah","NSN"
"72000","Kampung Kuala Sungai Dua","Kuala Pilah","NSN"
"72000","Kampung Kuala Sungkak","Kuala Pilah","NSN"
"72000","Kampung Lanjut Mati","Kuala Pilah","NSN"
"72000","Kampung Melang","Kuala Pilah","NSN"
"72000","Kampung Parit (Km 37)","Kuala Pilah","NSN"
"72000","Kampung Parit Tinggi","Kuala Pilah","NSN"
"72000","Kampung Pasir Ambor","Kuala Pilah","NSN"
"72000","Kampung Pelangai Hilir","Kuala Pilah","NSN"
"72000","Kampung Pelangai Ulu","Kuala Pilah","NSN"
"72000","Kampung Pelangai","Kuala Pilah","NSN"
"72000","Kampung Peraku","Kuala Pilah","NSN"
"72000","Kampung Perigi Jernih","Kuala Pilah","NSN"
"72000","Kampung Pilah Tengah","Kuala Pilah","NSN"
"72000","Kampung Pulau Pandan","Kuala Pilah","NSN"
"72000","Kampung Sawah Lebar","Kuala Pilah","NSN"
"72000","Kampung Senaling","Kuala Pilah","NSN"
"72000","Kampung Sungai Dua Besar","Kuala Pilah","NSN"
"72000","Kampung Sungai Dua Kechil","Kuala Pilah","NSN"
"72000","Kampung Sungai Tawang","Kuala Pilah","NSN"
"72000","Kampung Sungkak Pinggir","Kuala Pilah","NSN"
"72000","Kampung Sungkak","Kuala Pilah","NSN"
"72000","Kampung Tanah Melintang","Kuala Pilah","NSN"
"72000","Kampung Tanjung Jati","Kuala Pilah","NSN"
"72000","Kampung Tebat Kering","Kuala Pilah","NSN"
"72000","Kampung Telok","Kuala Pilah","NSN"
"72000","Kampung Terap","Kuala Pilah","NSN"
"72000","Kampung Ulu Muar","Kuala Pilah","NSN"
"72000","Kampung Ulu Pilah","Kuala Pilah","NSN"
"72000","Kuala Pilah","Kuala Pilah","NSN"
"72000","Ladang Kuala Pilah","Kuala Pilah","NSN"
"72000","Pekan Lama","Kuala Pilah","NSN"
"72000","Rumah Rakyat Batu 46","Kuala Pilah","NSN"
"72000","Rumah Rakyat Pelangai","Kuala Pilah","NSN"
"72000","Rumah Rakyat Selaru","Kuala Pilah","NSN"
"72000","Rumah Rakyat Senaling","Kuala Pilah","NSN"
"72000","Seberang Ampang Batu","Kuala Pilah","NSN"
"72000","Taman Ampang Tinggi","Kuala Pilah","NSN"
"72000","Taman Angkasa Jaya","Kuala Pilah","NSN"
"72000","Taman Bahagia Delima","Kuala Pilah","NSN"
"72000","Taman Bukit Indah","Kuala Pilah","NSN"
"72000","Taman Bukit Intan","Kuala Pilah","NSN"
"72000","Taman Bukit Mutiara","Kuala Pilah","NSN"
"72000","Taman Bukit Pilah Perdana","Kuala Pilah","NSN"
"72000","Taman Cemerlang","Kuala Pilah","NSN"
"72000","Taman Chin Joo","Kuala Pilah","NSN"
"72000","Taman Cita Jaya","Kuala Pilah","NSN"
"72000","Taman Damai","Kuala Pilah","NSN"
"72000","Taman Desa Aman","Kuala Pilah","NSN"
"72000","Taman Desa Melang","Kuala Pilah","NSN"
"72000","Taman Desa Permai Selaru","Kuala Pilah","NSN"
"72000","Taman Dioh","Kuala Pilah","NSN"
"72000","Taman Fatimah","Kuala Pilah","NSN"
"72000","Taman Gemilang","Kuala Pilah","NSN"
"72000","Taman Hang Guan","Kuala Pilah","NSN"
"72000","Taman Impian Utama","Kuala Pilah","NSN"
"72000","Taman Impian","Kuala Pilah","NSN"
"72000","Taman Kuala Pilah","Kuala Pilah","NSN"
"72000","Taman Maasof","Kuala Pilah","NSN"
"72000","Taman Nesa","Kuala Pilah","NSN"
"72000","Taman Pelangi","Kuala Pilah","NSN"
"72000","Taman Permai","Kuala Pilah","NSN"
"72000","Taman Perpaduan Height","Kuala Pilah","NSN"
"72000","Taman Pilah Jaya","Kuala Pilah","NSN"
"72000","Taman Rasa Sayang Selaru","Kuala Pilah","NSN"
"72000","Taman Rasa Sayang","Kuala Pilah","NSN"
"72000","Taman Selasih","Kuala Pilah","NSN"
"72000","Taman Senaling","Kuala Pilah","NSN"
"72000","Taman Sentosa","Kuala Pilah","NSN"
"72000","Taman Sima","Kuala Pilah","NSN"
"72000","Taman Suria Dioh","Kuala Pilah","NSN"
"72000","Taman Suria","Kuala Pilah","NSN"
"72000","Taman Waja","Kuala Pilah","NSN"
"72000","Taman Wawasan","Kuala Pilah","NSN"
"72000","Taman Wira","Kuala Pilah","NSN"
"72007","Kuala Pilah - Peti surat","Kuala Pilah","NSN"
"72009","Kuala Pilah - Beg berkunci","Kuala Pilah","NSN"
"72100","Bahau","Bahau","NSN"
"72100","Bandar Seri Jempol","Bahau","NSN"
"72100","Batu Bakar","Bahau","NSN"
"72100","Chu Ward Besar","Bahau","NSN"
"72100","Chu Ward Kecil","Bahau","NSN"
"72100","Chu Ward","Bahau","NSN"
"72100","Felda Kepis","Bahau","NSN"
"72100","Jalan Besar","Bahau","NSN"
"72100","Jalan Dato Amar Menteri","Bahau","NSN"
"72100","Jalan Gurney","Bahau","NSN"
"72100","Jalan Jempol","Bahau","NSN"
"72100","Jalan Kuala Pilah","Bahau","NSN"
"72100","Jalan Lelayang","Bahau","NSN"
"72100","Jalan Mahligai","Bahau","NSN"
"72100","Jalan Menteri Besar (Bukit Kelulut)","Bahau","NSN"
"72100","Jalan Mewah","Bahau","NSN"
"72100","Jalan Pasar Baru","Bahau","NSN"
"72100","Jalan Pegawai","Bahau","NSN"
"72100","Jalan Raja Muda Serting","Bahau","NSN"
"72100","Jalan Rompin","Bahau","NSN"
"72100","Jalan Tampin","Bahau","NSN"
"72100","Kampung Baru Mahsan","Bahau","NSN"
"72100","Kampung Baru Peladang","Bahau","NSN"
"72100","Kampung Batu Bakar","Bahau","NSN"
"72100","Kampung Bukit Kelulut","Bahau","NSN"
"72100","Kampung Bukit Laka","Bahau","NSN"
"72100","Kampung Cacar","Bahau","NSN"
"72100","Kampung Cina","Bahau","NSN"
"72100","Kampung Gajah Mati","Bahau","NSN"
"72100","Kampung Jambu Lapan","Bahau","NSN"
"72100","Kampung Jelai","Bahau","NSN"
"72100","Kampung Jempol","Bahau","NSN"
"72100","Kampung Kuala Jempol","Bahau","NSN"
"72100","Kampung Kuala Sialang","Bahau","NSN"
"72100","Kampung Mahsan","Bahau","NSN"
"72100","Kampung Padang Lalang","Bahau","NSN"
"72100","Kampung Pakachun","Bahau","NSN"
"72100","Kampung Peladang","Bahau","NSN"
"72100","Kampung Serting Hilir","Bahau","NSN"
"72100","Kampung Tebat","Bahau","NSN"
"72100","Kampung Temeris","Bahau","NSN"
"72100","Kuala Jempol","Bahau","NSN"
"72100","Ladang Bahau","Bahau","NSN"
"72100","Ladang Cheong Wing Chan","Bahau","NSN"
"72100","Ladang Glendale","Bahau","NSN"
"72100","Ladang Jempol","Bahau","NSN"
"72100","Ladang Jeram Padang","Bahau","NSN"
"72100","Ladang Kelpin","Bahau","NSN"
"72100","Ladang Kok Poh","Bahau","NSN"
"72100","Ladang Kuala Jelai","Bahau","NSN"
"72100","Ladang Malay Rompin","Bahau","NSN"
"72100","Ladang Malika","Bahau","NSN"
"72100","Ladang Senama","Bahau","NSN"
"72100","Ladang St Helier","Bahau","NSN"
"72100","Ladang Sungai Sebaling","Bahau","NSN"
"72100","Rumah Murah Bahau","Bahau","NSN"
"72100","Rumah Murah Batu Bakar","Bahau","NSN"
"72100","Rumah Murah Jambu Lapan","Bahau","NSN"
"72100","Serting Hilir","Bahau","NSN"
"72100","Sungai Chermai","Bahau","NSN"
"72100","Taisho New Village","Bahau","NSN"
"72100","Taman Acbe","Bahau","NSN"
"72100","Taman Angkasa","Bahau","NSN"
"72100","Taman Angsana","Bahau","NSN"
"72100","Taman Awana","Bahau","NSN"
"72100","Taman Bahau Indah","Bahau","NSN"
"72100","Taman Bahau","Bahau","NSN"
"72100","Taman Batu Bakar","Bahau","NSN"
"72100","Taman Bukit Khaya","Bahau","NSN"
"72100","Taman Cemara","Bahau","NSN"
"72100","Taman Cempaka","Bahau","NSN"
"72100","Taman Desa Penarikan","Bahau","NSN"
"72100","Taman Industri (Jalan Mahsan)","Bahau","NSN"
"72100","Taman Industri Mahsan","Bahau","NSN"
"72100","Taman Jati","Bahau","NSN"
"72100","Taman Jaya","Bahau","NSN"
"72100","Taman Jempol","Bahau","NSN"
"72100","Taman Juara Fasa II","Bahau","NSN"
"72100","Taman Juara","Bahau","NSN"
"72100","Taman KSM","Bahau","NSN"
"72100","Taman Kepayang","Bahau","NSN"
"72100","Taman Kwong Hup II","Bahau","NSN"
"72100","Taman Kwong Hup","Bahau","NSN"
"72100","Taman Mahsan","Bahau","NSN"
"72100","Taman Margosa","Bahau","NSN"
"72100","Taman Megah","Bahau","NSN"
"72100","Taman Melati","Bahau","NSN"
"72100","Taman Muhibbah","Bahau","NSN"
"72100","Taman Mutiara","Bahau","NSN"
"72100","Taman Rasa Sayang","Bahau","NSN"
"72100","Taman Ria 2","Bahau","NSN"
"72100","Taman Ria","Bahau","NSN"
"72100","Taman Saga","Bahau","NSN"
"72100","Taman Satelite Fasa III","Bahau","NSN"
"72100","Taman Seri Jempol","Bahau","NSN"
"72100","Taman Seri Mahsan","Bahau","NSN"
"72100","Taman Seri Pelating","Bahau","NSN"
"72100","Taman Serting Jaya","Bahau","NSN"
"72100","Taman Setelite","Bahau","NSN"
"72100","Taman Sornam","Bahau","NSN"
"72100","Taman Tanjung","Bahau","NSN"
"72100","Taman Tasik","Bahau","NSN"
"72100","Taman Teratai","Bahau","NSN"
"72100","Taman Timur","Bahau","NSN"
"72100","Taman Tunku Puan Chik","Bahau","NSN"
"72100","Tebat","Bahau","NSN"
"72100","Temaris","Bahau","NSN"
"72107","Bahau - Peti surat","Bahau","NSN"
"72109","Bahau - Beg berkunci","Bahau","NSN"
"72120","Ayer Hitam","Bandar Seri Jempol","NSN"
"72120","Bandar Baru Serting","Bandar Seri Jempol","NSN"
"72120","Felda Jaya Selatan Raja Alias","Bandar Seri Jempol","NSN"
"72120","Felda Lui Barat","Bandar Seri Jempol","NSN"
"72120","Felda Lui Muda","Bandar Seri Jempol","NSN"
"72120","Felda Lui Selatan","Bandar Seri Jempol","NSN"
"72120","Felda Lui Timur","Bandar Seri Jempol","NSN"
"72120","Felda Serting (1 - 4)","Bandar Seri Jempol","NSN"
"72120","Felda Serting Hilir (1 - 7)","Bandar Seri Jempol","NSN"
"72120","Felda Sungai Lui","Bandar Seri Jempol","NSN"
"72120","Felda Tembangau","Bandar Seri Jempol","NSN"
"72120","Felda Wilayah NS Timur","Bandar Seri Jempol","NSN"
"72120","Kampung Baru Cina Air Hitam","Bandar Seri Jempol","NSN"
"72120","Kampung Cina Sungai Lui","Bandar Seri Jempol","NSN"
"72120","Kampung Dusat","Bandar Seri Jempol","NSN"
"72120","Kampung Gatco/Kampung Serampang Indah","Bandar Seri Jempol","NSN"
"72120","Kampung Keretapi","Bandar Seri Jempol","NSN"
"72120","Kampung Lama Air Hitam","Bandar Seri Jempol","NSN"
"72120","Kampung Melor","Bandar Seri Jempol","NSN"
"72120","Ladang Geddes","Bandar Seri Jempol","NSN"
"72120","Pulapah","Bandar Seri Jempol","NSN"
"72120","Risda Espek Palong 1 - 2","Bandar Seri Jempol","NSN"
"72120","Sungai Lui","Bandar Seri Jempol","NSN"
"72120","Taman Lelayang","Bandar Seri Jempol","NSN"
"72120","Taman Serting Indah","Bandar Seri Jempol","NSN"
"72120","Taman Serting Utama","Bandar Seri Jempol","NSN"
"72120","Taman Sri Air Hitam","Bandar Seri Jempol","NSN"
"72120","Taman Sri Serting","Bandar Seri Jempol","NSN"
"72127","Bandar Baru Serting - Peti surat","Bandar Seri Jempol","NSN"
"72129","Bandar Baru Serting - Beg berkunci","Bandar Seri Jempol","NSN"
"72200","Ayer Dedali","Batu Kikir","NSN"
"72200","Batu Kikir","Batu Kikir","NSN"
"72200","Bayai Lama","Batu Kikir","NSN"
"72200","Bayai","Batu Kikir","NSN"
"72200","Desa Permai Serting Tengah","Batu Kikir","NSN"
"72200","Felcra Gugusan Serting","Batu Kikir","NSN"
"72200","Felda Pasoh 3","Batu Kikir","NSN"
"72200","Ghalib","Batu Kikir","NSN"
"72200","Guntor","Batu Kikir","NSN"
"72200","Kampung Baru Batu 38, Serting Tengah","Batu Kikir","NSN"
"72200","Kampung Baru Bukit Gelugor","Batu Kikir","NSN"
"72200","Kampung Bayai Baru","Batu Kikir","NSN"
"72200","Kampung Bintongan","Batu Kikir","NSN"
"72200","Kampung Birah","Batu Kikir","NSN"
"72200","Kampung Bukit Bahagia","Batu Kikir","NSN"
"72200","Kampung Bukit Gombang","Batu Kikir","NSN"
"72200","Kampung Bukit Kerdas","Batu Kikir","NSN"
"72200","Kampung Bukit Perah","Batu Kikir","NSN"
"72200","Kampung Bukit Sempit","Batu Kikir","NSN"
"72200","Kampung Bukit Tempurong","Batu Kikir","NSN"
"72200","Kampung Jawa Serting","Batu Kikir","NSN"
"72200","Kampung Jelutong","Batu Kikir","NSN"
"72200","Kampung Jeram","Batu Kikir","NSN"
"72200","Kampung Jerjak","Batu Kikir","NSN"
"72200","Kampung Kata","Batu Kikir","NSN"
"72200","Kampung Keru","Batu Kikir","NSN"
"72200","Kampung Lonek","Batu Kikir","NSN"
"72200","Kampung Majau","Batu Kikir","NSN"
"72200","Kampung Masjid Terentang","Batu Kikir","NSN"
"72200","Kampung Mungkar","Batu Kikir","NSN"
"72200","Kampung Padang Lebar","Batu Kikir","NSN"
"72200","Kampung Pajah","Batu Kikir","NSN"
"72200","Kampung Pauh","Batu Kikir","NSN"
"72200","Kampung Paya Mengkuang","Batu Kikir","NSN"
"72200","Kampung Pondok","Batu Kikir","NSN"
"72200","Kampung Pulau Pabai","Batu Kikir","NSN"
"72200","Kampung Pulau Tapak","Batu Kikir","NSN"
"72200","Kampung Seri Melenggang","Batu Kikir","NSN"
"72200","Kampung Serting Tengah","Batu Kikir","NSN"
"72200","Kampung Simpang Bahau","Batu Kikir","NSN"
"72200","Kampung Sungai Talan","Batu Kikir","NSN"
"72200","Kampung Sungai Taling","Batu Kikir","NSN"
"72200","Kampung Tampin","Batu Kikir","NSN"
"72200","Kampung Tapak","Batu Kikir","NSN"
"72200","Kampung Tengkek","Batu Kikir","NSN"
"72200","Kampung Terentang","Batu Kikir","NSN"
"72200","Ladang Batu Kikir","Batu Kikir","NSN"
"72200","Serting Hulu","Batu Kikir","NSN"
"72200","Taman Anggerik","Batu Kikir","NSN"
"72200","Taman Baiduri","Batu Kikir","NSN"
"72200","Taman Beringin","Batu Kikir","NSN"
"72200","Taman Bukit Gelugor","Batu Kikir","NSN"
"72200","Taman Gelugor","Batu Kikir","NSN"
"72200","Taman Intan","Batu Kikir","NSN"
"72200","Taman MawarI (1 & 2)","Batu Kikir","NSN"
"72200","Taman Melati Indah","Batu Kikir","NSN"
"72200","Taman Mutiara","Batu Kikir","NSN"
"72200","Taman Putera","Batu Kikir","NSN"
"72200","Taman Seri Gelugor","Batu Kikir","NSN"
"72200","Taman Setia Budi","Batu Kikir","NSN"
"72207","Batu Kikir - Peti surat","Batu Kikir","NSN"
"72209","Batu Kikir - Beg berkunci","Batu Kikir","NSN"
"72300","Felcra Kerangai - Penagoh","Simpang Pertang","NSN"
"72300","Felda Pasoh 1","Simpang Pertang","NSN"
"72300","Felda Pasoh 2","Simpang Pertang","NSN"
"72300","Felda Pasoh 4","Simpang Pertang","NSN"
"72300","Gerai Pusat Penjaja Simpang Pertang","Simpang Pertang","NSN"
"72300","Kampung Bagong Serting Ulu","Simpang Pertang","NSN"
"72300","Kampung Berangan Serting Ulu","Simpang Pertang","NSN"
"72300","Kampung Durian Tawar","Simpang Pertang","NSN"
"72300","Kampung Geylang","Simpang Pertang","NSN"
"72300","Kampung Kalu Geylang","Simpang Pertang","NSN"
"72300","Kampung Melayu Pertang","Simpang Pertang","NSN"
"72300","Kampung Orang Asli Batu 17","Simpang Pertang","NSN"
"72300","Kampung Parit Gong","Simpang Pertang","NSN"
"72300","Ladang Pertang","Simpang Pertang","NSN"
"72300","Pekan Baru Simpang Pertang","Simpang Pertang","NSN"
"72300","Pertang","Simpang Pertang","NSN"
"72300","Rumah Rakyat 1 Simpang Pertang","Simpang Pertang","NSN"
"72300","Rumah Rakyat 2 Simpang Pertang","Simpang Pertang","NSN"
"72300","Rumah Rakyat Pertang","Simpang Pertang","NSN"
"72300","Serting Ulu","Simpang Pertang","NSN"
"72300","Simpang Pertang","Simpang Pertang","NSN"
"72300","Taman Bukit Pertang","Simpang Pertang","NSN"
"72300","Taman Gunung Mas","Simpang Pertang","NSN"
"72300","Taman IPP (FRIM)","Simpang Pertang","NSN"
"72300","Taman Pertang","Simpang Pertang","NSN"
"72300","Taman Seri Desa","Simpang Pertang","NSN"
"72300","Taman Simpang Jaya","Simpang Pertang","NSN"
"72300","Taman Sri Perdana","Simpang Pertang","NSN"
"72300","Taman Sri Pertang","Simpang Pertang","NSN"
"72300","Zon Perindustrian Simpang Pertang","Simpang Pertang","NSN"
"72307","Simpang Pertang - Peti surat","Simpang Pertang","NSN"
"72309","Simpang Pertang - Beg berkunci","Simpang Pertang","NSN"
"72400","Ayer Baning (Batu 52)","Simpang Durian","NSN"
"72400","Durian Tipus","Simpang Durian","NSN"
"72400","Felcra Lakai","Simpang Durian","NSN"
"72400","Kampung Batu 51","Simpang Durian","NSN"
"72400","Kampung Batu 60 3/4","Simpang Durian","NSN"
"72400","Kampung Bemban","Simpang Durian","NSN"
"72400","Kampung Durian Tipus","Simpang Durian","NSN"
"72400","Kampung Juntai","Simpang Durian","NSN"
"72400","Kampung Lakai","Simpang Durian","NSN"
"72400","Kampung Mentaus","Simpang Durian","NSN"
"72400","Kampung Putra","Simpang Durian","NSN"
"72400","Kampung Rangoi","Simpang Durian","NSN"
"72400","Kampung Sabun","Simpang Durian","NSN"
"72400","Kampung Serdai Hilir","Simpang Durian","NSN"
"72400","Kampung Serdai Ulu","Simpang Durian","NSN"
"72400","Kampung Simpang Durian","Simpang Durian","NSN"
"72400","Kampung Sungai Buloh","Simpang Durian","NSN"
"72400","Ladang Abdullah Kadir","Simpang Durian","NSN"
"72400","Ladang Juntai","Simpang Durian","NSN"
"72400","Loji Air Lakai","Simpang Durian","NSN"
"72400","Simpang Durian","Simpang Durian","NSN"
"72400","Sino Malay","Simpang Durian","NSN"
"72400","Taman Bunga Raya","Simpang Durian","NSN"
"72409","Simpang Durian - Beg berkunci","Simpang Durian","NSN"
"72500","Jalan Bahau (Batu 28 3/4)","Kuala Pilah","NSN"
"72500","Jalan Bahau (Batu 30 1/2)","Kuala Pilah","NSN"
"72500","Jalan Keretapi Lama","Kuala Pilah","NSN"
"72500","Kampung Acheh","Kuala Pilah","NSN"
"72500","Kampung Air Puteh","Kuala Pilah","NSN"
"72500","Kampung Anak Air Sungai Jernih","Kuala Pilah","NSN"
"72500","Kampung Baru Jemapoh","Kuala Pilah","NSN"
"72500","Kampung Baru Terusan Seberang","Kuala Pilah","NSN"
"72500","Kampung Bukit Tempurong","Kuala Pilah","NSN"
"72500","Kampung Juasseh Hilir","Kuala Pilah","NSN"
"72500","Kampung Juasseh Kapitan","Kuala Pilah","NSN"
"72500","Kampung Juasseh Seberang","Kuala Pilah","NSN"
"72500","Kampung Juasseh","Kuala Pilah","NSN"
"72500","Kampung Kuala Jemapoh","Kuala Pilah","NSN"
"72500","Kampung Kuala Rembang Panas","Kuala Pilah","NSN"
"72500","Kampung Lubok Gitan","Kuala Pilah","NSN"
"72500","Kampung Paya Kumboh","Kuala Pilah","NSN"
"72500","Kampung Rembang Panas (Batu 5)","Kuala Pilah","NSN"
"72500","Kampung Rembang Panas Ulu","Kuala Pilah","NSN"
"72500","Kampung Rembang Panas","Kuala Pilah","NSN"
"72500","Kampung Seri Jemapoh","Kuala Pilah","NSN"
"72500","Kampung Tebing Tinggi","Kuala Pilah","NSN"
"72500","Kampung Terusan Seberang","Kuala Pilah","NSN"
"72500","Kampung Terusan","Kuala Pilah","NSN"
"72500","Kampung Ulu Rembang Panas","Kuala Pilah","NSN"
"72500","Ladang Juasseh","Kuala Pilah","NSN"
"72500","Masjid Rembang Panas (Batu 3)","Kuala Pilah","NSN"
"72500","Pekan Juasseh","Kuala Pilah","NSN"
"72500","Taman Desa Permai","Kuala Pilah","NSN"
"72500","Taman Jemapoh","Kuala Pilah","NSN"
"72500","Taman Ros Setia","Kuala Pilah","NSN"
"72507","Juasseh - Peti surat","Kuala Pilah","NSN"
"72509","Juasseh - Beg berkunci","Kuala Pilah","NSN"
"73000","Kampung Anak Durian Daun","Tampin","NSN"
"73000","Kampung Arongan","Tampin","NSN"
"73000","Kampung Baru Tampin","Tampin","NSN"
"73000","Kampung Batu Belang","Tampin","NSN"
"73000","Kampung Bukit Gebang","Tampin","NSN"
"73000","Kampung Bukit Merchat","Tampin","NSN"
"73000","Kampung Chenaga","Tampin","NSN"
"73000","Kampung Chenderam","Tampin","NSN"
"73000","Kampung Dusun","Tampin","NSN"
"73000","Kampung Gadek","Tampin","NSN"
"73000","Kampung Kebun Kelapa","Tampin","NSN"
"73000","Kampung Keru Alai","Tampin","NSN"
"73000","Kampung Keru","Tampin","NSN"
"73000","Kampung Kuala Ina","Tampin","NSN"
"73000","Kampung Pondoi","Tampin","NSN"
"73000","Kampung Pulau Sebang","Tampin","NSN"
"73000","Kampung Repah","Tampin","NSN"
"73000","Kampung Seri Repah","Tampin","NSN"
"73000","Kampung Tampin Pisang","Tampin","NSN"
"73000","Kampung Ulu Chenderam","Tampin","NSN"
"73000","Ladang Gadek","Tampin","NSN"
"73000","Ladang Repah","Tampin","NSN"
"73000","Rumah Rakyat Kuala Ina","Tampin","NSN"
"73000","Rumah Rakyat Repah","Tampin","NSN"
"73000","Taman Bahgia","Tampin","NSN"
"73000","Taman Batu Belang","Tampin","NSN"
"73000","Taman Bukit Ina","Tampin","NSN"
"73000","Taman Bukit Tampin","Tampin","NSN"
"73000","Taman Clonlee 2","Tampin","NSN"
"73000","Taman Clonlee","Tampin","NSN"
"73000","Taman Crescent","Tampin","NSN"
"73000","Taman DUN Pulau Sebang","Tampin","NSN"
"73000","Taman Desa Permai Ulu Yoh","Johol","NSN"
"73000","Taman Desa Permai","Tampin","NSN"
"73000","Taman Gunong Mas","Tampin","NSN"
"73000","Taman Hock Lee","Tampin","NSN"
"73000","Taman Indah","Tampin","NSN"
"73000","Taman Mahsuri (Jalan Pulau Sebang)","Tampin","NSN"
"73000","Taman Mahsuri (Jalan Seremban)","Tampin","NSN"
"73000","Taman Mutiara","Tampin","NSN"
"73000","Taman Rasa Sayang","Tampin","NSN"
"73000","Taman Repah Baru","Tampin","NSN"
"73000","Taman Sebang Baru","Tampin","NSN"
"73000","Taman Seri Berlian","Tampin","NSN"
"73000","Taman Seri Indah","Tampin","NSN"
"73000","Taman Seri Tampin","Tampin","NSN"
"73000","Taman Sitiawan","Tampin","NSN"
"73000","Taman Tampin","Tampin","NSN"
"73000","Taman Woon","Tampin","NSN"
"73000","Tampin Jaya","Tampin","NSN"
"73000","Tampin Tengah","Tampin","NSN"
"73007","Tampin - Peti surat","Tampin","NSN"
"73009","Tampin - Beg berkunci","Tampin","NSN"
"73100","Ayer Puteh (Batu 13)","Johol","NSN"
"73100","Kampung Anak Ayer Rambutan","Johol","NSN"
"73100","Kampung Ayer Gapis","Johol","NSN"
"73100","Kampung Ayer Kempas","Johol","NSN"
"73100","Kampung Ayer Kuning Kepis","Johol","NSN"
"73100","Kampung Ayer Mawang","Johol","NSN"
"73100","Kampung Ayer Pulasan","Johol","NSN"
"73100","Kampung Ayer Puteh","Johol","NSN"
"73100","Kampung Ayer Rengas","Johol","NSN"
"73100","Kampung Ayer Taling","Johol","NSN"
"73100","Kampung Balai Panjang","Johol","NSN"
"73100","Kampung Balik Bukit","Johol","NSN"
"73100","Kampung Batu 4 (Betong)","Johol","NSN"
"73100","Kampung Berambai","Johol","NSN"
"73100","Kampung Bukit Changgang","Johol","NSN"
"73100","Kampung Bukit Istana","Johol","NSN"
"73100","Kampung Chabang Dua","Johol","NSN"
"73100","Kampung Charik","Johol","NSN"
"73100","Kampung Chegor","Johol","NSN"
"73100","Kampung Dangi","Johol","NSN"
"73100","Kampung Depan Sekolah Inas","Johol","NSN"
"73100","Kampung Desa Dangi","Johol","NSN"
"73100","Kampung Dingkir Hulu","Johol","NSN"
"73100","Kampung Dingkir","Johol","NSN"
"73100","Kampung Dusun Besar","Johol","NSN"
"73100","Kampung Eyor","Johol","NSN"
"73100","Kampung Gajan","Johol","NSN"
"73100","Kampung Gating","Johol","NSN"
"73100","Kampung Geduhum","Johol","NSN"
"73100","Kampung Gemencheh Hulu","Johol","NSN"
"73100","Kampung Inas Tengah","Johol","NSN"
"73100","Kampung Ipok","Johol","NSN"
"73100","Kampung Kabong Hilir","Johol","NSN"
"73100","Kampung Kabong Hulu","Johol","NSN"
"73100","Kampung Kabong","Johol","NSN"
"73100","Kampung Kelapi","Johol","NSN"
"73100","Kampung Kelomboi","Johol","NSN"
"73100","Kampung Kepis Baru","Johol","NSN"
"73100","Kampung Kepis Hilir","Johol","NSN"
"73100","Kampung Kepis Hulu","Johol","NSN"
"73100","Kampung Kepis Tengah","Johol","NSN"
"73100","Kampung Kepis","Johol","NSN"
"73100","Kampung Kuala Johol","Johol","NSN"
"73100","Kampung Kuala Nuri","Johol","NSN"
"73100","Kampung Kuala Tumang","Johol","NSN"
"73100","Kampung Lanjut Lumpuh","Johol","NSN"
"73100","Kampung Maha","Johol","NSN"
"73100","Kampung Malan","Johol","NSN"
"73100","Kampung Malok","Johol","NSN"
"73100","Kampung Masjid Batu","Johol","NSN"
"73100","Kampung Masjid Gating","Johol","NSN"
"73100","Kampung Masjid Tangkoh","Johol","NSN"
"73100","Kampung Masjid Tua","Johol","NSN"
"73100","Kampung Melekai","Johol","NSN"
"73100","Kampung Nerusa","Johol","NSN"
"73100","Kampung Padang Jual","Johol","NSN"
"73100","Kampung Pasit","Johol","NSN"
"73100","Kampung Paya","Johol","NSN"
"73100","Kampung Putong","Johol","NSN"
"73100","Kampung Renggoh","Johol","NSN"
"73100","Kampung Seberang Jelai","Johol","NSN"
"73100","Kampung Seginyeh","Johol","NSN"
"73100","Kampung Selaru","Johol","NSN"
"73100","Kampung Senarak","Johol","NSN"
"73100","Kampung Senibai","Johol","NSN"
"73100","Kampung Serting Johol","Johol","NSN"
"73100","Kampung Sikota","Johol","NSN"
"73100","Kampung Simat","Johol","NSN"
"73100","Kampung Simpang Inas Lama","Johol","NSN"
"73100","Kampung Simpang","Johol","NSN"
"73100","Kampung Solok Ayer Kuning","Johol","NSN"
"73100","Kampung Solok Pisang","Johol","NSN"
"73100","Kampung Sompo","Johol","NSN"
"73100","Kampung Sungai Sala","Johol","NSN"
"73100","Kampung Tanah Baru","Johol","NSN"
"73100","Kampung Tanggai","Johol","NSN"
"73100","Kampung Tangkoh Hilir","Johol","NSN"
"73100","Kampung Tangkoh Hulu","Johol","NSN"
"73100","Kampung Tanjong Pisang","Johol","NSN"
"73100","Kampung Tanjong Tengah","Johol","NSN"
"73100","Kampung Tering","Johol","NSN"
"73100","Kampung Tinggal","Johol","NSN"
"73100","Kampung Tulang Rimau","Johol","NSN"
"73100","Kampung Tumang","Johol","NSN"
"73100","Kampung Ulu Inas","Johol","NSN"
"73100","Kampung Ulu Nuri","Johol","NSN"
"73100","Kampung Ulu Punggor","Johol","NSN"
"73100","Kampung Ulu Tanggai","Johol","NSN"
"73100","Kuala Kepis (Batu 12)","Johol","NSN"
"73100","Ladang Ban Onn","Johol","NSN"
"73100","Ladang Johol","Johol","NSN"
"73100","Ladang See Kee","Johol","NSN"
"73100","Ladang Sekota","Johol","NSN"
"73100","Ladang Tai Hin San","Johol","NSN"
"73100","Ladang United","Johol","NSN"
"73100","Ladang Yong Seng","Johol","NSN"
"73100","Pekan Johol","Johol","NSN"
"73100","Rumah Rakyat Ayer Mawang","Johol","NSN"
"73100","Rumah Rakyat Dangi","Johol","NSN"
"73100","Rumah Rakyat Johol","Johol","NSN"
"73100","Rumah Rakyat Kuala Johol","Johol","NSN"
"73100","Rumah Rakyat Padang Jual","Johol","NSN"
"73100","Rumah Rakyat Pasit","Johol","NSN"
"73100","Simpang Dangi","Johol","NSN"
"73100","Simpang Langkap","Johol","NSN"
"73100","Simpang Senibai","Johol","NSN"
"73100","Taman Air Mawang","Johol","NSN"
"73100","Taman Dangi","Johol","NSN"
"73100","Taman Johol","Johol","NSN"
"73100","Tok Kong Batu Tangga","Johol","NSN"
"73109","Johol - Beg berkunci","Johol","NSN"
"73200","Bukit Rokan Utara","Gemencheh","NSN"
"73200","Bukit Rokan","Gemencheh","NSN"
"73200","Felda Bukit Rokan Barat","Gemencheh","NSN"
"73200","Felda Bukit Rokan Utara","Gemencheh","NSN"
"73200","Felda Bukit Rokan","Gemencheh","NSN"
"73200","Gemencheh Lama","Gemencheh","NSN"
"73200","Gemencheh","Gemencheh","NSN"
"73200","Institut Tahfiz","Gemencheh","NSN"
"73200","Kampung Air Kuning","Gemencheh","NSN"
"73200","Kampung Ayer Gelugor","Gemencheh","NSN"
"73200","Kampung Ayer Rawa","Gemencheh","NSN"
"73200","Kampung Baru Gedok","Gemencheh","NSN"
"73200","Kampung Baru Jelai","Gemencheh","NSN"
"73200","Kampung Baru Seri Dangi","Gemencheh","NSN"
"73200","Kampung Baru Sungai Dua","Gemencheh","NSN"
"73200","Kampung Batang Rokan","Gemencheh","NSN"
"73200","Kampung Bunga Raya","Gemencheh","NSN"
"73200","Kampung Gedok","Gemencheh","NSN"
"73200","Kampung Jelawai","Gemencheh","NSN"
"73200","Kampung Pulau","Gemencheh","NSN"
"73200","Kampung Rokan","Gemencheh","NSN"
"73200","Kampung Seri Asahan","Gemencheh","NSN"
"73200","Kampung Seri Gemencheh","Gemencheh","NSN"
"73200","Kampung Sungai Dua","Gemencheh","NSN"
"73200","Kampung Sungai Jerneh","Gemencheh","NSN"
"73200","Kampung Sungai Kepong","Gemencheh","NSN"
"73200","Kampung Sungai Salah","Gemencheh","NSN"
"73200","Kampung Tanjong Melintang","Gemencheh","NSN"
"73200","Kampung Tenai","Gemencheh","NSN"
"73200","Kampung Tengah","Gemencheh","NSN"
"73200","Kampung Ulu Rokan","Gemencheh","NSN"
"73200","Loji Bekalan Air Gemencheh","Gemencheh","NSN"
"73200","Maktab Rendah Sains Mara","Gemencheh","NSN"
"73200","Rumah Rakyat Gemencheh 2","Gemencheh","NSN"
"73200","Rumah Rakyat Gemencheh Lama","Gemencheh","NSN"
"73200","Rumah Rakyat Kampung Tengah","Gemencheh","NSN"
"73200","Taman Asahan Jaya","Gemencheh","NSN"
"73200","Taman Bukit Gemencheh","Gemencheh","NSN"
"73200","Taman Bunga Raya","Gemencheh","NSN"
"73200","Taman Dato Mohd Taha","Gemencheh","NSN"
"73200","Taman Gembira","Gemencheh","NSN"
"73200","Taman Gemencheh Baru","Gemencheh","NSN"
"73200","Taman Gemencheh Lama","Gemencheh","NSN"
"73200","Taman Impian Jaya","Gemencheh","NSN"
"73200","Taman Melor","Gemencheh","NSN"
"73200","Taman Merak","Gemencheh","NSN"
"73200","Taman Muhibah","Gemencheh","NSN"
"73200","Taman Orkid","Gemencheh","NSN"
"73200","Taman Regent","Gemencheh","NSN"
"73200","Taman Semarak Air Kuning Selatan","Gemencheh","NSN"
"73200","Taman Sentosa","Gemencheh","NSN"
"73200","Taman Seri Intan","Gemencheh","NSN"
"73200","Taman Yu Yi","Gemencheh","NSN"
"73207","Gemencheh - Peti surat","Gemencheh","NSN"
"73209","Gemencheh - Beg berkunci","Gemencheh","NSN"
"73300","Ayer Kuning Selatan","Gemencheh","NSN"
"73300","Batang Melaka Estate","Gemencheh","NSN"
"73300","Batang Melaka","Gemencheh","NSN"
"73300","Felda Bukit Jalor","Gemencheh","NSN"
"73300","Kampung Ayer Kuning Selatan","Gemencheh","NSN"
"73300","Kampung Baru Ayer Kuning Selatan","Gemencheh","NSN"
"73300","Kampung Baru Cina","Gemencheh","NSN"
"73300","Kampung Baru India","Gemencheh","NSN"
"73300","Kampung Baru Melayu","Gemencheh","NSN"
"73300","Kampung Parit Buluh Ayer Kuning Selatan","Gemencheh","NSN"
"73300","Kampung Paya Lebar Ayer Kuning Selatan","Gemencheh","NSN"
"73300","Kampung Punggor","Gemencheh","NSN"
"73300","Kampung Tengah Air Kuning Selatan","Gemencheh","NSN"
"73300","Kayu Estate","Gemencheh","NSN"
"73300","Ladang Atlas","Gemencheh","NSN"
"73300","Ladang Ayer Tengah","Gemencheh","NSN"
"73300","Ladang Bukit Katil","Gemencheh","NSN"
"73300","Ladang Chinpul","Gemencheh","NSN"
"73300","Ladang Nam Bee","Gemencheh","NSN"
"73300","Ladang Ong Guan Neo","Gemencheh","NSN"
"73300","Ladang Regent","Gemencheh","NSN"
"73300","Ladang Tampin (Melaka Pindah)","Gemencheh","NSN"
"73300","Taman Ayer Kuning Selatan","Gemencheh","NSN"
"73300","Taman Batang Melaka","Gemencheh","NSN"
"73300","Taman Semarak","Gemencheh","NSN"
"73300","Taman Seri Ayer Kuning Selatan","Gemencheh","NSN"
"73300","Tiong Watt Estate","Gemencheh","NSN"
"73300","Valley Side Estate","Gemencheh","NSN"
"73309","Batang Melaka - Beg berkunci","Gemencheh","NSN"
"73400","Bangka Hulu","Gemas","NSN"
"73400","Felda Sungai KeLamah","Gemas","NSN"
"73400","Gemas Baru Estate","Gemas","NSN"
"73400","Gemas Baru","Gemas","NSN"
"73400","Gemas Estate","Gemas","NSN"
"73400","Kampung Baru Gemas","Gemas","NSN"
"73400","Kampung Baru","Gemas","NSN"
"73400","Kampung Benggali Gemas","Gemas","NSN"
"73400","Kampung Ladang","Gemas","NSN"
"73400","Kampung Londah Baru","Gemas","NSN"
"73400","Kampung Londah","Gemas","NSN"
"73400","Kampung Pasir Besar","Gemas","NSN"
"73400","Kampung Seri Ladang","Gemas","NSN"
"73400","Kampung Tiong","Gemas","NSN"
"73400","Kampung Ulu Ladang","Gemas","NSN"
"73400","Ladang Chin Lian","Gemas","NSN"
"73400","Ladang Fortrose","Gemas","NSN"
"73400","Ladang Gomali","Gemas","NSN"
"73400","Ladang Sungai Kelamah","Gemas","NSN"
"73400","Pekan Gemas","Gemas","NSN"
"73400","Sungai Kelamah","Gemas","NSN"
"73400","Taman Anggerik Desa","Gemas","NSN"
"73400","Taman Bakti","Gemas","NSN"
"73400","Taman Bintang","Gemas","NSN"
"73400","Taman Bukit Gemas","Gemas","NSN"
"73400","Taman Bukit Lentang (Gemas Baru)","Gemas","NSN"
"73400","Taman Damai","Gemas","NSN"
"73400","Taman Desa Gemas","Gemas","NSN"
"73400","Taman Desa Permai","Gemas","NSN"
"73400","Taman Gemas Baru II","Gemas","NSN"
"73400","Taman Gemas Baru","Gemas","NSN"
"73400","Taman Gemas Jaya","Gemas","NSN"
"73400","Taman Gemas Setia","Gemas","NSN"
"73400","Taman Gemas","Gemas","NSN"
"73400","Taman Gembira","Gemas","NSN"
"73400","Taman Golden Hill","Gemas","NSN"
"73400","Taman Hala Cara Baru","Gemas","NSN"
"73400","Taman Indah","Gemas","NSN"
"73400","Taman Megah","Gemas","NSN"
"73400","Taman Molek","Gemas","NSN"
"73400","Taman Morris","Gemas","NSN"
"73400","Taman Pasir Besar","Gemas","NSN"
"73400","Taman Pinggiran Felda","Gemas","NSN"
"73400","Taman Sahabat","Gemas","NSN"
"73400","Taman Sentosa","Gemas","NSN"
"73400","Taman Seri Gemas","Gemas","NSN"
"73400","Taman Sungai Gemas","Gemas","NSN"
"73400","Taman Wira","Gemas","NSN"
"73409","Gemas - Beg berkunci","Gemas","NSN"
"73420","Felda Pasir Besar","Gemas","NSN"
"73420","Kampung Pasir Besar","Gemas","NSN"
"73430","Felda Palong (4 - 6)","Pusat Bandar Palong","NSN"
"73430","Palong 6 & 8","Pusat Bandar Palong","NSN"
"73430","Pusat Bandar Palong","Pusat Bandar Palong","NSN"
"73440","Felda Palong 1","Pusat Bandar Palong","NSN"
"73450","Felda Palong 2","Pusat Bandar Palong","NSN"
"73460","Felda Palong 3","Pusat Bandar Palong","NSN"
"73470","Felda Palong (7 - 8)","Pusat Bandar Palong","NSN"
"73470","Kampung Jeram Panjang","Pusat Bandar Palong","NSN"
"73470","Palong 9 - 14,16","Pusat Bandar Palong","NSN"
"73480","Felda Jelai 1","Gemas","NSN"
"73480","Felda Jelai 2","Gemas","NSN"
"73480","Felda Jelai 3","Gemas","NSN"
"73480","Felda Jelai 4","Gemas","NSN"
"73480","Gugusan Felda Jelai","Gemas","NSN"
"73500","Bukit Tinggi Estate","Rompin","NSN"
"73500","Goodwood Estate","Rompin","NSN"
"73500","Kampung Balai China","Rompin","NSN"
"73500","Kampung Baru Rompin","Rompin","NSN"
"73500","Kampung Batu Peti","Rompin","NSN"
"73500","Kampung Bukit Pilah","Rompin","NSN"
"73500","Kampung Felcra Rompin","Rompin","NSN"
"73500","Kampung Panchor","Rompin","NSN"
"73500","Kampung Rompin","Rompin","NSN"
"73500","Ladang Bukit Pilah Rompin","Rompin","NSN"
"73500","Ladang Bukit Pilah","Rompin","NSN"
"73500","Ladang Middleton Palong","Rompin","NSN"
"73500","Ladang Middleton Rompin","Rompin","NSN"
"73500","Ladang Middleton","Rompin","NSN"
"73500","Ladang New Rompin","Rompin","NSN"
"73500","Middleton Estate","Rompin","NSN"
"73500","Rumah Rakyat Rompin","Rompin","NSN"
"73500","Taman Desa Rompin","Rompin","NSN"
"73500","Taman Melor Rompin","Rompin","NSN"
"73500","Taman Saujana","Rompin","NSN"
"73500","Taman Sri Rompin","Rompin","NSN"
"73500","Taman Suria","Rompin","NSN"
"73500","Tanah Panjis","Rompin","NSN"
"73507","Rompin - Peti surat","Rompin","NSN"
"73509","Rompin - Beg berkunci","Rompin","NSN"