"POSTCODE","ADDRESS","CITY","STATE"
"88000","Bangunan Api-Api","Kota Kinabalu","SBH"
"88000","Bangunan Asia City","Kota Kinabalu","SBH"
"88000","Bangunan BFO","Kota Kinabalu","SBH"
"88000","Bangunan Bank Negara","Kota Kinabalu","SBH"
"88000","Bangunan Centre Point","Kota Kinabalu","SBH"
"88000","Bangunan Dewan Bandaraya Kota Kinabalu","Kota Kinabalu","SBH"
"88000","Bangunan Dewan Masyarakat Kota Kinabalu","Kota Kinabalu","SBH"
"88000","Bangunan Feri Terminal","Kota Kinabalu","SBH"
"88000","Bangunan Hong Kong Bank","Kota Kinabalu","SBH"
"88000","Bangunan Indra Sabah","Kota Kinabalu","SBH"
"88000","Bangunan KK Plaza","Kota Kinabalu","SBH"
"88000","Bangunan Kinabalu Club","Kota Kinabalu","SBH"
"88000","Bangunan MPKK","Kota Kinabalu","SBH"
"88000","Bangunan Pasar Besar Kota Kinabalu","Kota Kinabalu","SBH"
"88000","Bangunan S.T.P.C","Kota Kinabalu","SBH"
"88000","Bangunan SAFMA","Kota Kinabalu","SBH"
"88000","Bangunan Wawasan Plaza","Kota Kinabalu","SBH"
"88000","Central Building","Kota Kinabalu","SBH"
"88000","Chinese Chamber Building","Kota Kinabalu","SBH"
"88000","Elas-Elas","Kota Kinabalu","SBH"
"88000","Hong Dua","Kota Kinabalu","SBH"
"88000","Hong Satu","Kota Kinabalu","SBH"
"88000","Hotel Le Meridien","Kota Kinabalu","SBH"
"88000","Hyatt Regency Hotel","Kota Kinabalu","SBH"
"88000","Jalan 12","Kota Kinabalu","SBH"
"88000","Jalan 13","Kota Kinabalu","SBH"
"88000","Jalan 14","Kota Kinabalu","SBH"
"88000","Jalan 15","Kota Kinabalu","SBH"
"88000","Jalan 16","Kota Kinabalu","SBH"
"88000","Jalan 2","Kota Kinabalu","SBH"
"88000","Jalan 20","Kota Kinabalu","SBH"
"88000","Jalan 21","Kota Kinabalu","SBH"
"88000","Jalan 22","Kota Kinabalu","SBH"
"88000","Jalan 23","Kota Kinabalu","SBH"
"88000","Jalan 24","Kota Kinabalu","SBH"
"88000","Jalan 3","Kota Kinabalu","SBH"
"88000","Jalan 4","Kota Kinabalu","SBH"
"88000","Jalan 5","Kota Kinabalu","SBH"
"88000","Jalan 6","Kota Kinabalu","SBH"
"88000","Jalan Albert Kwok","Kota Kinabalu","SBH"
"88000","Jalan Api-Api","Kota Kinabalu","SBH"
"88000","Jalan Bakau","Kota Kinabalu","SBH"
"88000","Jalan Balai Polis Lama","Kota Kinabalu","SBH"
"88000","Jalan Balai Polis","Kota Kinabalu","SBH"
"88000","Jalan Bandaran Berjaya","Kota Kinabalu","SBH"
"88000","Jalan Bandaran","Kota Kinabalu","SBH"
"88000","Jalan Berjaya (1 - 3)","Kota Kinabalu","SBH"
"88000","Jalan Centre","Kota Kinabalu","SBH"
"88000","Jalan Datuk Chong Thian Vun","Kota Kinabalu","SBH"
"88000","Jalan Deasoka","Kota Kinabalu","SBH"
"88000","Jalan Gaya","Kota Kinabalu","SBH"
"88000","Jalan Haji Samad","Kota Kinabalu","SBH"
"88000","Jalan Haji Saman","Kota Kinabalu","SBH"
"88000","Jalan Haji Yaakub","Kota Kinabalu","SBH"
"88000","Jalan Ibu Pejabat Berjaya","Kota Kinabalu","SBH"
"88000","Jalan Jati","Kota Kinabalu","SBH"
"88000","Jalan Kebijakan","Kota Kinabalu","SBH"
"88000","Jalan Labuk","Kota Kinabalu","SBH"
"88000","Jalan Ladang","Kota Kinabalu","SBH"
"88000","Jalan Lapan","Kota Kinabalu","SBH"
"88000","Jalan Lee Tet Phui","Kota Kinabalu","SBH"
"88000","Jalan Liman Diki","Kota Kinabalu","SBH"
"88000","Jalan Masjid Lama","Kota Kinabalu","SBH"
"88000","Jalan Merdeka","Kota Kinabalu","SBH"
"88000","Jalan Padang","Kota Kinabalu","SBH"
"88000","Jalan Padas","Kota Kinabalu","SBH"
"88000","Jalan Pantai","Kota Kinabalu","SBH"
"88000","Jalan Pasar Baru","Kota Kinabalu","SBH"
"88000","Jalan Pasar","Kota Kinabalu","SBH"
"88000","Jalan Pelabuhan","Kota Kinabalu","SBH"
"88000","Jalan Pengiran Fatimah","Kota Kinabalu","SBH"
"88000","Jalan Perpaduan","Kota Kinabalu","SBH"
"88000","Jalan Perpustakaan Negeri","Kota Kinabalu","SBH"
"88000","Jalan Salleh Sulong","Kota Kinabalu","SBH"
"88000","Jalan Satu","Kota Kinabalu","SBH"
"88000","Jalan Sebelas","Kota Kinabalu","SBH"
"88000","Jalan Segama","Kota Kinabalu","SBH"
"88000","Jalan Segumting","Kota Kinabalu","SBH"
"88000","Jalan Sembilan Belas","Kota Kinabalu","SBH"
"88000","Jalan Sembilan","Kota Kinabalu","SBH"
"88000","Jalan Sentosa","Kota Kinabalu","SBH"
"88000","Jalan Sepuloh","Kota Kinabalu","SBH"
"88000","Jalan Sinsuran","Kota Kinabalu","SBH"
"88000","Jalan Sugut","Kota Kinabalu","SBH"
"88000","Jalan Tan Beng Hing","Kota Kinabalu","SBH"
"88000","Jalan Tanjung Lipat","Kota Kinabalu","SBH"
"88000","Jalan Timbuk","Kota Kinabalu","SBH"
"88000","Jalan Tuanku Abdul Rahman","Kota Kinabalu","SBH"
"88000","Jalan Tugu","Kota Kinabalu","SBH"
"88000","Jalan Tujuh Belas","Kota Kinabalu","SBH"
"88000","Jalan Tujuh","Kota Kinabalu","SBH"
"88000","Jalan Tun Razak","Kota Kinabalu","SBH"
"88000","Kampung Air","Kota Kinabalu","SBH"
"88000","King Park Hotel","Kota Kinabalu","SBH"
"88000","Kompleks Asia City","Kota Kinabalu","SBH"
"88000","Kompleks SEDCO","Kota Kinabalu","SBH"
"88000","Kompleks Segama","Kota Kinabalu","SBH"
"88000","Kompleks Sinsuran","Kota Kinabalu","SBH"
"88000","Lebuhraya Pantai Baru","Kota Kinabalu","SBH"
"88000","Lorong 6","Kota Kinabalu","SBH"
"88000","Lorong 7","Kota Kinabalu","SBH"
"88000","Lorong Api-Api","Kota Kinabalu","SBH"
"88000","Lorong Bahasa","Kota Kinabalu","SBH"
"88000","Lorong Bakau","Kota Kinabalu","SBH"
"88000","Lorong Bank","Kota Kinabalu","SBH"
"88000","Lorong Berjaya","Kota Kinabalu","SBH"
"88000","Lorong Dewan","Kota Kinabalu","SBH"
"88000","Lorong Ewan","Kota Kinabalu","SBH"
"88000","Lorong Gumantung","Kota Kinabalu","SBH"
"88000","Lorong Haji Ahmad","Kota Kinabalu","SBH"
"88000","Lorong Haji Yaakub","Kota Kinabalu","SBH"
"88000","Lorong Jati","Kota Kinabalu","SBH"
"88000","Lorong Khidmat","Kota Kinabalu","SBH"
"88000","Lorong Lapan","Kota Kinabalu","SBH"
"88000","Lorong Merdeka","Kota Kinabalu","SBH"
"88000","Lorong Pasar Baru","Kota Kinabalu","SBH"
"88000","Lorong Pelabuhan A","Kota Kinabalu","SBH"
"88000","Lorong Pelabuhan","Kota Kinabalu","SBH"
"88000","Lorong Perpaduan (A & B)","Kota Kinabalu","SBH"
"88000","Lorong Sagunting","Kota Kinabalu","SBH"
"88000","Lorong Sembilan Belas","Kota Kinabalu","SBH"
"88000","Lorong Sembilan","Kota Kinabalu","SBH"
"88000","Lorong Sinsuran","Kota Kinabalu","SBH"
"88000","Lorong T3","Kota Kinabalu","SBH"
"88000","Lorong Yakin","Kota Kinabalu","SBH"
"88000","Marina Court","Kota Kinabalu","SBH"
"88000","Menara Jubli","Kota Kinabalu","SBH"
"88000","Menara MAA","Kota Kinabalu","SBH"
"88000","Menara MBF","Kota Kinabalu","SBH"
"88000","Pengkalan Polis Marin","Kota Kinabalu","SBH"
"88000","Promanade Hotel","Kota Kinabalu","SBH"
"88000","Pusat Kraftangan Filipina ","Kota Kinabalu","SBH"
"88000","Ruang Sinsuran 1 - 4","Kota Kinabalu","SBH"
"88000","Ruang Tiong Hwa","Kota Kinabalu","SBH"
"88000","Shangrila Hotel","Kota Kinabalu","SBH"
"88000","Tang Dynasty Hotel","Kota Kinabalu","SBH"
"88000","Warisan Square","Kota Kinabalu","SBH"
"88000","Wisma Bandaraya","Kota Kinabalu","SBH"
"88000","Wisma Budaya","Kota Kinabalu","SBH"
"88000","Wisma Dang Bandang","Kota Kinabalu","SBH"
"88000","Wisma Fook Loi","Kota Kinabalu","SBH"
"88000","Wisma Gaya","Kota Kinabalu","SBH"
"88000","Wisma Gek Poh","Kota Kinabalu","SBH"
"88000","Wisma Great Eastern Life","Kota Kinabalu","SBH"
"88000","Wisma Inti Utama","Kota Kinabalu","SBH"
"88000","Wisma KK","Kota Kinabalu","SBH"
"88000","Wisma Merdeka","Kota Kinabalu","SBH"
"88000","Wisma PendidIkan","Kota Kinabalu","SBH"
"88000","Wisma Perkasa","Kota Kinabalu","SBH"
"88000","Wisma SEDCO","Kota Kinabalu","SBH"
"88000","Wisma Sabah","Kota Kinabalu","SBH"
"88000","Wisma TWB","Kota Kinabalu","SBH"
"88000","Wisma Takada","Kota Kinabalu","SBH"
"88000","Wisma Yakim","Kota Kinabalu","SBH"
"88100","Anjung Perdana","Kota Kinabalu","SBH"
"88100","Apartment Murni","Kota Kinabalu","SBH"
"88100","Balai Bomba Negeri","Kota Kinabalu","SBH"
"88100","Balai Polis Karamunsing","Kota Kinabalu","SBH"
"88100","Balai Polis Tanjung Aru","Kota Kinabalu","SBH"
"88100","Bangunan BSN","Kota Kinabalu","SBH"
"88100","Bangunan Indonesia","Kota Kinabalu","SBH"
"88100","Bangunan Jabatan Tanah dan Ukur","Kota Kinabalu","SBH"
"88100","Bangunan LHDN","Kota Kinabalu","SBH"
"88100","Bangunan LUTH","Kota Kinabalu","SBH"
"88100","Bangunan Maybank","Kota Kinabalu","SBH"
"88100","Bangunan UMNO","Kota Kinabalu","SBH"
"88100","Bangunan USIA","Kota Kinabalu","SBH"
"88100","Casurina Hotel","Kota Kinabalu","SBH"
"88100","Grace Court","Kota Kinabalu","SBH"
"88100","Grace Square","Kota Kinabalu","SBH"
"88100","Grace Villa","Kota Kinabalu","SBH"
"88100","Harbour City","Kota Kinabalu","SBH"
"88100","Hotel Karamunsing","Kota Kinabalu","SBH"
"88100","Hotel Tang Dynasty Park","Kota Kinabalu","SBH"
"88100","Jalan Aru","Kota Kinabalu","SBH"
"88100","Jalan Belia","Kota Kinabalu","SBH"
"88100","Jalan Bukit Nenas","Kota Kinabalu","SBH"
"88100","Jalan Datuk Osman Yusof","Kota Kinabalu","SBH"
"88100","Jalan Edwina","Kota Kinabalu","SBH"
"88100","Jalan Ikan Juara","Kota Kinabalu","SBH"
"88100","Jalan Johor","Kota Kinabalu","SBH"
"88100","Jalan Kampung Tanjong Aru","Kota Kinabalu","SBH"
"88100","Jalan Karamunsing","Kota Kinabalu","SBH"
"88100","Jalan Kedah","Kota Kinabalu","SBH"
"88100","Jalan Kemajuan","Kota Kinabalu","SBH"
"88100","Jalan Kepayan","Kota Kinabalu","SBH"
"88100","Jalan Lapangan Terbang Lama","Kota Kinabalu","SBH"
"88100","Jalan Lingkar","Kota Kinabalu","SBH"
"88100","Jalan Maktab Sabah","Kota Kinabalu","SBH"
"88100","Jalan Markisa","Kota Kinabalu","SBH"
"88100","Jalan Masjid Negeri","Kota Kinabalu","SBH"
"88100","Jalan Mat Salleh","Kota Kinabalu","SBH"
"88100","Jalan Melati","Kota Kinabalu","SBH"
"88100","Jalan Mesra","Kota Kinabalu","SBH"
"88100","Jalan Murai","Kota Kinabalu","SBH"
"88100","Jalan Murni","Kota Kinabalu","SBH"
"88100","Jalan Nilam","Kota Kinabalu","SBH"
"88100","Jalan Padang Tembok","Kota Kinabalu","SBH"
"88100","Jalan Pantai Sembulan","Kota Kinabalu","SBH"
"88100","Jalan Parit","Kota Kinabalu","SBH"
"88100","Jalan Pusat Pembangunan Masyarakat","Kota Kinabalu","SBH"
"88100","Jalan Selangor","Kota Kinabalu","SBH"
"88100","Jalan Sembulan Lama","Kota Kinabalu","SBH"
"88100","Jalan Sembulan Tengah","Kota Kinabalu","SBH"
"88100","Jalan Sembulan","Kota Kinabalu","SBH"
"88100","Jalan Setia","Kota Kinabalu","SBH"
"88100","Jalan Sireh","Kota Kinabalu","SBH"
"88100","Jalan Tangki","Kota Kinabalu","SBH"
"88100","Jalan Tanjung Aru","Kota Kinabalu","SBH"
"88100","Jalan Tas","Kota Kinabalu","SBH"
"88100","Jalan Tengku Abdul Rahman","Kota Kinabalu","SBH"
"88100","Jalan Tun Mustafa","Kota Kinabalu","SBH"
"88100","KK Time Square","Kota Kinabalu","SBH"
"88100","Kampung Sembulan","Kota Kinabalu","SBH"
"88100","Kampung Sembulan(Lorong 1 - 16)","Kota Kinabalu","SBH"
"88100","Kampung Tanjong Aru","Kota Kinabalu","SBH"
"88100","Kampung Tanjung Aru Baru","Kota Kinabalu","SBH"
"88100","Kampung Tanjung Aru Lama","Kota Kinabalu","SBH"
"88100","Karamunsing Capital","Kota Kinabalu","SBH"
"88100","Karamunsing Warehouse","Kota Kinabalu","SBH"
"88100","Karamunsing","Kota Kinabalu","SBH"
"88100","Kem Bukit Perwira (507)","Kota Kinabalu","SBH"
"88100","Kem TUDM (571)","Kota Kinabalu","SBH"
"88100","Kinabalu Golf Cub","Kota Kinabalu","SBH"
"88100","Kompleks KWSP","Kota Kinabalu","SBH"
"88100","Kompleks Karamunsing","Kota Kinabalu","SBH"
"88100","Lapangan Terbang Kota Kinabalu Lama","Kota Kinabalu","SBH"
"88100","Lorong Aru","Kota Kinabalu","SBH"
"88100","Lorong Balai","Kota Kinabalu","SBH"
"88100","Lorong Bandaran Tanjong Aru","Kota Kinabalu","SBH"
"88100","Lorong Belia","Kota Kinabalu","SBH"
"88100","Lorong Belidah","Kota Kinabalu","SBH"
"88100","Lorong Bunga Kacang Wangi (1 - 2)","Kota Kinabalu","SBH"
"88100","Lorong Bunga Kacang Wangi","Kota Kinabalu","SBH"
"88100","Lorong Bunga Kemunting","Kota Kinabalu","SBH"
"88100","Lorong Bunga Telipoh (1 - 3)","Kota Kinabalu","SBH"
"88100","Lorong Bunga Telipoh","Kota Kinabalu","SBH"
"88100","Lorong Bunga Telor","Kota Kinabalu","SBH"
"88100","Lorong Cacaru","Kota Kinabalu","SBH"
"88100","Lorong Cermin","Kota Kinabalu","SBH"
"88100","Lorong Gerunggong (A & B)","Kota Kinabalu","SBH"
"88100","Lorong Gerunggong","Kota Kinabalu","SBH"
"88100","Lorong Gunung Perlis","Kota Kinabalu","SBH"
"88100","Lorong Ikan Badus","Kota Kinabalu","SBH"
"88100","Lorong Ikan Emas","Kota Kinabalu","SBH"
"88100","Lorong Ikan Krisi","Kota Kinabalu","SBH"
"88100","Lorong Ikan Lais","Kota Kinabalu","SBH"
"88100","Lorong Ikan Panggol","Kota Kinabalu","SBH"
"88100","Lorong Ikan Pepuyu","Kota Kinabalu","SBH"
"88100","Lorong Ikan Tongkol","Kota Kinabalu","SBH"
"88100","Lorong Ikan Yu","Kota Kinabalu","SBH"
"88100","Lorong Jelawat","Kota Kinabalu","SBH"
"88100","Lorong Johor","Kota Kinabalu","SBH"
"88100","Lorong Kampung Sembulan","Kota Kinabalu","SBH"
"88100","Lorong Karamunsing (A - C)","Kota Kinabalu","SBH"
"88100","Lorong Karamunsing","Kota Kinabalu","SBH"
"88100","Lorong Kedah","Kota Kinabalu","SBH"
"88100","Lorong Kepar","Kota Kinabalu","SBH"
"88100","Lorong Kerai","Kota Kinabalu","SBH"
"88100","Lorong Kima","Kota Kinabalu","SBH"
"88100","Lorong Kompleks Kebudayaan","Kota Kinabalu","SBH"
"88100","Lorong Kopi","Kota Kinabalu","SBH"
"88100","Lorong Kurau","Kota Kinabalu","SBH"
"88100","Lorong Lee Thau sang","Kota Kinabalu","SBH"
"88100","Lorong Nilam","Kota Kinabalu","SBH"
"88100","Lorong Pantai Aru Laut","Kota Kinabalu","SBH"
"88100","Lorong Pantai Aru","Kota Kinabalu","SBH"
"88100","Lorong Pasar","Kota Kinabalu","SBH"
"88100","Lorong Perlis","Kota Kinabalu","SBH"
"88100","Lorong Pinang","Kota Kinabalu","SBH"
"88100","Lorong Puru","Kota Kinabalu","SBH"
"88100","Lorong Putian","Kota Kinabalu","SBH"
"88100","Lorong Rumah Pangsa","Kota Kinabalu","SBH"
"88100","Lorong Selidai","Kota Kinabalu","SBH"
"88100","Lorong Selunsung (A - G)","Kota Kinabalu","SBH"
"88100","Lorong Selunsung","Kota Kinabalu","SBH"
"88100","Lorong Sembulan Lama","Kota Kinabalu","SBH"
"88100","Lorong Sempelang 1 - 3","Kota Kinabalu","SBH"
"88100","Lorong Sempelang","Kota Kinabalu","SBH"
"88100","Lorong Surui","Kota Kinabalu","SBH"
"88100","Lorong Taman Prince Philip","Kota Kinabalu","SBH"
"88100","Lorong Tamban","Kota Kinabalu","SBH"
"88100","Lorong Teraut","Kota Kinabalu","SBH"
"88100","Low Cost Housing (LPPB)","Kota Kinabalu","SBH"
"88100","Mahkamah Anak Negeri","Kota Kinabalu","SBH"
"88100","Masjid Negeri","Kota Kinabalu","SBH"
"88100","Menara Khidmat","Kota Kinabalu","SBH"
"88100","Menara Petronas","Kota Kinabalu","SBH"
"88100","Palace Hotel","Kota Kinabalu","SBH"
"88100","Pengkalan Polis Unit Udara","Kota Kinabalu","SBH"
"88100","Putatan","Kota Kinabalu","SBH"
"88100","Rumah Persekutuan","Kota Kinabalu","SBH"
"88100","SK Stella Maris","Kota Kinabalu","SBH"
"88100","SK Tanjung Aru 1","Kota Kinabalu","SBH"
"88100","SK Tanjung Aru 2","Kota Kinabalu","SBH"
"88100","SM Maktab Sabah","Kota Kinabalu","SBH"
"88100","SRJK (C) Chung Hwa","Kota Kinabalu","SBH"
"88100","SRK Secred Heart","Kota Kinabalu","SBH"
"88100","Sadong Jaya","Kota Kinabalu","SBH"
"88100","Secred Heart Church","Kota Kinabalu","SBH"
"88100","Sutera Harbour Resort","Kota Kinabalu","SBH"
"88100","Taman Elok","Kota Kinabalu","SBH"
"88100","Taman Grace","Kota Kinabalu","SBH"
"88100","Taman Sempelang (MPKK)","Kota Kinabalu","SBH"
"88100","Taman Sungai Wang 2","Kota Kinabalu","SBH"
"88100","Tanjung Aru Beach Hotel","Kota Kinabalu","SBH"
"88100","Tanjung Aru Plaza","Kota Kinabalu","SBH"
"88100","Tanjung Aru","Kota Kinabalu","SBH"
"88100","Telekom Malaysia Berhad","Kota Kinabalu","SBH"
"88100","Terminal Air Asia","Kota Kinabalu","SBH"
"88100","Urusetia","Kota Kinabalu","SBH"
"88100","Wakiki Condominium","Kota Kinabalu","SBH"
"88100","Wisma 2020","Kota Kinabalu","SBH"
"88100","Wisma Anglican","Kota Kinabalu","SBH"
"88100","Wisma Kewangan","Kota Kinabalu","SBH"
"88100","Wisma Khidmat","Kota Kinabalu","SBH"
"88100","Wisma Muis","Kota Kinabalu","SBH"
"88100","Wisma Tun Fuad Stephen","Kota Kinabalu","SBH"
"88200","Airport View Hotel","Kota Kinabalu","SBH"
"88200","Apartment Pasir Putih Phase 3B","Kota Kinabalu","SBH"
"88200","Apartment Union","Kota Kinabalu","SBH"
"88200","Balai Cerap Al Birumi","Kota Kinabalu","SBH"
"88200","Borneo Paradise","Kota Kinabalu","SBH"
"88200","Bukit Vor Apartment","Kota Kinabalu","SBH"
"88200","Cyber City Apartment","Kota Kinabalu","SBH"
"88200","Deluxe Court","Kota Kinabalu","SBH"
"88200","Dewan Petagas","Kota Kinabalu","SBH"
"88200","Flat Pasir Putih Phase 2","Kota Kinabalu","SBH"
"88200","Friendship Villa","Kota Kinabalu","SBH"
"88200","Ganang Apartment","Kota Kinabalu","SBH"
"88200","Golden Center","Kota Kinabalu","SBH"
"88200","Golden Vale","Kota Kinabalu","SBH"
"88200","Ibu Pejabat Polis","Kota Kinabalu","SBH"
"88200","Institut Kemahiran Belia Negara","Kota Kinabalu","SBH"
"88200","Jabatan Haiwan Kepayan","Kota Kinabalu","SBH"
"88200","Jabatan Keretapi","Kota Kinabalu","SBH"
"88200","Jalan Banjaran","Kota Kinabalu","SBH"
"88200","Jalan Bersatu Lama","Kota Kinabalu","SBH"
"88200","Jalan Bukit Vor","Kota Kinabalu","SBH"
"88200","Jalan Bunga Raya","Kota Kinabalu","SBH"
"88200","Jalan Chempaka","Kota Kinabalu","SBH"
"88200","Jalan Deluxe","Kota Kinabalu","SBH"
"88200","Jalan Ganang Villa","Kota Kinabalu","SBH"
"88200","Jalan Ganang","Kota Kinabalu","SBH"
"88200","Jalan Hussien 2","Kota Kinabalu","SBH"
"88200","Jalan Hussien 3A","Kota Kinabalu","SBH"
"88200","Jalan Hussien 6","Kota Kinabalu","SBH"
"88200","Jalan Indah","Kota Kinabalu","SBH"
"88200","Jalan Jagus","Kota Kinabalu","SBH"
"88200","Jalan Kampung Ganang","Kota Kinabalu","SBH"
"88200","Jalan Kampung Peringatan","Kota Kinabalu","SBH"
"88200","Jalan Kampung Petagas","Kota Kinabalu","SBH"
"88200","Jalan Ketiau","Kota Kinabalu","SBH"
"88200","Jalan Kivouvang","Kota Kinabalu","SBH"
"88200","Jalan Kosan","Kota Kinabalu","SBH"
"88200","Jalan Lakati Mojunggal","Kota Kinabalu","SBH"
"88200","Jalan Lama","Kota Kinabalu","SBH"
"88200","Jalan Lapangan Terbang Baru","Kota Kinabalu","SBH"
"88200","Jalan Linsuk Bersatu","Kota Kinabalu","SBH"
"88200","Jalan Lintas By Pass Petagas","Kota Kinabalu","SBH"
"88200","Jalan Masabun","Kota Kinabalu","SBH"
"88200","Jalan Mongkopun","Kota Kinabalu","SBH"
"88200","Jalan Nabizan","Kota Kinabalu","SBH"
"88200","Jalan OT Sandakat","Kota Kinabalu","SBH"
"88200","Jalan Pahlawan","Kota Kinabalu","SBH"
"88200","Jalan Pandan","Kota Kinabalu","SBH"
"88200","Jalan Pantai Barahi","Kota Kinabalu","SBH"
"88200","Jalan Pedada 1","Kota Kinabalu","SBH"
"88200","Jalan Penampang","Kota Kinabalu","SBH"
"88200","Jalan Penjara","Kota Kinabalu","SBH"
"88200","Jalan Perwira","Kota Kinabalu","SBH"
"88200","Jalan Petagas","Kota Kinabalu","SBH"
"88200","Jalan Putatan","Kota Kinabalu","SBH"
"88200","Jalan Rumah Sakit","Kota Kinabalu","SBH"
"88200","Jalan Sepanggil 2","Kota Kinabalu","SBH"
"88200","Jalan Simpur","Kota Kinabalu","SBH"
"88200","Jalan Tema 1","Kota Kinabalu","SBH"
"88200","Jalan Tombovo","Kota Kinabalu","SBH"
"88200","Jandan Pandan","Kota Kinabalu","SBH"
"88200","Kampung Deluxe","Kota Kinabalu","SBH"
"88200","Kampung Ganang","Kota Kinabalu","SBH"
"88200","Kampung Kepayan","Kota Kinabalu","SBH"
"88200","Kampung Ketiau","Kota Kinabalu","SBH"
"88200","Kampung Kuala Putatan","Kota Kinabalu","SBH"
"88200","Kampung Muhibbah Baru","Kota Kinabalu","SBH"
"88200","Kampung Muhibbah Lama","Kota Kinabalu","SBH"
"88200","Kampung Pasir Puteh","Kota Kinabalu","SBH"
"88200","Kampung Peringkatan","Kota Kinabalu","SBH"
"88200","Kampung Petagas","Kota Kinabalu","SBH"
"88200","Kampung Sailan","Kota Kinabalu","SBH"
"88200","Kampung Sepanggil","Kota Kinabalu","SBH"
"88200","Kampung Sodomon","Kota Kinabalu","SBH"
"88200","Kampung Sri Pandan","Kota Kinabalu","SBH"
"88200","Kepayan Perdana Commercial Center","Kota Kinabalu","SBH"
"88200","Kepayang Rumah Murah Phase 1","Kota Kinabalu","SBH"
"88200","Kepayang Rumah Murah Phase 2","Kota Kinabalu","SBH"
"88200","Klinik Kesihatan Putatan","Kota Kinabalu","SBH"
"88200","Kompleks JKR","Kota Kinabalu","SBH"
"88200","Kompleks Kilang BPIMB","Kota Kinabalu","SBH"
"88200","Kompleks Veterinar","Kota Kinabalu","SBH"
"88200","Kristal Condominium","Kota Kinabalu","SBH"
"88200","Lok Kawi","Kota Kinabalu","SBH"
"88200","Lokkawi Height Apartment","Kota Kinabalu","SBH"
"88200","Lokkawi Industrial Estate Phase 1","Kota Kinabalu","SBH"
"88200","Lorong Berhwemin","Kota Kinabalu","SBH"
"88200","Lorong Bersatu (3A - 3C)","Kota Kinabalu","SBH"
"88200","Lorong Bersatu 1","Kota Kinabalu","SBH"
"88200","Lorong Bersatu 4","Kota Kinabalu","SBH"
"88200","Lorong Bunga Patuma (A - G)","Kota Kinabalu","SBH"
"88200","Lorong Bunga Patuma","Kota Kinabalu","SBH"
"88200","Lorong Bunga Petuma (1 - 10)","Kota Kinabalu","SBH"
"88200","Lorong Bunga Raya (1 - 2)","Kota Kinabalu","SBH"
"88200","Lorong Bunga Tanjung 2","Kota Kinabalu","SBH"
"88200","Lorong Bunga Tasbeh (1 - 3)","Kota Kinabalu","SBH"
"88200","Lorong Bunga Tasbeh","Kota Kinabalu","SBH"
"88200","Lorong Dembela Kera","Kota Kinabalu","SBH"
"88200","Lorong Dinawan 1 - 4","Kota Kinabalu","SBH"
"88200","Lorong Friendship 3","Kota Kinabalu","SBH"
"88200","Lorong Friendship 3A","Kota Kinabalu","SBH"
"88200","Lorong Friendship 3B - 3G","Kota Kinabalu","SBH"
"88200","Lorong Ganang 1A","Kota Kinabalu","SBH"
"88200","Lorong Ganang Villa 1 - 8","Kota Kinabalu","SBH"
"88200","Lorong Ganang","Kota Kinabalu","SBH"
"88200","Lorong Jumbo 1 - 12","Kota Kinabalu","SBH"
"88200","Lorong KO-Pelajaran","Kota Kinabalu","SBH"
"88200","Lorong Ketiau 1","Kota Kinabalu","SBH"
"88200","Lorong Ketiau 2/1","Kota Kinabalu","SBH"
"88200","Lorong Ketiau 3/1 - 3/2","Kota Kinabalu","SBH"
"88200","Lorong Ketiau 3/1","Kota Kinabalu","SBH"
"88200","Lorong Ketiau 3/2","Kota Kinabalu","SBH"
"88200","Lorong Layang-Layang (1 - 2)","Kota Kinabalu","SBH"
"88200","Lorong Lok Saga","Kota Kinabalu","SBH"
"88200","Lorong Melati","Kota Kinabalu","SBH"
"88200","Lorong Meruntum (1 - 3)","Kota Kinabalu","SBH"
"88200","Lorong Meruntum (G - J)","Kota Kinabalu","SBH"
"88200","Lorong Milinneum (1 - 2)","Kota Kinabalu","SBH"
"88200","Lorong Olivia 1B","Kota Kinabalu","SBH"
"88200","Lorong Olivia 1C","Kota Kinabalu","SBH"
"88200","Lorong Pandan (1 - 4)","Kota Kinabalu","SBH"
"88200","Lorong Park (1 - 2)","Kota Kinabalu","SBH"
"88200","Lorong Pasir Putih (1 - 5)","Kota Kinabalu","SBH"
"88200","Lorong Pasir Putih 1 - 3","Kota Kinabalu","SBH"
"88200","Lorong Pasir Putih 5","Kota Kinabalu","SBH"
"88200","Lorong Perdana","Kota Kinabalu","SBH"
"88200","Lorong Petagas (1 - 2)","Kota Kinabalu","SBH"
"88200","Lorong Petagas","Kota Kinabalu","SBH"
"88200","Lorong Purun","Kota Kinabalu","SBH"
"88200","Lorong Ridge (2/A - 2/E)","Kota Kinabalu","SBH"
"88200","Lorong Ridge (3/A - 3/L)","Kota Kinabalu","SBH"
"88200","Lorong Ridge 1","Kota Kinabalu","SBH"
"88200","Lorong Ridge 1/A","Kota Kinabalu","SBH"
"88200","Lorong Ridge 1/B","Kota Kinabalu","SBH"
"88200","Lorong Ridge 2","Kota Kinabalu","SBH"
"88200","Lorong Sri Pandan","Kota Kinabalu","SBH"
"88200","Lorong Surau","Kota Kinabalu","SBH"
"88200","Lorong Tanamas 1","Kota Kinabalu","SBH"
"88200","Lorong Tanamas","Kota Kinabalu","SBH"
"88200","Lorong Tema 1","Kota Kinabalu","SBH"
"88200","Lorong Teratai","Kota Kinabalu","SBH"
"88200","Lorong Tok Saga","Kota Kinabalu","SBH"
"88200","Lorong Union (1 - 3)","Kota Kinabalu","SBH"
"88200","Maktab Rendah Sains Mara","Kota Kinabalu","SBH"
"88200","Malaysia Airline System","Kota Kinabalu","SBH"
"88200","Melinneum Center","Kota Kinabalu","SBH"
"88200","Melinneum Court","Kota Kinabalu","SBH"
"88200","Palm Beach Villa","Kota Kinabalu","SBH"
"88200","Pasukan Gerak Am Batalion 16","Kota Kinabalu","SBH"
"88200","Pejabat Belia Dan Sukan (P) Sabah","Kota Kinabalu","SBH"
"88200","Pejabat Daerah Kecil Putatan","Kota Kinabalu","SBH"
"88200","Persiaran Lady Mountbatten","Kota Kinabalu","SBH"
"88200","Petagas Light Industry","Kota Kinabalu","SBH"
"88200","Petagas","Kota Kinabalu","SBH"
"88200","Pusat Latihan Jabatan Kerja Raya","Kota Kinabalu","SBH"
"88200","Pusat Latihan Koperasi","Kota Kinabalu","SBH"
"88200","Pusat Perniagaan Putatan","Kota Kinabalu","SBH"
"88200","Putatan Court/Putatan Square","Kota Kinabalu","SBH"
"88200","Putatan Grand Plaza","Kota Kinabalu","SBH"
"88200","Putatan New Township","Kota Kinabalu","SBH"
"88200","Putatan Platinum Plaza","Kota Kinabalu","SBH"
"88200","Putatan Plaza","Kota Kinabalu","SBH"
"88200","Putatan Point","Kota Kinabalu","SBH"
"88200","Putra Square Phase 1 - Phase 2","Kota Kinabalu","SBH"
"88200","Rumah Pangsa Limauan","Kota Kinabalu","SBH"
"88200","SESB Zon Tengah","Kota Kinabalu","SBH"
"88200","SK Kampung Contoh","Kota Kinabalu","SBH"
"88200","SK Petagas","Kota Kinabalu","SBH"
"88200","SK Putatan","Kota Kinabalu","SBH"
"88200","SMK Putatan","Kota Kinabalu","SBH"
"88200","Sekolah Agama Tun Mustapha","Kota Kinabalu","SBH"
"88200","Shangrila Estate","Kota Kinabalu","SBH"
"88200","Taman Berhwemim","Kota Kinabalu","SBH"
"88200","Taman Bersatu (Phase 1 - 4)","Kota Kinabalu","SBH"
"88200","Taman Bersatu","Kota Kinabalu","SBH"
"88200","Taman Bukit Vor Villa","Kota Kinabalu","SBH"
"88200","Taman Bunga Raya","Kota Kinabalu","SBH"
"88200","Taman Darius","Kota Kinabalu","SBH"
"88200","Taman Deluxe","Kota Kinabalu","SBH"
"88200","Taman Friendship (Phase 1 - 3)","Kota Kinabalu","SBH"
"88200","Taman Friendship","Kota Kinabalu","SBH"
"88200","Taman Ganang Villa","Kota Kinabalu","SBH"
"88200","Taman Ganang","Kota Kinabalu","SBH"
"88200","Taman Jumbo","Kota Kinabalu","SBH"
"88200","Taman KO-Pelajaran","Kota Kinabalu","SBH"
"88200","Taman Kepayan Ridge (Phase 3 - 4)","Kota Kinabalu","SBH"
"88200","Taman Kepayan Ridge","Kota Kinabalu","SBH"
"88200","Taman Kinalee","Kota Kinabalu","SBH"
"88200","Taman Kinarut Jaya (1 - 3)","Kota Kinabalu","SBH"
"88200","Taman Kinarut Jaya","Kota Kinabalu","SBH"
"88200","Taman Kinarut Spur","Kota Kinabalu","SBH"
"88200","Taman Kinarut","Kota Kinabalu","SBH"
"88200","Taman Kingland","Kota Kinabalu","SBH"
"88200","Taman Langkuas","Kota Kinabalu","SBH"
"88200","Taman Lily","Kota Kinabalu","SBH"
"88200","Taman Limauan","Kota Kinabalu","SBH"
"88200","Taman Lokkawi Perdana","Kota Kinabalu","SBH"
"88200","Taman Lokkawi","Kota Kinabalu","SBH"
"88200","Taman Milinneum","Kota Kinabalu","SBH"
"88200","Taman Mulia","Kota Kinabalu","SBH"
"88200","Taman Olivia","Kota Kinabalu","SBH"
"88200","Taman Pantai Lokkawi","Kota Kinabalu","SBH"
"88200","Taman Pantai","Kota Kinabalu","SBH"
"88200","Taman Park","Kota Kinabalu","SBH"
"88200","Taman Pasir Putih Phase 1 - Phase 3","Kota Kinabalu","SBH"
"88200","Taman Perdana Emas","Kota Kinabalu","SBH"
"88200","Taman Petagas","Kota Kinabalu","SBH"
"88200","Taman Putatan Baru","Kota Kinabalu","SBH"
"88200","Taman Regal","Kota Kinabalu","SBH"
"88200","Taman Sabindo","Kota Kinabalu","SBH"
"88200","Taman Sentosa","Kota Kinabalu","SBH"
"88200","Taman Seri Kepayan","Kota Kinabalu","SBH"
"88200","Taman Sin Haw","Kota Kinabalu","SBH"
"88200","Taman Sri Angkasa","Kota Kinabalu","SBH"
"88200","Taman Sri Kinarut Selatan","Kota Kinabalu","SBH"
"88200","Taman Sri Pagi","Kota Kinabalu","SBH"
"88200","Taman Sri Utama","Kota Kinabalu","SBH"
"88200","Taman TJ & R","Kota Kinabalu","SBH"
"88200","Taman Teluk Meruntum","Kota Kinabalu","SBH"
"88200","Taman Teluk Villa","Kota Kinabalu","SBH"
"88200","Taman Tema","Kota Kinabalu","SBH"
"88200","Taman Union","Kota Kinabalu","SBH"
"88200","Taman Wajar","Kota Kinabalu","SBH"
"88200","Taman Wenley Dua","Kota Kinabalu","SBH"
"88200","Villa Saujana","Kota Kinabalu","SBH"
"88200","Wisma Shin Yin","Kota Kinabalu","SBH"
"88300","Ahzam Villa","Kota Kinabalu","SBH"
"88300","Apartment Puteri Bahang","Kota Kinabalu","SBH"
"88300","Apartment Viewland Ph3","Kota Kinabalu","SBH"
"88300","Arkib Negeri","Kota Kinabalu","SBH"
"88300","Bangunan Daya","Kota Kinabalu","SBH"
"88300","Bangunan Mega Long","Kota Kinabalu","SBH"
"88300","Bangunan Perpustakaan","Kota Kinabalu","SBH"
"88300","Beauty Garden","Kota Kinabalu","SBH"
"88300","Beverly Hill Plaza","Kota Kinabalu","SBH"
"88300","Bukit Warisan","Kota Kinabalu","SBH"
"88300","Bundusan Commercial","Kota Kinabalu","SBH"
"88300","Bundusan Villa","Kota Kinabalu","SBH"
"88300","Central Plaza ","Kota Kinabalu","SBH"
"88300","Cerson Heights","Kota Kinabalu","SBH"
"88300","Colenaddes Condominium","Kota Kinabalu","SBH"
"88300","Elopura Apartment","Kota Kinabalu","SBH"
"88300","Fairway Mansion Condominium","Kota Kinabalu","SBH"
"88300","Flat Kepayan Ridge (Ph 18 & 19)","Kota Kinabalu","SBH"
"88300","Flat Sri Vista Kiranau","Kota Kinabalu","SBH"
"88300","Flat Vista Minintod","Kota Kinabalu","SBH"
"88300","Gaya Court Apartment","Kota Kinabalu","SBH"
"88300","Golf View","Kota Kinabalu","SBH"
"88300","Golf Villa","Kota Kinabalu","SBH"
"88300","Hilltop Perdana","Kota Kinabalu","SBH"
"88300","Hing Apartment","Kota Kinabalu","SBH"
"88300","Hing Tower","Kota Kinabalu","SBH"
"88300","Hospital Queen Elizabeth","Kota Kinabalu","SBH"
"88300","Hotel Bundusan","Kota Kinabalu","SBH"
"88300","Jabatan Kajibumi","Kota Kinabalu","SBH"
"88300","Jalan Angsa","Kota Kinabalu","SBH"
"88300","Jalan Banjaran","Kota Kinabalu","SBH"
"88300","Jalan Budaya","Kota Kinabalu","SBH"
"88300","Jalan Bukit Padang","Kota Kinabalu","SBH"
"88300","Jalan Bukit Temesu","Kota Kinabalu","SBH"
"88300","Jalan Bundusan","Kota Kinabalu","SBH"
"88300","Jalan Bunga Bawang","Kota Kinabalu","SBH"
"88300","Jalan Bunga Raja Kayu","Kota Kinabalu","SBH"
"88300","Jalan Bunga Rose","Kota Kinabalu","SBH"
"88300","Jalan Bunga Ulam Raja","Kota Kinabalu","SBH"
"88300","Jalan Damai","Kota Kinabalu","SBH"
"88300","Jalan Dontozidon","Kota Kinabalu","SBH"
"88300","Jalan Harington","Kota Kinabalu","SBH"
"88300","Jalan Hing","Kota Kinabalu","SBH"
"88300","Jalan KK Mojilis","Kota Kinabalu","SBH"
"88300","Jalan Kaidupan","Kota Kinabalu","SBH"
"88300","Jalan Kebajikan","Kota Kinabalu","SBH"
"88300","Jalan Kepayan- Kobusak","Kota Kinabalu","SBH"
"88300","Jalan Kesihatan","Kota Kinabalu","SBH"
"88300","Jalan Kijang","Kota Kinabalu","SBH"
"88300","Jalan Kimia","Kota Kinabalu","SBH"
"88300","Jalan Kobusak","Kota Kinabalu","SBH"
"88300","Jalan Kohizan","Kota Kinabalu","SBH"
"88300","Jalan Kolam","Kota Kinabalu","SBH"
"88300","Jalan Koposizon","Kota Kinabalu","SBH"
"88300","Jalan Maktab Gaya","Kota Kinabalu","SBH"
"88300","Jalan Mawar","Kota Kinabalu","SBH"
"88300","Jalan Mawas","Kota Kinabalu","SBH"
"88300","Jalan Menteri","Kota Kinabalu","SBH"
"88300","Jalan Muzium","Kota Kinabalu","SBH"
"88300","Jalan Nosoob - Hungab","Kota Kinabalu","SBH"
"88300","Jalan Nosoob B - C","Kota Kinabalu","SBH"
"88300","Jalan Pelanduk","Kota Kinabalu","SBH"
"88300","Jalan Pemeliharaan","Kota Kinabalu","SBH"
"88300","Jalan Penampang Lama","Kota Kinabalu","SBH"
"88300","Jalan Penenmpatan","Kota Kinabalu","SBH"
"88300","Jalan Sena","Kota Kinabalu","SBH"
"88300","Jalan Shantung","Kota Kinabalu","SBH"
"88300","Jalan Summerset 1","Kota Kinabalu","SBH"
"88300","Jalan Tasik","Kota Kinabalu","SBH"
"88300","Jalan Universiti Kebangsaan","Kota Kinabalu","SBH"
"88300","Kampung Baru Luyang","Kota Kinabalu","SBH"
"88300","Kem 507 – Jln Harrington","Kota Kinabalu","SBH"
"88300","Kk High School","Kota Kinabalu","SBH"
"88300","Kompleks Rose","Kota Kinabalu","SBH"
"88300","Lorong Amab","Kota Kinabalu","SBH"
"88300","Lorong Anggsa (1 - 14)","Kota Kinabalu","SBH"
"88300","Lorong Anggsa Kecil","Kota Kinabalu","SBH"
"88300","Lorong Angsana","Kota Kinabalu","SBH"
"88300","Lorong Austral 1 - 11","Kota Kinabalu","SBH"
"88300","Lorong Badak","Kota Kinabalu","SBH"
"88300","Lorong Bakawali (1 - 2)","Kota Kinabalu","SBH"
"88300","Lorong Bemban","Kota Kinabalu","SBH"
"88300","Lorong Berembun (1 - 5)","Kota Kinabalu","SBH"
"88300","Lorong Berembun","Kota Kinabalu","SBH"
"88300","Lorong Berjasa","Kota Kinabalu","SBH"
"88300","Lorong Bernam (1 - 2)","Kota Kinabalu","SBH"
"88300","Lorong Bernam","Kota Kinabalu","SBH"
"88300","Lorong Beruang (1 - 2)","Kota Kinabalu","SBH"
"88300","Lorong Beruang","Kota Kinabalu","SBH"
"88300","Lorong Biri-Biri","Kota Kinabalu","SBH"
"88300","Lorong Budaya","Kota Kinabalu","SBH"
"88300","Lorong Bukit Punai","Kota Kinabalu","SBH"
"88300","Lorong Bunga Bulan 1 & 2","Kota Kinabalu","SBH"
"88300","Lorong Bunga Daun Kecil","Kota Kinabalu","SBH"
"88300","Lorong Bunga Dedap (1 - 2)","Kota Kinabalu","SBH"
"88300","Lorong Bunga Dedap 1 - 2","Kota Kinabalu","SBH"
"88300","Lorong Bunga Dedap","Kota Kinabalu","SBH"
"88300","Lorong Bunga Derdap","Kota Kinabalu","SBH"
"88300","Lorong Bunga Duan","Kota Kinabalu","SBH"
"88300","Lorong Bunga Inai","Kota Kinabalu","SBH"
"88300","Lorong Bunga Kekewa (A - C)","Kota Kinabalu","SBH"
"88300","Lorong Bunga Kekewa","Kota Kinabalu","SBH"
"88300","Lorong Bunga Kekwa 1-3","Kota Kinabalu","SBH"
"88300","Lorong Bunga Kekwa","Kota Kinabalu","SBH"
"88300","Lorong Bunga Kenanga (1- 2)","Kota Kinabalu","SBH"
"88300","Lorong Bunga Kenanga Kecil","Kota Kinabalu","SBH"
"88300","Lorong Bunga Kenanga","Kota Kinabalu","SBH"
"88300","Lorong Bunga Kertas","Kota Kinabalu","SBH"
"88300","Lorong Bunga Kiambang","Kota Kinabalu","SBH"
"88300","Lorong Bunga Kuasia (A - C)","Kota Kinabalu","SBH"
"88300","Lorong Bunga Kuasia","Kota Kinabalu","SBH"
"88300","Lorong Bunga Kursia 1-3","Kota Kinabalu","SBH"
"88300","Lorong Bunga Kursia","Kota Kinabalu","SBH"
"88300","Lorong Bunga Mawar","Kota Kinabalu","SBH"
"88300","Lorong Bunga Melor","Kota Kinabalu","SBH"
"88300","Lorong Bunga Payong","Kota Kinabalu","SBH"
"88300","Lorong Bunga Puding","Kota Kinabalu","SBH"
"88300","Lorong Bunga Tiga Bulan","Kota Kinabalu","SBH"
"88300","Lorong Bunga Tulip 1-3","Kota Kinabalu","SBH"
"88300","Lorong Bunga Tulip","Kota Kinabalu","SBH"
"88300","Lorong Cemaru","Kota Kinabalu","SBH"
"88300","Lorong Cemerlang 1","Kota Kinabalu","SBH"
"88300","Lorong Cemerlang","Kota Kinabalu","SBH"
"88300","Lorong Cina","Kota Kinabalu","SBH"
"88300","Lorong Cindul (A - C)","Kota Kinabalu","SBH"
"88300","Lorong Cindul 1-3","Kota Kinabalu","SBH"
"88300","Lorong Cindul","Kota Kinabalu","SBH"
"88300","Lorong Dahlia (A - G1)","Kota Kinabalu","SBH"
"88300","Lorong Dahlia 1 - 8","Kota Kinabalu","SBH"
"88300","Lorong Dahlia","Kota Kinabalu","SBH"
"88300","Lorong Formosa C1, C2, C3","Kota Kinabalu","SBH"
"88300","Lorong Gajah","Kota Kinabalu","SBH"
"88300","Lorong Golf Garden 1 - 3","Kota Kinabalu","SBH"
"88300","Lorong Golf View 1, 3, 4, 5","Kota Kinabalu","SBH"
"88300","Lorong Golfview","Kota Kinabalu","SBH"
"88300","Lorong Gunung Besar","Kota Kinabalu","SBH"
"88300","Lorong Gunung Bintang (A - C)","Kota Kinabalu","SBH"
"88300","Lorong Gunung Bintang","Kota Kinabalu","SBH"
"88300","Lorong Gunung Murut","Kota Kinabalu","SBH"
"88300","Lorong Indah 1","Kota Kinabalu","SBH"
"88300","Lorong Indah","Kota Kinabalu","SBH"
"88300","Lorong Intan 1","Kota Kinabalu","SBH"
"88300","Lorong Itik","Kota Kinabalu","SBH"
"88300","Lorong Jaring (1 - 5)","Kota Kinabalu","SBH"
"88300","Lorong Jelitana Utama 1","Kota Kinabalu","SBH"
"88300","Lorong Jelitana Utama","Kota Kinabalu","SBH"
"88300","Lorong KCK 1, 3, 4","Kota Kinabalu","SBH"
"88300","Lorong Kajibumi","Kota Kinabalu","SBH"
"88300","Lorong Kanggaru (1 - 5)","Kota Kinabalu","SBH"
"88300","Lorong Kangkong 1","Kota Kinabalu","SBH"
"88300","Lorong Kangkong","Kota Kinabalu","SBH"
"88300","Lorong Kapas","Kota Kinabalu","SBH"
"88300","Lorong Keladi (1 & 2)","Kota Kinabalu","SBH"
"88300","Lorong Keladi","Kota Kinabalu","SBH"
"88300","Lorong Kesihatan","Kota Kinabalu","SBH"
"88300","Lorong Kijang (1 - 9)","Kota Kinabalu","SBH"
"88300","Lorong Kimia","Kota Kinabalu","SBH"
"88300","Lorong Kinabalu (1 - 3)","Kota Kinabalu","SBH"
"88300","Lorong Kinabalu","Kota Kinabalu","SBH"
"88300","Lorong Kirana 1-2","Kota Kinabalu","SBH"
"88300","Lorong Kuburan","Kota Kinabalu","SBH"
"88300","Lorong Kuda","Kota Kinabalu","SBH"
"88300","Lorong Kukang","Kota Kinabalu","SBH"
"88300","Lorong L.T. Jaya ","Kota Kinabalu","SBH"
"88300","Lorong L.T. Jaya 1","Kota Kinabalu","SBH"
"88300","Lorong Landak","Kota Kinabalu","SBH"
"88300","Lorong Lembeding","Kota Kinabalu","SBH"
"88300","Lorong Lokus (1 - 3)","Kota Kinabalu","SBH"
"88300","Lorong Lokus","Kota Kinabalu","SBH"
"88300","Lorong Maktab Gaya 1- 6","Kota Kinabalu","SBH"
"88300","Lorong Maktab Gaya","Kota Kinabalu","SBH"
"88300","Lorong Margosa (1 - 5)","Kota Kinabalu","SBH"
"88300","Lorong Margosa","Kota Kinabalu","SBH"
"88300","Lorong Mawas (1 - 10)","Kota Kinabalu","SBH"
"88300","Lorong Mawas","Kota Kinabalu","SBH"
"88300","Lorong Mei Lok 1 - 4","Kota Kinabalu","SBH"
"88300","Lorong Memberang","Kota Kinabalu","SBH"
"88300","Lorong Merpati","Kota Kinabalu","SBH"
"88300","Lorong Muntahah (1 - 3C)","Kota Kinabalu","SBH"
"88300","Lorong Muntahah Kecil","Kota Kinabalu","SBH"
"88300","Lorong Muntahah","Kota Kinabalu","SBH"
"88300","Lorong Nibung (1 - 5)","Kota Kinabalu","SBH"
"88300","Lorong Nibung","Kota Kinabalu","SBH"
"88300","Lorong Nosoob Baru","Kota Kinabalu","SBH"
"88300","Lorong Orkid (1 & 2)","Kota Kinabalu","SBH"
"88300","Lorong Orkid","Kota Kinabalu","SBH"
"88300","Lorong Palas (1 - 4)","Kota Kinabalu","SBH"
"88300","Lorong Palas","Kota Kinabalu","SBH"
"88300","Lorong Pelanduk (1 - 4)","Kota Kinabalu","SBH"
"88300","Lorong Plam Villa","Kota Kinabalu","SBH"
"88300","Lorong Pokok Johar (1 - 2)","Kota Kinabalu","SBH"
"88300","Lorong Pokok Johar","Kota Kinabalu","SBH"
"88300","Lorong Pokok Palma","Kota Kinabalu","SBH"
"88300","Lorong Pulai","Kota Kinabalu","SBH"
"88300","Lorong Rafflesia","Kota Kinabalu","SBH"
"88300","Lorong Rainfield Court 1 - 3","Kota Kinabalu","SBH"
"88300","Lorong Rampai (A - E)","Kota Kinabalu","SBH"
"88300","Lorong Rampai 1 - 5","Kota Kinabalu","SBH"
"88300","Lorong Rampai","Kota Kinabalu","SBH"
"88300","Lorong Rembia (1 - 3)","Kota Kinabalu","SBH"
"88300","Lorong Rembia","Kota Kinabalu","SBH"
"88300","Lorong Reservior 1, 1A, 1B, 2, 2A, 2B","Kota Kinabalu","SBH"
"88300","Lorong Ridgeview 1 – 4","Kota Kinabalu","SBH"
"88300","Lorong Ridgeview 5 – 7","Kota Kinabalu","SBH"
"88300","Lorong Rotan","Kota Kinabalu","SBH"
"88300","Lorong Ru","Kota Kinabalu","SBH"
"88300","Lorong Ruang Ridge View","Kota Kinabalu","SBH"
"88300","Lorong Sang Kanchil (1 - 3)","Kota Kinabalu","SBH"
"88300","Lorong Sang Kanchil","Kota Kinabalu","SBH"
"88300","Lorong Sedudok","Kota Kinabalu","SBH"
"88300","Lorong Seladang 1","Kota Kinabalu","SBH"
"88300","Lorong Seladang","Kota Kinabalu","SBH"
"88300","Lorong Selesa","Kota Kinabalu","SBH"
"88300","Lorong Semangkok (A - G)","Kota Kinabalu","SBH"
"88300","Lorong Semarak Api","Kota Kinabalu","SBH"
"88300","Lorong Sena (1 - 6)","Kota Kinabalu","SBH"
"88300","Lorong Sepat","Kota Kinabalu","SBH"
"88300","Lorong Seroja (1 - 2E)","Kota Kinabalu","SBH"
"88300","Lorong Seroja 1-7","Kota Kinabalu","SBH"
"88300","Lorong Seroja","Kota Kinabalu","SBH"
"88300","Lorong Setia","Kota Kinabalu","SBH"
"88300","Lorong Siamang","Kota Kinabalu","SBH"
"88300","Lorong Sri Juta 1","Kota Kinabalu","SBH"
"88300","Lorong Summerset 1- 4","Kota Kinabalu","SBH"
"88300","Lorong Sutera 1-5","Kota Kinabalu","SBH"
"88300","Lorong Sutera","Kota Kinabalu","SBH"
"88300","Lorong Syarif Osman","Kota Kinabalu","SBH"
"88300","Lorong Tahan (1 - 3)","Kota Kinabalu","SBH"
"88300","Lorong Tahan","Kota Kinabalu","SBH"
"88300","Lorong Teberau","Kota Kinabalu","SBH"
"88300","Lorong Tenggiling (1 & 2)","Kota Kinabalu","SBH"
"88300","Lorong Tenggiling","Kota Kinabalu","SBH"
"88300","Lorong Tepus","Kota Kinabalu","SBH"
"88300","Lorong Teratai (1 - 2)","Kota Kinabalu","SBH"
"88300","Lorong Terus","Kota Kinabalu","SBH"
"88300","Lorong Tosa Raya 1 - 3","Kota Kinabalu","SBH"
"88300","Lorong Tosa Raya","Kota Kinabalu","SBH"
"88300","Lorong Tulip (1 - 2)","Kota Kinabalu","SBH"
"88300","Lorong Tulip","Kota Kinabalu","SBH"
"88300","Lorong Tupai (1 - 3)","Kota Kinabalu","SBH"
"88300","Lorong Tupai","Kota Kinabalu","SBH"
"88300","Lorong Unta (1 - 11)","Kota Kinabalu","SBH"
"88300","Lorong Unta","Kota Kinabalu","SBH"
"88300","Lorong Wallace","Kota Kinabalu","SBH"
"88300","Lorong Zirafah (1 - 12)","Kota Kinabalu","SBH"
"88300","Lorong Zirafah","Kota Kinabalu","SBH"
"88300","Lprong Seladang A-E","Kota Kinabalu","SBH"
"88300","Luyang","Kota Kinabalu","SBH"
"88300","Maktab Perguruan Gaya","Kota Kinabalu","SBH"
"88300","Maziun Tamadun Islam","Kota Kinabalu","SBH"
"88300","Mesra Apartment","Kota Kinabalu","SBH"
"88300","Moyog","Kota Kinabalu","SBH"
"88300","Muzium Negeri","Kota Kinabalu","SBH"
"88300","Noble Court","Kota Kinabalu","SBH"
"88300","Person Heights","Kota Kinabalu","SBH"
"88300","Plam Villa Ph2","Kota Kinabalu","SBH"
"88300","Plaza Grand Milineum Blk A - F","Kota Kinabalu","SBH"
"88300","Plaza Utama Blok A - C","Kota Kinabalu","SBH"
"88300","Rainfeild Court Apartment Blok B - K","Kota Kinabalu","SBH"
"88300","Ramin Court Apartment Blok A - B","Kota Kinabalu","SBH"
"88300","Raya Court Apartment","Kota Kinabalu","SBH"
"88300","Regent Park","Kota Kinabalu","SBH"
"88300","Reservoir Garden Phase 2","Kota Kinabalu","SBH"
"88300","Sekolah Kebangsaan Luyang","Kota Kinabalu","SBH"
"88300","Sekolah Menengah Taman Tun Fuad","Kota Kinabalu","SBH"
"88300","Selesa Court Apartment Blok A - D","Kota Kinabalu","SBH"
"88300","Sk Sri Gaya","Kota Kinabalu","SBH"
"88300","Sk St Francis Convent","Kota Kinabalu","SBH"
"88300","Srjk (C) Shan Tao","Kota Kinabalu","SBH"
"88300","Taman Alpha","Kota Kinabalu","SBH"
"88300","Taman Alpine","Kota Kinabalu","SBH"
"88300","Taman Asli","Kota Kinabalu","SBH"
"88300","Taman Atlandy","Kota Kinabalu","SBH"
"88300","Taman Austral","Kota Kinabalu","SBH"
"88300","Taman Azam Villa","Kota Kinabalu","SBH"
"88300","Taman B.P.L Ph 2","Kota Kinabalu","SBH"
"88300","Taman BDC","Kota Kinabalu","SBH"
"88300","Taman BPL","Kota Kinabalu","SBH"
"88300","Taman Baginda","Kota Kinabalu","SBH"
"88300","Taman Bahagia","Kota Kinabalu","SBH"
"88300","Taman Bintang","Kota Kinabalu","SBH"
"88300","Taman Bistari","Kota Kinabalu","SBH"
"88300","Taman Bornion","Kota Kinabalu","SBH"
"88300","Taman Bpl Ph 1","Kota Kinabalu","SBH"
"88300","Taman Bpl – Jln Budaya","Kota Kinabalu","SBH"
"88300","Taman Bulan","Kota Kinabalu","SBH"
"88300","Taman Bumi","Kota Kinabalu","SBH"
"88300","Taman Bunga Raya","Kota Kinabalu","SBH"
"88300","Taman Cameron","Kota Kinabalu","SBH"
"88300","Taman Cantek","Kota Kinabalu","SBH"
"88300","Taman Casa Fabulosa","Kota Kinabalu","SBH"
"88300","Taman Cendawan","Kota Kinabalu","SBH"
"88300","Taman Century","Kota Kinabalu","SBH"
"88300","Taman Che Mei","Kota Kinabalu","SBH"
"88300","Taman Citizen","Kota Kinabalu","SBH"
"88300","Taman Country Shangri-La","Kota Kinabalu","SBH"
"88300","Taman Dai Ming","Kota Kinabalu","SBH"
"88300","Taman Damai","Kota Kinabalu","SBH"
"88300","Taman Delima","Kota Kinabalu","SBH"
"88300","Taman Digot Phase 3","Kota Kinabalu","SBH"
"88300","Taman Dixon","Kota Kinabalu","SBH"
"88300","Taman Emas","Kota Kinabalu","SBH"
"88300","Taman Everlick","Kota Kinabalu","SBH"
"88300","Taman Fabar","Kota Kinabalu","SBH"
"88300","Taman Far East","Kota Kinabalu","SBH"
"88300","Taman Foh Sang","Kota Kinabalu","SBH"
"88300","Taman Foo Long","Kota Kinabalu","SBH"
"88300","Taman Foo Loong Ph 2","Kota Kinabalu","SBH"
"88300","Taman FooK Tin","Kota Kinabalu","SBH"
"88300","Taman Forget Me Not","Kota Kinabalu","SBH"
"88300","Taman Formosa","Kota Kinabalu","SBH"
"88300","Taman Fortuna (Fasa 1 & 2)","Kota Kinabalu","SBH"
"88300","Taman Fortuna Baru","Kota Kinabalu","SBH"
"88300","Taman Frazer","Kota Kinabalu","SBH"
"88300","Taman Friendly (Fasa 1 - 4)","Kota Kinabalu","SBH"
"88300","Taman Fu Yen (Fasa 3 - 5)","Kota Kinabalu","SBH"
"88300","Taman Gemilang","Kota Kinabalu","SBH"
"88300","Taman Golden City","Kota Kinabalu","SBH"
"88300","Taman Golf Garden ","Kota Kinabalu","SBH"
"88300","Taman Golf View Ph.2","Kota Kinabalu","SBH"
"88300","Taman Golf","Kota Kinabalu","SBH"
"88300","Taman Golfview Ph 1","Kota Kinabalu","SBH"
"88300","Taman Good View","Kota Kinabalu","SBH"
"88300","Taman Grand Milineum Ph 1","Kota Kinabalu","SBH"
"88300","Taman Green View","Kota Kinabalu","SBH"
"88300","Taman Harapan","Kota Kinabalu","SBH"
"88300","Taman Harington","Kota Kinabalu","SBH"
"88300","Taman Harta Mas","Kota Kinabalu","SBH"
"88300","Taman Hiburan","Kota Kinabalu","SBH"
"88300","Taman Hilltop","Kota Kinabalu","SBH"
"88300","Taman Hing","Kota Kinabalu","SBH"
"88300","Taman Hong Kee / Taman Hospital","Kota Kinabalu","SBH"
"88300","Taman Hong Kee","Kota Kinabalu","SBH"
"88300","Taman Imperial Villa","Kota Kinabalu","SBH"
"88300","Taman Impian","Kota Kinabalu","SBH"
"88300","Taman Indah","Kota Kinabalu","SBH"
"88300","Taman Intan","Kota Kinabalu","SBH"
"88300","Taman Irama","Kota Kinabalu","SBH"
"88300","Taman Istimewa","Kota Kinabalu","SBH"
"88300","Taman Jelitana Utama","Kota Kinabalu","SBH"
"88300","Taman Jindo","Kota Kinabalu","SBH"
"88300","Taman KCK Type B","Kota Kinabalu","SBH"
"88300","Taman KCK Type A","Kota Kinabalu","SBH"
"88300","Taman Kasigui 3","Kota Kinabalu","SBH"
"88300","Taman Keluarga","Kota Kinabalu","SBH"
"88300","Taman Kendara","Kota Kinabalu","SBH"
"88300","Taman Kepayan Phase 3A","Kota Kinabalu","SBH"
"88300","Taman Khidmat","Kota Kinabalu","SBH"
"88300","Taman Kim Leng","Kota Kinabalu","SBH"
"88300","Taman Kinabalu","Kota Kinabalu","SBH"
"88300","Taman Kinamount","Kota Kinabalu","SBH"
"88300","Taman Kinanty (1 - 2)","Kota Kinabalu","SBH"
"88300","Taman King Lam","Kota Kinabalu","SBH"
"88300","Taman Kirana","Kota Kinabalu","SBH"
"88300","Taman Kobusak Villa","Kota Kinabalu","SBH"
"88300","Taman Kohizan","Kota Kinabalu","SBH"
"88300","Taman Kolam Air","Kota Kinabalu","SBH"
"88300","Taman L.T. Jaya","Kota Kinabalu","SBH"
"88300","Taman Land Brezee","Kota Kinabalu","SBH"
"88300","Taman Land Mark","Kota Kinabalu","SBH"
"88300","Taman Langkuas","Kota Kinabalu","SBH"
"88300","Taman Layang-Layang","Kota Kinabalu","SBH"
"88300","Taman Lido","Kota Kinabalu","SBH"
"88300","Taman Limbanak 2","Kota Kinabalu","SBH"
"88300","Taman Lumaku","Kota Kinabalu","SBH"
"88300","Taman Luyang (1 - 11)","Kota Kinabalu","SBH"
"88300","Taman Makmur","Kota Kinabalu","SBH"
"88300","Taman Malukun","Kota Kinabalu","SBH"
"88300","Taman Mandarin","Kota Kinabalu","SBH"
"88300","Taman Maya / Mabo","Kota Kinabalu","SBH"
"88300","Taman Maya","Kota Kinabalu","SBH"
"88300","Taman Mei Lok","Kota Kinabalu","SBH"
"88300","Taman Mesra Ph 1","Kota Kinabalu","SBH"
"88300","Taman Mesra Ph 2","Kota Kinabalu","SBH"
"88300","Taman Mesra","Kota Kinabalu","SBH"
"88300","Taman Milik","Kota Kinabalu","SBH"
"88300","Taman Mount Zion","Kota Kinabalu","SBH"
"88300","Taman Mutiara","Kota Kinabalu","SBH"
"88300","Taman New Far East","Kota Kinabalu","SBH"
"88300","Taman Nosoob Ph 3","Kota Kinabalu","SBH"
"88300","Taman Nossob","Kota Kinabalu","SBH"
"88300","Taman Orchid","Kota Kinabalu","SBH"
"88300","Taman Oriental","Kota Kinabalu","SBH"
"88300","Taman Padi View Villa Phase 3","Kota Kinabalu","SBH"
"88300","Taman Palm Villa","Kota Kinabalu","SBH"
"88300","Taman Parkway","Kota Kinabalu","SBH"
"88300","Taman Pelangi","Kota Kinabalu","SBH"
"88300","Taman Penampang (1 - 2)","Kota Kinabalu","SBH"
"88300","Taman Perdana","Kota Kinabalu","SBH"
"88300","Taman Prima Jaya Phase 2","Kota Kinabalu","SBH"
"88300","Taman Rafflesia","Kota Kinabalu","SBH"
"88300","Taman Rainfield","Kota Kinabalu","SBH"
"88300","Taman Ramai","Kota Kinabalu","SBH"
"88300","Taman Regent","Kota Kinabalu","SBH"
"88300","Taman Ria","Kota Kinabalu","SBH"
"88300","Taman Richfield","Kota Kinabalu","SBH"
"88300","Taman Ridge View Ph 12a – 12 C","Kota Kinabalu","SBH"
"88300","Taman Ridge View Ph 9 Dan Ph 10 A","Kota Kinabalu","SBH"
"88300","Taman Ridge View","Kota Kinabalu","SBH"
"88300","Taman Rindu","Kota Kinabalu","SBH"
"88300","Taman Rodmas","Kota Kinabalu","SBH"
"88300","Taman Rose","Kota Kinabalu","SBH"
"88300","Taman Selesa","Kota Kinabalu","SBH"
"88300","Taman Semporna","Kota Kinabalu","SBH"
"88300","Taman Seni Bina","Kota Kinabalu","SBH"
"88300","Taman Senibena Ph 1 Dan Ph 2","Kota Kinabalu","SBH"
"88300","Taman Sentosa","Kota Kinabalu","SBH"
"88300","Taman Seputeh","Kota Kinabalu","SBH"
"88300","Taman Seri Gaya","Kota Kinabalu","SBH"
"88300","Taman Seri Juta Phase 3A","Kota Kinabalu","SBH"
"88300","Taman Seri Menanti","Kota Kinabalu","SBH"
"88300","Taman Seri Rasa","Kota Kinabalu","SBH"
"88300","Taman Sheraton","Kota Kinabalu","SBH"
"88300","Taman Siamang","Kota Kinabalu","SBH"
"88300","Taman Sinar Emas","Kota Kinabalu","SBH"
"88300","Taman Sinar","Kota Kinabalu","SBH"
"88300","Taman Sindo","Kota Kinabalu","SBH"
"88300","Taman Soon Kiong","Kota Kinabalu","SBH"
"88300","Taman Southern","Kota Kinabalu","SBH"
"88300","Taman Sri Juta Ph 1","Kota Kinabalu","SBH"
"88300","Taman Stephens","Kota Kinabalu","SBH"
"88300","Taman Summerset (Ph 1 & 2)","Kota Kinabalu","SBH"
"88300","Taman Sun Kiong","Kota Kinabalu","SBH"
"88300","Taman Sunny","Kota Kinabalu","SBH"
"88300","Taman Suria","Kota Kinabalu","SBH"
"88300","Taman Sutera","Kota Kinabalu","SBH"
"88300","Taman Tanah Emas","Kota Kinabalu","SBH"
"88300","Taman Tasik","Kota Kinabalu","SBH"
"88300","Taman Teck Guan","Kota Kinabalu","SBH"
"88300","Taman Tosaraya","Kota Kinabalu","SBH"
"88300","Taman Towering","Kota Kinabalu","SBH"
"88300","Taman Tuan Huat","Kota Kinabalu","SBH"
"88300","Taman Utama","Kota Kinabalu","SBH"
"88300","Taman Victory","Kota Kinabalu","SBH"
"88300","Taman Viewland Ph 3b & 3c","Kota Kinabalu","SBH"
"88300","Taman Viewland Ph 4","Kota Kinabalu","SBH"
"88300","Taman Villa Imbaan","Kota Kinabalu","SBH"
"88300","Taman Wendy","Kota Kinabalu","SBH"
"88300","Taman Winner","Kota Kinabalu","SBH"
"88300","Taman Yun Kiong","Kota Kinabalu","SBH"
"88300","Taman Ziont","Kota Kinabalu","SBH"
"88300","Tanah Emas","Kota Kinabalu","SBH"
"88300","Teck Guan Villa","Kota Kinabalu","SBH"
"88300","Towering","Kota Kinabalu","SBH"
"88300","Town House","Kota Kinabalu","SBH"
"88300","Wisma Aman","Kota Kinabalu","SBH"
"88300","Wisma Fres","Kota Kinabalu","SBH"
"88300","Wisma Lau","Kota Kinabalu","SBH"
"88300","Wisma Pertanian & Indistrian Makanan","Kota Kinabalu","SBH"
"88400","Apartment Bay Shore","Kota Kinabalu","SBH"
"88400","Bay View Court","Kota Kinabalu","SBH"
"88400","Bay View Height","Kota Kinabalu","SBH"
"88400","Beverly Hill","Kota Kinabalu","SBH"
"88400","Bukit Bendera","Kota Kinabalu","SBH"
"88400","Bukit Keramat","Kota Kinabalu","SBH"
"88400","City Bird Santuary","Kota Kinabalu","SBH"
"88400","Dah Yeh Court Apartment","Kota Kinabalu","SBH"
"88400","Flat Persekutuan","Kota Kinabalu","SBH"
"88400","Happy Garden","Kota Kinabalu","SBH"
"88400","Jabatan Kastam dan Eksais Diraja (Pelabuhan)","Kota Kinabalu","SBH"
"88400","Jalan Asmara","Kota Kinabalu","SBH"
"88400","Jalan Asrama","Kota Kinabalu","SBH"
"88400","Jalan Bantayan","Kota Kinabalu","SBH"
"88400","Jalan Bukit Bendera Lower","Kota Kinabalu","SBH"
"88400","Jalan Bukit Bendera Upper","Kota Kinabalu","SBH"
"88400","Jalan Bukit Bendera","Kota Kinabalu","SBH"
"88400","Jalan Bukit Keramat","Kota Kinabalu","SBH"
"88400","Jalan Bukit Nanas","Kota Kinabalu","SBH"
"88400","Jalan Bukut","Kota Kinabalu","SBH"
"88400","Jalan Burung Puin","Kota Kinabalu","SBH"
"88400","Jalan Burung Upih","Kota Kinabalu","SBH"
"88400","Jalan Damai","Kota Kinabalu","SBH"
"88400","Jalan Donald","Kota Kinabalu","SBH"
"88400","Jalan Fung Yet Ting","Kota Kinabalu","SBH"
"88400","Jalan Haiwan","Kota Kinabalu","SBH"
"88400","Jalan Istana","Kota Kinabalu","SBH"
"88400","Jalan Istiadat","Kota Kinabalu","SBH"
"88400","Jalan Kampung Likas","Kota Kinabalu","SBH"
"88400","Jalan Karuk","Kota Kinabalu","SBH"
"88400","Jalan Kelicap","Kota Kinabalu","SBH"
"88400","Jalan Kompleks Sukan","Kota Kinabalu","SBH"
"88400","Jalan Kuala Laut","Kota Kinabalu","SBH"
"88400","Jalan Kurol Melangi","Kota Kinabalu","SBH"
"88400","Jalan Lower","Kota Kinabalu","SBH"
"88400","Jalan Mergastua","Kota Kinabalu","SBH"
"88400","Jalan Pameran","Kota Kinabalu","SBH"
"88400","Jalan Pasir","Kota Kinabalu","SBH"
"88400","Jalan Percetakan Baru","Kota Kinabalu","SBH"
"88400","Jalan Pinggir","Kota Kinabalu","SBH"
"88400","Jalan Punai Dekut","Kota Kinabalu","SBH"
"88400","Jalan Punai Tanah","Kota Kinabalu","SBH"
"88400","Jalan Seraya","Kota Kinabalu","SBH"
"88400","Jalan Syn Fah Villa","Kota Kinabalu","SBH"
"88400","Jalan Teluk Likas","Kota Kinabalu","SBH"
"88400","Jalan Tenegal","Kota Kinabalu","SBH"
"88400","Jalan Tuaran","Kota Kinabalu","SBH"
"88400","Jalan Tun Fuad Stephens","Kota Kinabalu","SBH"
"88400","Jalan Villa","Kota Kinabalu","SBH"
"88400","Jalan Vokesional","Kota Kinabalu","SBH"
"88400","Jalan Wong Yun Tiong","Kota Kinabalu","SBH"
"88400","Juta Plaza","Kota Kinabalu","SBH"
"88400","Kampung Likas","Kota Kinabalu","SBH"
"88400","Kurnia Perdana","Kota Kinabalu","SBH"
"88400","Leang Court","Kota Kinabalu","SBH"
"88400","Likas Apartment","Kota Kinabalu","SBH"
"88400","Likas Garden","Kota Kinabalu","SBH"
"88400","Likas Park","Kota Kinabalu","SBH"
"88400","Likas Plaza","Kota Kinabalu","SBH"
"88400","Likas Square","Kota Kinabalu","SBH"
"88400","Likas","Kota Kinabalu","SBH"
"88400","Liwen Court","Kota Kinabalu","SBH"
"88400","Lorong Banbasang","Kota Kinabalu","SBH"
"88400","Lorong Bulud","Kota Kinabalu","SBH"
"88400","Lorong Bunga Matahari (1 - 2)","Kota Kinabalu","SBH"
"88400","Lorong Bunga Matahari","Kota Kinabalu","SBH"
"88400","Lorong Bunga Pasu","Kota Kinabalu","SBH"
"88400","Lorong Burung Ejek","Kota Kinabalu","SBH"
"88400","Lorong Burung Gian","Kota Kinabalu","SBH"
"88400","Lorong Burung Han Paya (1 - 3)","Kota Kinabalu","SBH"
"88400","Lorong Burung Han Paya","Kota Kinabalu","SBH"
"88400","Lorong Burung Kalapuin","Kota Kinabalu","SBH"
"88400","Lorong Burung Kiking","Kota Kinabalu","SBH"
"88400","Lorong Burung Langsuir","Kota Kinabalu","SBH"
"88400","Lorong Burung Nasar (1 - 4)","Kota Kinabalu","SBH"
"88400","Lorong Burung Nasar","Kota Kinabalu","SBH"
"88400","Lorong Burung Pekaka","Kota Kinabalu","SBH"
"88400","Lorong Burung Puju","Kota Kinabalu","SBH"
"88400","Lorong Burung Pungguk","Kota Kinabalu","SBH"
"88400","Lorong Burung Ruai","Kota Kinabalu","SBH"
"88400","Lorong Burung Rui (1 - 2)","Kota Kinabalu","SBH"
"88400","Lorong Burung Segan","Kota Kinabalu","SBH"
"88400","Lorong Burung Tukang","Kota Kinabalu","SBH"
"88400","Lorong Chanyai 2","Kota Kinabalu","SBH"
"88400","Lorong Duai","Kota Kinabalu","SBH"
"88400","Lorong Fantasi (1 - 2)","Kota Kinabalu","SBH"
"88400","Lorong Fantasi","Kota Kinabalu","SBH"
"88400","Lorong Hen Paya 4","Kota Kinabalu","SBH"
"88400","Lorong Ikan Mayung","Kota Kinabalu","SBH"
"88400","Lorong Jawa","Kota Kinabalu","SBH"
"88400","Lorong Jelatik","Kota Kinabalu","SBH"
"88400","Lorong Kali","Kota Kinabalu","SBH"
"88400","Lorong Kampung Likas","Kota Kinabalu","SBH"
"88400","Lorong Karuk","Kota Kinabalu","SBH"
"88400","Lorong Kelabu (1 & 2)","Kota Kinabalu","SBH"
"88400","Lorong Kelabu","Kota Kinabalu","SBH"
"88400","Lorong Kelengkeng (1 - 7)","Kota Kinabalu","SBH"
"88400","Lorong Kelicap Kuning","Kota Kinabalu","SBH"
"88400","Lorong Kelinking","Kota Kinabalu","SBH"
"88400","Lorong Kembura (1 - 2)","Kota Kinabalu","SBH"
"88400","Lorong Kembura","Kota Kinabalu","SBH"
"88400","Lorong Kenari (1 - 6)","Kota Kinabalu","SBH"
"88400","Lorong Kenari Kecil","Kota Kinabalu","SBH"
"88400","Lorong Kenari","Kota Kinabalu","SBH"
"88400","Lorong Kenawai (1 - 8)","Kota Kinabalu","SBH"
"88400","Lorong Kenawai","Kota Kinabalu","SBH"
"88400","Lorong Kerapu","Kota Kinabalu","SBH"
"88400","Lorong Ketiti","Kota Kinabalu","SBH"
"88400","Lorong Ketiting","Kota Kinabalu","SBH"
"88400","Lorong Kiju","Kota Kinabalu","SBH"
"88400","Lorong Kuala Laut (1 - 2)","Kota Kinabalu","SBH"
"88400","Lorong Kuala Laut","Kota Kinabalu","SBH"
"88400","Lorong Kuil","Kota Kinabalu","SBH"
"88400","Lorong Langsuir","Kota Kinabalu","SBH"
"88400","Lorong Lengkok","Kota Kinabalu","SBH"
"88400","Lorong Lidah (1 - 3)","Kota Kinabalu","SBH"
"88400","Lorong Lidah","Kota Kinabalu","SBH"
"88400","Lorong Likap","Kota Kinabalu","SBH"
"88400","Lorong Likas","Kota Kinabalu","SBH"
"88400","Lorong Lomntas","Kota Kinabalu","SBH"
"88400","Lorong Madu","Kota Kinabalu","SBH"
"88400","Lorong Merak","Kota Kinabalu","SBH"
"88400","Lorong Merbok","Kota Kinabalu","SBH"
"88400","Lorong Murai","Kota Kinabalu","SBH"
"88400","Lorong Nuri","Kota Kinabalu","SBH"
"88400","Lorong Paku Pakis (1 - 3)","Kota Kinabalu","SBH"
"88400","Lorong Paku Pakis","Kota Kinabalu","SBH"
"88400","Lorong Parak","Kota Kinabalu","SBH"
"88400","Lorong Pari","Kota Kinabalu","SBH"
"88400","Lorong Pasir Kecil","Kota Kinabalu","SBH"
"88400","Lorong Pasir","Kota Kinabalu","SBH"
"88400","Lorong Patin Kecil","Kota Kinabalu","SBH"
"88400","Lorong Patin","Kota Kinabalu","SBH"
"88400","Lorong Pelabuhan","Kota Kinabalu","SBH"
"88400","Lorong Perang","Kota Kinabalu","SBH"
"88400","Lorong Pipit Merah","Kota Kinabalu","SBH"
"88400","Lorong Pipit Uban","Kota Kinabalu","SBH"
"88400","Lorong Pokok Saka","Kota Kinabalu","SBH"
"88400","Lorong Puak","Kota Kinabalu","SBH"
"88400","Lorong Pucung","Kota Kinabalu","SBH"
"88400","Lorong Punai Kedut","Kota Kinabalu","SBH"
"88400","Lorong Puncak","Kota Kinabalu","SBH"
"88400","Lorong Pungguk (1 & 2)","Kota Kinabalu","SBH"
"88400","Lorong Pungguk","Kota Kinabalu","SBH"
"88400","Lorong Putin Satu","Kota Kinabalu","SBH"
"88400","Lorong Putin","Kota Kinabalu","SBH"
"88400","Lorong Ranggung Batek","Kota Kinabalu","SBH"
"88400","Lorong Ruai (3 - 4)","Kota Kinabalu","SBH"
"88400","Lorong Saga","Kota Kinabalu","SBH"
"88400","Lorong Sampit","Kota Kinabalu","SBH"
"88400","Lorong Sapat","Kota Kinabalu","SBH"
"88400","Lorong Saujana ","Kota Kinabalu","SBH"
"88400","Lorong Saujana 1 - 3","Kota Kinabalu","SBH"
"88400","Lorong Signal Hill 1 - 2","Kota Kinabalu","SBH"
"88400","Lorong Signal Hill","Kota Kinabalu","SBH"
"88400","Lorong Tabib","Kota Kinabalu","SBH"
"88400","Lorong Talang","Kota Kinabalu","SBH"
"88400","Lorong Tempua","Kota Kinabalu","SBH"
"88400","Lorong Tenaga","Kota Kinabalu","SBH"
"88400","Lorong Tenejal","Kota Kinabalu","SBH"
"88400","Low Cost Housing (MPKK)","Kota Kinabalu","SBH"
"88400","Lucky Height Condominium","Kota Kinabalu","SBH"
"88400","Persatuan Pendidik Akhlak Chee Sui Khor","Kota Kinabalu","SBH"
"88400","Public Flat","Kota Kinabalu","SBH"
"88400","Radiant Court","Kota Kinabalu","SBH"
"88400","Radiant Mainsonet","Kota Kinabalu","SBH"
"88400","Radiant Point","Kota Kinabalu","SBH"
"88400","Radiant Tower","Kota Kinabalu","SBH"
"88400","SM Likas","Kota Kinabalu","SBH"
"88400","SM Perempuan","Kota Kinabalu","SBH"
"88400","SM Shan Tao","Kota Kinabalu","SBH"
"88400","SM Teknik","Kota Kinabalu","SBH"
"88400","SMK All Saints","Kota Kinabalu","SBH"
"88400","SMK Lok Yuk","Kota Kinabalu","SBH"
"88400","SRJK ( C ) Chung Hwa","Kota Kinabalu","SBH"
"88400","SRJK ( C ) Lok Yuk","Kota Kinabalu","SBH"
"88400","SRJK St James","Kota Kinabalu","SBH"
"88400","SRK Lok Yuk","Kota Kinabalu","SBH"
"88400","SRK St Agnes","Kota Kinabalu","SBH"
"88400","Sabah Port Berhad","Kota Kinabalu","SBH"
"88400","Sabah Trade Center","Kota Kinabalu","SBH"
"88400","Signal Hill Condominium ","Kota Kinabalu","SBH"
"88400","Sri Gaya","Kota Kinabalu","SBH"
"88400","Tai Yap Villa","Kota Kinabalu","SBH"
"88400","Taman Antarabangsa","Kota Kinabalu","SBH"
"88400","Taman Bay View","Kota Kinabalu","SBH"
"88400","Taman Bukit Saujana","Kota Kinabalu","SBH"
"88400","Taman Cempaka","Kota Kinabalu","SBH"
"88400","Taman Ching Sang","Kota Kinabalu","SBH"
"88400","Taman Damai","Kota Kinabalu","SBH"
"88400","Taman Fantasi","Kota Kinabalu","SBH"
"88400","Taman Happy","Kota Kinabalu","SBH"
"88400","Taman Hong Kong","Kota Kinabalu","SBH"
"88400","Taman Iramanis","Kota Kinabalu","SBH"
"88400","Taman Jaya","Kota Kinabalu","SBH"
"88400","Taman Kemajuan","Kota Kinabalu","SBH"
"88400","Taman Keramat","Kota Kinabalu","SBH"
"88400","Taman Kwan Loke","Kota Kinabalu","SBH"
"88400","Taman Lee Fah","Kota Kinabalu","SBH"
"88400","Taman Likas Jaya","Kota Kinabalu","SBH"
"88400","Taman Likas","Kota Kinabalu","SBH"
"88400","Taman Lucky","Kota Kinabalu","SBH"
"88400","Taman Maju Kota","Kota Kinabalu","SBH"
"88400","Taman Melor","Kota Kinabalu","SBH"
"88400","Taman Monne","Kota Kinabalu","SBH"
"88400","Taman Orchid Villa","Kota Kinabalu","SBH"
"88400","Taman Permai Valley","Kota Kinabalu","SBH"
"88400","Taman Prestij","Kota Kinabalu","SBH"
"88400","Taman Public Deluxe","Kota Kinabalu","SBH"
"88400","Taman Public Jaya","Kota Kinabalu","SBH"
"88400","Taman Public","Kota Kinabalu","SBH"
"88400","Taman S. Baru","Kota Kinabalu","SBH"
"88400","Taman Sea View","Kota Kinabalu","SBH"
"88400","Taman Setia","Kota Kinabalu","SBH"
"88400","Taman Signal Hill Park","Kota Kinabalu","SBH"
"88400","Taman Signal Hill","Kota Kinabalu","SBH"
"88400","Taman Sinar Baru","Kota Kinabalu","SBH"
"88400","Taman Sinar Bukit","Kota Kinabalu","SBH"
"88400","Taman Syn Fah Villa","Kota Kinabalu","SBH"
"88400","Taman Tai Tet","Kota Kinabalu","SBH"
"88400","Taman Teluk Likas","Kota Kinabalu","SBH"
"88400","Taman Tuaran","Kota Kinabalu","SBH"
"88400","Taman Ujanan Dah Yeh Villa","Kota Kinabalu","SBH"
"88400","Taman Winley","Kota Kinabalu","SBH"
"88400","Taman Yakim Jaya","Kota Kinabalu","SBH"
"88400","Tanjung Lipat","Kota Kinabalu","SBH"
"88400","The Peak Condominium","Kota Kinabalu","SBH"
"88400","View Hotel","Kota Kinabalu","SBH"
"88400","Winley Estate","Kota Kinabalu","SBH"
"88400","Wisma Berjaya","Kota Kinabalu","SBH"
"88400","Wisma Dixon","Kota Kinabalu","SBH"
"88400","Wisma KKM","Kota Kinabalu","SBH"
"88400","Wisma Kosan","Kota Kinabalu","SBH"
"88400","Wisma Likas","Kota Kinabalu","SBH"
"88400","Wisma Perindustrian","Kota Kinabalu","SBH"
"88400","Wisma Pertubuhan Wanita","Kota Kinabalu","SBH"
"88450","1 Borneo","Kota Kinabalu","SBH"
"88450","31 Jalan Tuaran Batu 5","Kota Kinabalu","SBH"
"88450","Bandar Sieera PH 1A","Kota Kinabalu","SBH"
"88450","Bandar Sieera PH 1B","Kota Kinabalu","SBH"
"88450","Bandar Sieera PH 1A","Kota Kinabalu","SBH"
"88450","Bandar Sieera PH 1B","Kota Kinabalu","SBH"
"88450","Chi Chi Industri Estate","Kota Kinabalu","SBH"
"88450","Daita Industri","Kota Kinabalu","SBH"
"88450","Delta Industrian Centre","Kota Kinabalu","SBH"
"88450","HJM Industrial Estate","Kota Kinabalu","SBH"
"88450","HSK Industri Estate","Kota Kinabalu","SBH"
"88450","HSK Industrial Estate","Kota Kinabalu","SBH"
"88450","Hai Oh Industrial Estate","Kota Kinabalu","SBH"
"88450","Harmony Industri Estate","Kota Kinabalu","SBH"
"88450","Hing Industri Estate","Kota Kinabalu","SBH"
"88450","Hiong Tiong Industri","Kota Kinabalu","SBH"
"88450","Inanam Baru Industrial (0094)","Kota Kinabalu","SBH"
"88450","Inanam Business Centre","Kota Kinabalu","SBH"
"88450","Inanam Commercial Center","Kota Kinabalu","SBH"
"88450","Inanam Jaya (Ph. 1, Ph. 2)","Kota Kinabalu","SBH"
"88450","Inanam Jaya","Kota Kinabalu","SBH"
"88450","Inanam","Kota Kinabalu","SBH"
"88450","Interstate Center","Kota Kinabalu","SBH"
"88450","Jabatan Pengairan Dan Saliran Sabah","Kota Kinabalu","SBH"
"88450","Jabatan Pertanian Sabah","Kota Kinabalu","SBH"
"88450","Jalan Bakau","Kota Kinabalu","SBH"
"88450","Jalan Bambangan","Kota Kinabalu","SBH"
"88450","Jalan Bantayan","Kota Kinabalu","SBH"
"88450","Jalan Bolukun","Kota Kinabalu","SBH"
"88450","Jalan Buah Duku","Kota Kinabalu","SBH"
"88450","Jalan Cenderawasi","Kota Kinabalu","SBH"
"88450","Jalan Gudon","Kota Kinabalu","SBH"
"88450","Jalan Kampung Inanam Laut","Kota Kinabalu","SBH"
"88450","Jalan Kampung Sukang","Kota Kinabalu","SBH"
"88450","Jalan Keluang Bantayan","Kota Kinabalu","SBH"
"88450","Jalan Kilang","Kota Kinabalu","SBH"
"88450","Jalan Kionsom","Kota Kinabalu","SBH"
"88450","Jalan Kolombong","Kota Kinabalu","SBH"
"88450","Jalan Limau Manis","Kota Kinabalu","SBH"
"88450","Jalan Lintas Inanam","Kota Kinabalu","SBH"
"88450","Jalan Maakat 1-3","Kota Kinabalu","SBH"
"88450","Jalan Maakat","Kota Kinabalu","SBH"
"88450","Jalan Mangga","Kota Kinabalu","SBH"
"88450","Jalan Nounton","Kota Kinabalu","SBH"
"88450","Jalan Pekan Baru Inanam","Kota Kinabalu","SBH"
"88450","Jalan Rama-Rama","Kota Kinabalu","SBH"
"88450","Jalan Rampayan","Kota Kinabalu","SBH"
"88450","Jalan SK Lok Yuk","Kota Kinabalu","SBH"
"88450","Jalan Sepagar","Kota Kinabalu","SBH"
"88450","Jalan Sibu-sibu","Kota Kinabalu","SBH"
"88450","Jalan Sinulihan","Kota Kinabalu","SBH"
"88450","Jalan Sulaman","Kota Kinabalu","SBH"
"88450","Jalan Taman Inanam","Kota Kinabalu","SBH"
"88450","Jalan Telipok - Tuaran","Kota Kinabalu","SBH"
"88450","Jalan Teluk Sepagar","Kota Kinabalu","SBH"
"88450","Jalan Tiong Bantayan","Kota Kinabalu","SBH"
"88450","Jalan Tongkuzu","Kota Kinabalu","SBH"
"88450","Jalan Tuaran By Pass","Kota Kinabalu","SBH"
"88450","Jalan Undan","Kota Kinabalu","SBH"
"88450","Jalan Wijaya Park","Kota Kinabalu","SBH"
"88450","Kampung Darau","Kota Kinabalu","SBH"
"88450","Kampung Gudon","Kota Kinabalu","SBH"
"88450","Kampung Labau","Kota Kinabalu","SBH"
"88450","Kampung Lokub","Kota Kinabalu","SBH"
"88450","Kampung Menggorok","Kota Kinabalu","SBH"
"88450","Kampung Nunton","Kota Kinabalu","SBH"
"88450","Kampung Rampayan","Kota Kinabalu","SBH"
"88450","Kampung Ratau","Kota Kinabalu","SBH"
"88450","Kampung Tobobon","Kota Kinabalu","SBH"
"88450","Kampung Unggun Jaya","Kota Kinabalu","SBH"
"88450","Kampung Warisan (Lorong 1-12)","Kota Kinabalu","SBH"
"88450","Kelombong Industrial Estate","Kota Kinabalu","SBH"
"88450","Kian Yap Industri","Kota Kinabalu","SBH"
"88450","Kinapalas Industri","Kota Kinabalu","SBH"
"88450","Kinapar Industrial Estate","Kota Kinabalu","SBH"
"88450","Kingfisher Plan Home","Kota Kinabalu","SBH"
"88450","Kionsom Country Height","Kota Kinabalu","SBH"
"88450","Lembaga Pelabuhan Sabah","Kota Kinabalu","SBH"
"88450","Lembaga Pelabuhan Teluk Sepagar","Kota Kinabalu","SBH"
"88450","Lian Seng Industri","Kota Kinabalu","SBH"
"88450","Light Industri","Kota Kinabalu","SBH"
"88450","Likas Industrial Estate","Kota Kinabalu","SBH"
"88450","Lorong Anggur","Kota Kinabalu","SBH"
"88450","Lorong Angsana (1-3)","Kota Kinabalu","SBH"
"88450","Lorong Bambak Bantayan","Kota Kinabalu","SBH"
"88450","Lorong Bandar Putera 1C dan 1D","Kota Kinabalu","SBH"
"88450","Lorong Bandaran Kionsom","Kota Kinabalu","SBH"
"88450","Lorong Bangau Bantayan","Kota Kinabalu","SBH"
"88450","Lorong Bayan","Kota Kinabalu","SBH"
"88450","Lorong Belimbing Delima","Kota Kinabalu","SBH"
"88450","Lorong Belimbing","Kota Kinabalu","SBH"
"88450","Lorong Binjai","Kota Kinabalu","SBH"
"88450","Lorong Buah Betik","Kota Kinabalu","SBH"
"88450","Lorong Buah Duku 1, 1A, 3, 3A, 3C","Kota Kinabalu","SBH"
"88450","Lorong Buah Keras","Kota Kinabalu","SBH"
"88450","Lorong Buah Pala","Kota Kinabalu","SBH"
"88450","Lorong Buah Pinang","Kota Kinabalu","SBH"
"88450","Lorong Buah Salak 1-5","Kota Kinabalu","SBH"
"88450","Lorong Buah Sukun","Kota Kinabalu","SBH"
"88450","Lorong Buah Tamanic","Kota Kinabalu","SBH"
"88450","Lorong Bukit Sepagar","Kota Kinabalu","SBH"
"88450","Lorong Burung Keleto","Kota Kinabalu","SBH"
"88450","Lorong Burung Pimping","Kota Kinabalu","SBH"
"88450","Lorong Cempedak 1-4","Kota Kinabalu","SBH"
"88450","Lorong Ceri","Kota Kinabalu","SBH"
"88450","Lorong Cermai","Kota Kinabalu","SBH"
"88450","Lorong Desa Permai 1-3","Kota Kinabalu","SBH"
"88450","Lorong Desa Permai 1-5","Kota Kinabalu","SBH"
"88450","Lorong Durian 1, 3, 7","Kota Kinabalu","SBH"
"88450","Lorong Durian","Kota Kinabalu","SBH"
"88450","Lorong Geganti","Kota Kinabalu","SBH"
"88450","Lorong Gipan","Kota Kinabalu","SBH"
"88450","Lorong Inanam Baru (1 - 10)","Kota Kinabalu","SBH"
"88450","Lorong Inanam Baru","Kota Kinabalu","SBH"
"88450","Lorong Inanam Laut","Kota Kinabalu","SBH"
"88450","Lorong Indah Permai 7-23","Kota Kinabalu","SBH"
"88450","Lorong Indah Permai","Kota Kinabalu","SBH"
"88450","Lorong Industri Ringan","Kota Kinabalu","SBH"
"88450","Lorong Industri Warisan 1-3","Kota Kinabalu","SBH"
"88450","Lorong Industri Warisan","Kota Kinabalu","SBH"
"88450","Lorong Jambu Susu","Kota Kinabalu","SBH"
"88450","Lorong Janjang","Kota Kinabalu","SBH"
"88450","Lorong KMA","Kota Kinabalu","SBH"
"88450","Lorong Kacang Tanah","Kota Kinabalu","SBH"
"88450","Lorong Kelapa","Kota Kinabalu","SBH"
"88450","Lorong Kelip-Kelip","Kota Kinabalu","SBH"
"88450","Lorong Kengkuit","Kota Kinabalu","SBH"
"88450","Lorong Kilang (A - E)","Kota Kinabalu","SBH"
"88450","Lorong Kuala Menggatal 1-23","Kota Kinabalu","SBH"
"88450","Lorong Kumbang","Kota Kinabalu","SBH"
"88450","Lorong Kupu-Kupu","Kota Kinabalu","SBH"
"88450","Lorong Kurma","Kota Kinabalu","SBH"
"88450","Lorong Lama","Kota Kinabalu","SBH"
"88450","Lorong Landing","Kota Kinabalu","SBH"
"88450","Lorong Langgat","Kota Kinabalu","SBH"
"88450","Lorong Laut Bantayan","Kota Kinabalu","SBH"
"88450","Lorong Layang-Layang","Kota Kinabalu","SBH"
"88450","Lorong Lebah","Kota Kinabalu","SBH"
"88450","Lorong Limau Manis (1 - 3)","Kota Kinabalu","SBH"
"88450","Lorong Limau Manis","Kota Kinabalu","SBH"
"88450","Lorong Limau","Kota Kinabalu","SBH"
"88450","Lorong Madu","Kota Kinabalu","SBH"
"88450","Lorong Mangga (1 - 3)","Kota Kinabalu","SBH"
"88450","Lorong Manggis","Kota Kinabalu","SBH"
"88450","Lorong Mansiang","Kota Kinabalu","SBH"
"88450","Lorong Mansing 1","Kota Kinabalu","SBH"
"88450","Lorong Medan 1-3","Kota Kinabalu","SBH"
"88450","Lorong Medan","Kota Kinabalu","SBH"
"88450","Lorong Mega 1","Kota Kinabalu","SBH"
"88450","Lorong Mega 2","Kota Kinabalu","SBH"
"88450","Lorong Mega","Kota Kinabalu","SBH"
"88450","Lorong Melawa (1-2)","Kota Kinabalu","SBH"
"88450","Lorong Mempalam","Kota Kinabalu","SBH"
"88450","Lorong Minyak","Kota Kinabalu","SBH"
"88450","Lorong Murni","Kota Kinabalu","SBH"
"88450","Lorong Nelly (9/1 - 9/5)","Kota Kinabalu","SBH"
"88450","Lorong Nounton","Kota Kinabalu","SBH"
"88450","Lorong Palma 1-3","Kota Kinabalu","SBH"
"88450","Lorong Palma","Kota Kinabalu","SBH"
"88450","Lorong Pekan Baru Inanam","Kota Kinabalu","SBH"
"88450","Lorong Pelam 1","Kota Kinabalu","SBH"
"88450","Lorong Pelam 2-6","Kota Kinabalu","SBH"
"88450","Lorong Pelam","Kota Kinabalu","SBH"
"88450","Lorong Permai 2-3","Kota Kinabalu","SBH"
"88450","Lorong Permai","Kota Kinabalu","SBH"
"88450","Lorong Pic (1 - 5)","Kota Kinabalu","SBH"
"88450","Lorong Pic","Kota Kinabalu","SBH"
"88450","Lorong Pisang","Kota Kinabalu","SBH"
"88450","Lorong Plaza Utama 1-5, 4A, 4B","Kota Kinabalu","SBH"
"88450","Lorong Puncak Desa 1-2","Kota Kinabalu","SBH"
"88450","Lorong Puncak desa","Kota Kinabalu","SBH"
"88450","Lorong Putra Jaya 3-9, 13-18, 20-24, 26","Kota Kinabalu","SBH"
"88450","Lorong Putra Jaya 9B, 3A","Kota Kinabalu","SBH"
"88450","Lorong Putra Perdana 2D, 2C, 2B, 2F, 2E","Kota Kinabalu","SBH"
"88450","Lorong Raja Udang","Kota Kinabalu","SBH"
"88450","Lorong Rambutan","Kota Kinabalu","SBH"
"88450","Lorong Sampah","Kota Kinabalu","SBH"
"88450","Lorong Sang Suria","Kota Kinabalu","SBH"
"88450","Lorong Seri Indah 1-6","Kota Kinabalu","SBH"
"88450","Lorong Seri Indah","Kota Kinabalu","SBH"
"88450","Lorong Seri Maju","Kota Kinabalu","SBH"
"88450","Lorong Sibu","Kota Kinabalu","SBH"
"88450","Lorong Sri Baru (1-3)","Kota Kinabalu","SBH"
"88450","Lorong Sri Baru","Kota Kinabalu","SBH"
"88450","Lorong Sri Kelombong","Kota Kinabalu","SBH"
"88450","Lorong Sri Pulutan (1-3)","Kota Kinabalu","SBH"
"88450","Lorong Sulaman 1-3, 2A, 3A, 5","Kota Kinabalu","SBH"
"88450","Lorong Sungai Inanam","Kota Kinabalu","SBH"
"88450","Lorong Suria","Kota Kinabalu","SBH"
"88450","Lorong Synergy Square - Blok B1","Kota Kinabalu","SBH"
"88450","Lorong Telipok Jaya 1A, 2, 3, 3A","Kota Kinabalu","SBH"
"88450","Lorong Telipok Jaya","Kota Kinabalu","SBH"
"88450","Lorong Tembikai","Kota Kinabalu","SBH"
"88450","Lorong Terap 2","Kota Kinabalu","SBH"
"88450","Lorong Tomato","Kota Kinabalu","SBH"
"88450","Lorong Tongkuzu","Kota Kinabalu","SBH"
"88450","Lorong Wijaya Park 1-6","Kota Kinabalu","SBH"
"88450","MARDI","Kota Kinabalu","SBH"
"88450","Melawa Count","Kota Kinabalu","SBH"
"88450","Menara Tun Mustapha","Kota Kinabalu","SBH"
"88450","Menggatal","Kota Kinabalu","SBH"
"88450","Metro Town","Kota Kinabalu","SBH"
"88450","Ngee Lim Industri","Kota Kinabalu","SBH"
"88450","Paramount Industri","Kota Kinabalu","SBH"
"88450","PerKampungan Baru Inanam (1 - 5)","Kota Kinabalu","SBH"
"88450","Perindustrian Sri Inanam 13","Kota Kinabalu","SBH"
"88450","Perumahan SESB Melawa","Kota Kinabalu","SBH"
"88450","Pusat Perindustrian Jaya","Kota Kinabalu","SBH"
"88450","Pusat Perindustrian Suria","Kota Kinabalu","SBH"
"88450","S.L. Industri Estate","Kota Kinabalu","SBH"
"88450","Seludang Industri Estate","Kota Kinabalu","SBH"
"88450","Si Khiong Industri","Kota Kinabalu","SBH"
"88450","Sinar Industrial Estate","Kota Kinabalu","SBH"
"88450","Skim Penempatan Telipok","Kota Kinabalu","SBH"
"88450","Sri Kemajuan Industri Estate","Kota Kinabalu","SBH"
"88450","Sri Warisan Light Industri","Kota Kinabalu","SBH"
"88450","Sulaman Central","Kota Kinabalu","SBH"
"88450","Suria Industri Park","Kota Kinabalu","SBH"
"88450","Taman Angsana","Kota Kinabalu","SBH"
"88450","Taman Bakti Ikhlas","Kota Kinabalu","SBH"
"88450","Taman Bukit Sepagar","Kota Kinabalu","SBH"
"88450","Taman Bukit Setia","Kota Kinabalu","SBH"
"88450","Taman Canggih","Kota Kinabalu","SBH"
"88450","Taman Cerah","Kota Kinabalu","SBH"
"88450","Taman Dai Ming Baru","Kota Kinabalu","SBH"
"88450","Taman Fajar","Kota Kinabalu","SBH"
"88450","Taman Flamingo","Kota Kinabalu","SBH"
"88450","Taman Fulliwa","Kota Kinabalu","SBH"
"88450","Taman Harmoni","Kota Kinabalu","SBH"
"88450","Taman Hartamas","Kota Kinabalu","SBH"
"88450","Taman Inanam Baru","Kota Kinabalu","SBH"
"88450","Taman Inanam Laut Phase 1","Kota Kinabalu","SBH"
"88450","Taman Inanam Villa","Kota Kinabalu","SBH"
"88450","Taman Inanam","Kota Kinabalu","SBH"
"88450","Taman Indah Permai","Kota Kinabalu","SBH"
"88450","Taman Jaya Diri","Kota Kinabalu","SBH"
"88450","Taman Jaya Usaha","Kota Kinabalu","SBH"
"88450","Taman Judy","Kota Kinabalu","SBH"
"88450","Taman K. Menggatal","Kota Kinabalu","SBH"
"88450","Taman Kemas","Kota Kinabalu","SBH"
"88450","Taman King Fisher","Kota Kinabalu","SBH"
"88450","Taman Kingfisher Phase 4","Kota Kinabalu","SBH"
"88450","Taman Kingfisher Sulaman PH 1","Kota Kinabalu","SBH"
"88450","Taman Kionsom Jaya","Kota Kinabalu","SBH"
"88450","Taman Kolombung","Kota Kinabalu","SBH"
"88450","Taman Kopek","Kota Kinabalu","SBH"
"88450","Taman Kuala Menggatal (Ph 1, Ph 2, Ph 3)","Kota Kinabalu","SBH"
"88450","Taman Langkah","Kota Kinabalu","SBH"
"88450","Taman Lifo","Kota Kinabalu","SBH"
"88450","Taman Mansiang","Kota Kinabalu","SBH"
"88450","Taman May May","Kota Kinabalu","SBH"
"88450","Taman Mega","Kota Kinabalu","SBH"
"88450","Taman Melawa Jaya","Kota Kinabalu","SBH"
"88450","Taman Menggatal Villa","Kota Kinabalu","SBH"
"88450","Taman Menggatal","Kota Kinabalu","SBH"
"88450","Taman Mewah","Kota Kinabalu","SBH"
"88450","Taman Murni","Kota Kinabalu","SBH"
"88450","Taman Nelly Ph. 9","Kota Kinabalu","SBH"
"88450","Taman Nelly","Kota Kinabalu","SBH"
"88450","Taman Nounton","Kota Kinabalu","SBH"
"88450","Taman Palma Rasa","Kota Kinabalu","SBH"
"88450","Taman Palma","Kota Kinabalu","SBH"
"88450","Taman Perindustrian Moden","Kota Kinabalu","SBH"
"88450","Taman Permai","Kota Kinabalu","SBH"
"88450","Taman Permata","Kota Kinabalu","SBH"
"88450","Taman Puri Saujana (Ph. 1, Ph. 2)","Kota Kinabalu","SBH"
"88450","Taman Puri Saujana 3","Kota Kinabalu","SBH"
"88450","Taman Putera Perdana","Kota Kinabalu","SBH"
"88450","Taman Putra Jaya","Kota Kinabalu","SBH"
"88450","Taman Riang","Kota Kinabalu","SBH"
"88450","Taman Richdar","Kota Kinabalu","SBH"
"88450","Taman Saga","Kota Kinabalu","SBH"
"88450","Taman Satria Phase 2","Kota Kinabalu","SBH"
"88450","Taman Segar","Kota Kinabalu","SBH"
"88450","Taman Selayang Kedai","Kota Kinabalu","SBH"
"88450","Taman Sepangar","Kota Kinabalu","SBH"
"88450","Taman Seri Kasturi","Kota Kinabalu","SBH"
"88450","Taman Seri Kionsom","Kota Kinabalu","SBH"
"88450","Taman Sri Baru","Kota Kinabalu","SBH"
"88450","Taman Sri Chimera","Kota Kinabalu","SBH"
"88450","Taman Sri Indah","Kota Kinabalu","SBH"
"88450","Taman Sri Maju (Blok 201 -205, 211, 212)","Kota Kinabalu","SBH"
"88450","Taman Sri Maju Jaya (Blok 208 -210)","Kota Kinabalu","SBH"
"88450","Taman Sri Pulutan","Kota Kinabalu","SBH"
"88450","Taman Sri Puteri","Kota Kinabalu","SBH"
"88450","Taman Sri Rugading","Kota Kinabalu","SBH"
"88450","Taman Syn Fah","Kota Kinabalu","SBH"
"88450","Taman Tebobon","Kota Kinabalu","SBH"
"88450","Taman Teck Lee","Kota Kinabalu","SBH"
"88450","Taman Telipok Jaya","Kota Kinabalu","SBH"
"88450","Taman Telipok Ria Ph. 2","Kota Kinabalu","SBH"
"88450","Taman Telipok Ria","Kota Kinabalu","SBH"
"88450","Taman Utara Gudon","Kota Kinabalu","SBH"
"88450","Taman View Point","Kota Kinabalu","SBH"
"88450","Taman Wangsa","Kota Kinabalu","SBH"
"88450","Taman Wijayah Park","Kota Kinabalu","SBH"
"88450","Telipok Commercial Centre - Blok A","Kota Kinabalu","SBH"
"88450","Telipok","Kota Kinabalu","SBH"
"88450","Tman Mepo","Kota Kinabalu","SBH"
"88450","Tropical Industri Estate","Kota Kinabalu","SBH"
"88450","Tropical Industri Estate","Kota Kinabalu","SBH"
"88450","Visa Industrial Estate","Kota Kinabalu","SBH"
"88450","Visa L.I.E","Kota Kinabalu","SBH"
"88450","Wei Hing Industri","Kota Kinabalu","SBH"
"88450","Wisma Everight","Kota Kinabalu","SBH"
"88450","Wisma Gaya","Kota Kinabalu","SBH"
"88450","Wisma Kolombong","Kota Kinabalu","SBH"
"88450","Wisma YTL","Kota Kinabalu","SBH"
"88450","Yisu Industrial Estate","Kota Kinabalu","SBH"
"88460","Jalan 3 KKIP Timur","Kota Kinabalu","SBH"
"88460","Jalan KKIP Timur","Kota Kinabalu","SBH"
"88460","Jalan Selatan","Kota Kinabalu","SBH"
"88460","Lembaga Koko","Kota Kinabalu","SBH"
"88500","TYT Yang Di Pertua Negeri Sabah","Kota Kinabalu","SBH"
"88502","YAB Ketua Menteri Sabah","Kota Kinabalu","SBH"
"88504","Biro Bantuan Guaman","Kota Kinabalu","SBH"
"88505","Biro Pengaduan Awam","Kota Kinabalu","SBH"
"88506","Mahkamah Tinggi","Kota Kinabalu","SBH"
"88508","Amanah Raya Berhad","Kota Kinabalu","SBH"
"88510","Jabatan Perkhidmatan Awam","Kota Kinabalu","SBH"
"88512","Jabatan Peguam Negara","Kota Kinabalu","SBH"
"88514","Jabatan Perangkaan","Kota Kinabalu","SBH"
"88516","Jabatan Pemegang Harta","Kota Kinabalu","SBH"
"88518","Ketua Audit Negeri","Kota Kinabalu","SBH"
"88520","Suruhanjaya Perkhidmatan Awam Persekutuan","Kota Kinabalu","SBH"
"88520","Unit PenyelidIkan Sosio Ekonomi","Kota Kinabalu","SBH"
"88526","Suruhanjaya Perkhidmatan PendidIkan","Kota Kinabalu","SBH"
"88527","Unit Pentadbiran & Perancangan Pengurusan","Kota Kinabalu","SBH"
"88532","Jabatan Sumber Manusia","Kota Kinabalu","SBH"
"88534","Jabatan Kilang & Jentera","Kota Kinabalu","SBH"
"88538","Jabatan Keselamatan Sosial (Perkeso)","Kota Kinabalu","SBH"
"88540","Jabatan Tenaga Rakyat","Kota Kinabalu","SBH"
"88546","Pejabat Rela Negeri","Kota Kinabalu","SBH"
"88550","Jabatan Imigresen","Kota Kinabalu","SBH"
"88551","Jabatan Pendaftaran Negara","Kota Kinabalu","SBH"
"88552","Jabatan Pendaftar Pertubuhan","Kota Kinabalu","SBH"
"88554","Percetakan Nasional Berhad","Kota Kinabalu","SBH"
"88556","Jabatan Pertahanan Awam","Kota Kinabalu","SBH"
"88558","Jabatan Penjara","Kota Kinabalu","SBH"
"88560","Ketua Polis Negeri","Kota Kinabalu","SBH"
"88562","Kementerian KebajIkan Masyarakat Sabah","Kota Kinabalu","SBH"
"88564","Jabatan KebajIkan Masyarakat","Kota Kinabalu","SBH"
"88566","Jabatan Muzium","Kota Kinabalu","SBH"
"88568","Jabatan Arkib Negara","Kota Kinabalu","SBH"
"88570","Kementerian Belia Dan Sukan Sabah","Kota Kinabalu","SBH"
"88572","Perpustakaan Awam Negeri","Kota Kinabalu","SBH"
"88576","Jabatan Tanah & Ukur","Kota Kinabalu","SBH"
"88580","Kementerian Perhubungan & Kerja Raya Sabah","Kota Kinabalu","SBH"
"88582","Jabatan Kerja Raya","Kota Kinabalu","SBH"
"88586","Hospital Queen Elizabeth","Kota Kinabalu","SBH"
"88590","Jabatan Kesihatan","Kota Kinabalu","SBH"
"88592","Jabatan Kewangan Persekutuan","Kota Kinabalu","SBH"
"88592","Kementerian Kewangan Sabah","Kota Kinabalu","SBH"
"88592","Pegawai Kewangan Negeri","Kota Kinabalu","SBH"
"88594","Akauntan Negara","Kota Kinabalu","SBH"
"88596","Jabatan Kastam & Eksais Di Raja","Kota Kinabalu","SBH"
"88598","Kumpulan Wang Simpanan Pekerja","Kota Kinabalu","SBH"
"88600","Lembaga Hasil Dalam Negeri","Kota Kinabalu","SBH"
"88602","Pejabat Perhubungan Sabah / Kuala Lumpur","Kota Kinabalu","SBH"
"88604","Jabatan Pendidikan","Kota Kinabalu","SBH"
"88606","Kementerian Pembangunan Negara & Luar Bandar Sabah","Kota Kinabalu","SBH"
"88608","Jabatan Pembangunan Koperasi","Kota Kinabalu","SBH"
"88609","Pejabat Mara Negeri","Kota Kinabalu","SBH"
"88610","Bahagian Perlesenan - Kementerian Penerangan","Kota Kinabalu","SBH"
"88612","Jabatan Penerangan","Kota Kinabalu","SBH"
"88614","Jabatan Penyiaran","Kota Kinabalu","SBH"
"88617","Lembaga Pelabuhan Sabah","Kota Kinabalu","SBH"
"88618","Jabatan Penerbangan Awam","Kota Kinabalu","SBH"
"88620","Jabatan Pengangkutan Jalan","Kota Kinabalu","SBH"
"88621","Jabatan Keratapi Sabah","Kota Kinabalu","SBH"
"88622","Penguatkuasa Kementerian Perdagangan Dalam Negeri","Kota Kinabalu","SBH"
"88624","Kementerian Pertanian & Perikanan Sabah","Kota Kinabalu","SBH"
"88624","Kementerian Pertanian & Perikanan Sabah","Kota Kinabalu","SBH"
"88626","Jabatan Pengairan & Saliran","Kota Kinabalu","SBH"
"88628","Jabatan Perikanan","Kota Kinabalu","SBH"
"88630","Jabatan Haiwan","Kota Kinabalu","SBH"
"88632","Jabatan Pertanian","Kota Kinabalu","SBH"
"88634","Briget Kelima Infantri Malaysia","Kota Kinabalu","SBH"
"88644","Kementerian Kerajaan Tempatan Sabah","Kota Kinabalu","SBH"
"88646","Jabatan Perancang Bandar & Desa","Kota Kinabalu","SBH"
"88648","Jabatan Bomba & Penyelamat","Kota Kinabalu","SBH"
"88656","Jabatan Galian","Kota Kinabalu","SBH"
"88658","Jabatan Kajibumi","Kota Kinabalu","SBH"
"88660","Jabatan Perhutanan","Kota Kinabalu","SBH"
"88661","Padi & Beras Nasional (Bernas)","Kota Kinabalu","SBH"
"88662","Jabatan Alam Sekitar Negeri","Kota Kinabalu","SBH"
"88670","Pos Malaysia Berhad","Kota Kinabalu","SBH"
"88672","Telekom Malaysia Berhad","Kota Kinabalu","SBH"
"88673","Sabah Electricity Sendirian Berhad","Kota Kinabalu","SBH"
"88675","Dewan Bandaraya Kota Kinabalu","Kota Kinabalu","SBH"
"88676","Majlis Agama Islam Sabah","Kota Kinabalu","SBH"
"88680","Dewan Undangan Negeri","Kota Kinabalu","SBH"
"88690","Suruhanjaya Pilihanraya Negeri","Kota Kinabalu","SBH"
"88700","Beverly - Peti Surat 1 - 530","Beverly","SBH"
"88721","Putatan - Peti Surat 50001 - 50080","Putatan","SBH"
"88722","Putatan - Peti Surat 50081 - 50300","Putatan","SBH"
"88723","Putatan - Peti Surat 50301 - 50450","Putatan","SBH"
"88724","Putatan - Peti Surat 50451 - 50500","Putatan","SBH"
"88725","Putatan - Peti Surat 50501 - 50800","Putatan","SBH"
"88757","Luyang - Peti surat 20001 - 20100","Kota Kinabalu","SBH"
"88758","Luyang - Peti surat 20101 - 20200","Kota Kinabalu","SBH"
"88759","Luyang - Peti surat 20201 - 20300","Kota Kinabalu","SBH"
"88760","Luyang - Peti surat 20301 - 20400","Kota Kinabalu","SBH"
"88761","Luyang - Peti surat 20401 - 20500","Kota Kinabalu","SBH"
"88762","Luyang - Peti surat 20501 - 20580","Kota Kinabalu","SBH"
"88763","Luyang - Peti surat 20581 - 20680","Kota Kinabalu","SBH"
"88764","Luyang - Peti surat 20681 - 20780","Kota Kinabalu","SBH"
"88765","Luyang - Peti surat 20781 - 20880","Kota Kinabalu","SBH"
"88766","Luyang - Peti surat 20881 - 20960","Kota Kinabalu","SBH"
"88767","Luyang - Peti surat 20961 - 21060","Kota Kinabalu","SBH"
"88768","Luyang - Peti surat 21061 - 21160","Kota Kinabalu","SBH"
"88769","Luyang - Peti surat 21161 - 21240","Kota Kinabalu","SBH"
"88770","Luyang - Peti surat 21241 - 21320","Kota Kinabalu","SBH"
"88771","Luyang - Peti surat 21321 - 21420","Kota Kinabalu","SBH"
"88772","Luyang - Peti surat 21421 - 21520","Kota Kinabalu","SBH"
"88773","Luyang - Peti surat 21521 - 21600","Kota Kinabalu","SBH"
"88774","Luyang - Peti surat 21601 - 21700","Kota Kinabalu","SBH"
"88775","Luyang - Peti surat 21701 - 21800","Kota Kinabalu","SBH"
"88776","Luyang - Peti surat 21801 - 21900","Kota Kinabalu","SBH"
"88777","Luyang - Peti surat 21901 - 21980","Kota Kinabalu","SBH"
"88778","Luyang - Peti surat 21981 - 22060","Kota Kinabalu","SBH"
"88779","Luyang - Peti surat 22061 - 22140","Kota Kinabalu","SBH"
"88780","Luyang - Peti surat 22141 - 22220","Kota Kinabalu","SBH"
"88781","Luyang - Peti surat 22221 - 22300","Kota Kinabalu","SBH"
"88782","Luyang - Peti surat 22301 - 22380","Kota Kinabalu","SBH"
"88783","Luyang - Peti surat 22381 - 22460","Kota Kinabalu","SBH"
"88784","Luyang - Peti surat 22461 - 22540","Kota Kinabalu","SBH"
"88785","Luyang - Peti surat 22541 - 22620","Kota Kinabalu","SBH"
"88786","Luyang - Peti surat 22621 - 22700","Kota Kinabalu","SBH"
"88787","Luyang - Peti surat 22701 - 22800","Kota Kinabalu","SBH"
"88788","Luyang - Peti surat 22801 - 22880","Kota Kinabalu","SBH"
"88789","Luyang - Peti surat 22881 - 22980","Kota Kinabalu","SBH"
"88790","Luyang - Peti surat 22981 - 23080","Kota Kinabalu","SBH"
"88800","Kota Kinabalu - Peti surat 10001 - 10050","Kota Kinabalu","SBH"
"88801","Kota Kinabalu - Peti surat 10051 - 10170","Kota Kinabalu","SBH"
"88802","Kota Kinabalu - Peti surat 10171 - 10250","Kota Kinabalu","SBH"
"88803","Kota Kinabalu - Peti surat 10251 - 10370","Kota Kinabalu","SBH"
"88804","Kota Kinabalu - Peti surat 10371 - 10430","Kota Kinabalu","SBH"
"88805","Kota Kinabalu - Peti surat 10431 - 10530","Kota Kinabalu","SBH"
"88806","Kota Kinabalu - Peti surat 10531 - 10630","Kota Kinabalu","SBH"
"88807","Kota Kinabalu - Peti surat 10631 - 10730","Kota Kinabalu","SBH"
"88808","Kota Kinabalu - Peti surat 10731 - 10810","Kota Kinabalu","SBH"
"88809","Kota Kinabalu - Peti surat 10811 - 10890","Kota Kinabalu","SBH"
"88810","Kota Kinabalu - Peti surat 10891 - 10990","Kota Kinabalu","SBH"
"88811","Kota Kinabalu - Peti surat 10991 - 11090","Kota Kinabalu","SBH"
"88812","Kota Kinabalu - Peti surat 11091 - 11190","Kota Kinabalu","SBH"
"88813","Kota Kinabalu - Peti surat 11191 - 11270","Kota Kinabalu","SBH"
"88814","Kota Kinabalu - Peti surat 11271 - 11330","Kota Kinabalu","SBH"
"88815","Kota Kinabalu - Peti surat 11331 - 11430","Kota Kinabalu","SBH"
"88816","Kota Kinabalu - Peti surat 11431 - 11530","Kota Kinabalu","SBH"
"88817","Kota Kinabalu - Peti surat 11531 - 11630","Kota Kinabalu","SBH"
"88818","Kota Kinabalu - Peti surat 11631 - 11710","Kota Kinabalu","SBH"
"88819","Kota Kinabalu - Peti surat 11711 - 11790","Kota Kinabalu","SBH"
"88820","Kota Kinabalu - Peti surat 11791 - 11890","Kota Kinabalu","SBH"
"88821","Kota Kinabalu - Peti surat 11891 - 11990","Kota Kinabalu","SBH"
"88822","Kota Kinabalu - Peti surat 11991 - 12090","Kota Kinabalu","SBH"
"88823","Kota Kinabalu - Peti surat 12091 - 12160","Kota Kinabalu","SBH"
"88824","Kota Kinabalu - Peti surat 12161 - 12210","Kota Kinabalu","SBH"
"88825","Kota Kinabalu - Peti surat 12211 - 12310","Kota Kinabalu","SBH"
"88826","Kota Kinabalu - Peti surat 12311 - 12410","Kota Kinabalu","SBH"
"88827","Kota Kinabalu - Peti surat 12411 - 12510","Kota Kinabalu","SBH"
"88828","Kota Kinabalu - Peti surat 12511 - 12590","Kota Kinabalu","SBH"
"88829","Kota Kinabalu - Peti surat 12591 - 12670","Kota Kinabalu","SBH"
"88830","Kota Kinabalu - Peti surat 12671 - 12770","Kota Kinabalu","SBH"
"88831","Kota Kinabalu - Peti surat 12771 - 12870","Kota Kinabalu","SBH"
"88832","Kota Kinabalu - Peti surat 12871 - 12970","Kota Kinabalu","SBH"
"88833","Kota Kinabalu - Peti surat 12971 - 13050","Kota Kinabalu","SBH"
"88834","Kota Kinabalu - Peti surat 13051 - 13110","Kota Kinabalu","SBH"
"88835","Kota Kinabalu - Peti surat 13111 - 13190","Kota Kinabalu","SBH"
"88836","Kota Kinabalu - Peti surat 13191 - 13270","Kota Kinabalu","SBH"
"88837","Kota Kinabalu - Peti surat 13271 - 13360","Kota Kinabalu","SBH"
"88838","Kota Kinabalu - Peti surat 13361 - 13440","Kota Kinabalu","SBH"
"88839","Kota Kinabalu - Peti surat 13441 - 13530","Kota Kinabalu","SBH"
"88840","Kota Kinabalu - Peti surat 13531 - 13610","Kota Kinabalu","SBH"
"88841","Kota Kinabalu - Peti surat 13611 - 13690","Kota Kinabalu","SBH"
"88842","Kota Kinabalu - Peti surat 13691 - 13720","Kota Kinabalu","SBH"
"88843","Kota Kinabalu - Peti surat 13721 - 13800","Kota Kinabalu","SBH"
"88844","Kota Kinabalu - Peti surat 13801 - 13880","Kota Kinabalu","SBH"
"88845","Kota Kinabalu - Peti surat 13881 - 13970","Kota Kinabalu","SBH"
"88846","Kota Kinabalu - Peti surat 13971 - 14070","Kota Kinabalu","SBH"
"88847","Kota Kinabalu - Peti surat 14071 - 14180","Kota Kinabalu","SBH"
"88848","Kota Kinabalu - Peti surat 14181 - 14280","Kota Kinabalu","SBH"
"88849","Kota Kinabalu - Peti surat 14281 - 14360","Kota Kinabalu","SBH"
"88850","Kota Kinabalu - Peti surat 14361 - 14460","Kota Kinabalu","SBH"
"88851","Kota Kinabalu - Peti surat 14461 - 14540","Kota Kinabalu","SBH"
"88852","Kota Kinabalu - Peti surat 14541 - 14610","Kota Kinabalu","SBH"
"88853","Kota Kinabalu - Peti surat 14611 - 14690","Kota Kinabalu","SBH"
"88854","Kota Kinabalu - Peti surat 14691 - 14770","Kota Kinabalu","SBH"
"88855","Kota Kinabalu - Peti surat 14771 - 14870","Kota Kinabalu","SBH"
"88855","Kota Kinabalu - Peti surat 14871 - 15000","Kota Kinabalu","SBH"
"88856","Likas - Peti Surat 1 - 630","Likas","SBH"
"88857","Inanam - Peti Surat 1 - 500","Inanam","SBH"
"88858","Tanjung Aru - Peti Surat 1 - 690","Tanjung Aru","SBH"
"88860","Kota Kinabalu - Peti surat 15001 - 15120","Kota Kinabalu","SBH"
"88861","Kota Kinabalu - Peti surat 15121 - 15180","Kota Kinabalu","SBH"
"88862","Kota Kinabalu - Peti surat 15181 - 15260","Kota Kinabalu","SBH"
"88863","Kota Kinabalu - Peti surat 15261 - 15460","Kota Kinabalu","SBH"
"88865","Kota Kinabalu - Peti surat 15461 - 15600","Kota Kinabalu","SBH"
"88866","Kota Kinabalu - Peti surat 15681 - 15800","Kota Kinabalu","SBH"
"88867","Kota Kinabalu - Peti surat 15801 - 16020","Kota Kinabalu","SBH"
"88868","Kota Kinabalu - Peti surat 16021 - 16100","Kota Kinabalu","SBH"
"88869","Kota Kinabalu - Peti surat 16101 - 16300","Kota Kinabalu","SBH"
"88870","Kota Kinabalu - Peti surat 16301 - 16560","Kota Kinabalu","SBH"
"88871","Kota Kinabalu - Peti surat 16561 - 16640","Kota Kinabalu","SBH"
"88872","Kota Kinabalu - Peti surat 16641 - 17160","Kota Kinabalu","SBH"
"88873","Kota Kinabalu - Peti surat 17161 - 17680","Kota Kinabalu","SBH"
"88874","Kota Kinabalu - Peti surat 17681 - 18120","Kota Kinabalu","SBH"
"88875","Kota Kinabalu - Peti surat 18121 - 18640","Kota Kinabalu","SBH"
"88900","Kota Kinabalu - Tiket SerahanTingkap 1 - 100","Kota Kinabalu","SBH"
"88901","Kota Kinabalu - Tiket Serahan Tingkap 101 - 200","Kota Kinabalu","SBH"
"88902","Kota Kinabalu - Tiket Serahan Tingkap 201 - 300","Kota Kinabalu","SBH"
"88903","Kota Kinabalu - Tiket Serahan Tingkap 301 - 400","Kota Kinabalu","SBH"
"88904","Kota Kinabalu - Tiket SerahanTingkap 401 - 500","Kota Kinabalu","SBH"
"88905","Kota Kinabalu - Tiket Serahan Tingkap 501 - 600","Kota Kinabalu","SBH"
"88906","Kota Kinabalu - Tiket Serahan Tingkap 601 - 700","Kota Kinabalu","SBH"
"88988","Badan Pencegah Rasuah","Kota Kinabalu","SBH"
"88990","Kota Kinabalu - Beg berkunci 1 - 30","Kota Kinabalu","SBH"
"88991","Kota Kinabalu - Beg berkunci 31 - 60","Kota Kinabalu","SBH"
"88992","Kota Kinabalu - Beg berkunci 61 - 90","Kota Kinabalu","SBH"
"88993","Kota Kinabalu - Beg berkunci 91 - 120","Kota Kinabalu","SBH"
"88994","Kota Kinabalu - Beg berkunci 121 - 150","Kota Kinabalu","SBH"
"88995","Kota Kinabalu - Beg berkunci 151 - 180","Kota Kinabalu","SBH"
"88996","Kota Kinabalu - Beg berkunci 181 - 210","Kota Kinabalu","SBH"
"88997","Kota Kinabalu - Beg berkunci 211 - 240","Kota Kinabalu","SBH"
"88998","Kota Kinabalu - Beg berkunci 2001 - 2026","Kota Kinabalu","SBH"
"88999","Kota Kinabalu - Beg berkunci 2027 - 2080","Kota Kinabalu","SBH"
"89000","Apin-Apin","Keningau","SBH"
"89000","Kampung Bingkor","Keningau","SBH"
"89000","Kampung Dalayan Sook","Keningau","SBH"
"89000","Kampung Pinipi Lanas","Keningau","SBH"
"89000","Kampung Sebarang","Keningau","SBH"
"89000","Kampung Sinulihan","Keningau","SBH"
"89000","Kampung Tulid","Keningau","SBH"
"89000","Keningau","Keningau","SBH"
"89007","Keningau - Peti surat","Keningau","SBH"
"89008","Keningau - Tiket Serahan Tingkap","Keningau","SBH"
"89009","Keningau - Beg berkunci","Keningau","SBH"
"89050","Banggi","Kudat","SBH"
"89050","Bengkoka","Kudat","SBH"
"89050","Kampung Lajong","Kudat","SBH"
"89050","Kudat","Kudat","SBH"
"89050","Langkon","Kudat","SBH"
"89050","Matunggong","Kudat","SBH"
"89050","Pinawantai","Kudat","SBH"
"89050","Pitas","Kudat","SBH"
"89050","Pulau Banggi","Kudat","SBH"
"89050","Sekuati","Kudat","SBH"
"89050","Tandek","Kudat","SBH"
"89057","Kudat - Peti surat","Kudat","SBH"
"89058","Kudat - Tiket Serahan Tingkap","Kudat","SBH"
"89059","Kudat - Beg berkunci","Kudat","SBH"
"89100","Bengkoka","Kota Marudu","SBH"
"89100","Kampung Damai","Kota Marudu","SBH"
"89100","Kota Marudu","Kota Marudu","SBH"
"89100","Pitas","Kota Marudu","SBH"
"89100","Tandek","Kota Marudu","SBH"
"89107","Kota Marudu - Peti surat","Kota Marudu","SBH"
"89108","Kota Marudu - Tiket Serahan Tingkap","Kota Marudu","SBH"
"89109","Kota Marudu - Beg berkunci","Kota Marudu","SBH"
"89150","Kadamaian","Kota Belud","SBH"
"89150","Kampung Kelawat","Kota Belud","SBH"
"89150","Kampung Taginambor","Kota Belud","SBH"
"89150","Kota Belud","Kota Belud","SBH"
"89150","Tempasuk","Kota Belud","SBH"
"89150","Usukan","Kota Belud","SBH"
"89157","Kota Belud - Peti surat","Kota Belud","SBH"
"89158","Kota Belud - Tiket Serahan Tingkap","Kota Belud","SBH"
"89159","Kota Belud - Beg berkunci","Kota Belud","SBH"
"89200","Berungis","Tuaran","SBH"
"89200","Kampung Bakut","Tuaran","SBH"
"89200","Kampung Baru-Baru","Tuaran","SBH"
"89200","Kampung Laya-Laya","Tuaran","SBH"
"89200","Kampung Mengkabong","Tuaran","SBH"
"89200","Sulaman","Tuaran","SBH"
"89200","Tuaran","Tuaran","SBH"
"89207","Tuaran - Peti surat","Tuaran","SBH"
"89208","Tuaran - Tiket Serahan Tingkap","Tuaran","SBH"
"89209","Tuaran - Beg berkunci","Tuaran","SBH"
"89250","Kampung Kiulu","Tamparuli","SBH"
"89250","Kampung Topokan","Tamparuli","SBH"
"89250","Tamparuli","Tamparuli","SBH"
"89257","Tamparuli - Peti surat","Tamparuli","SBH"
"89258","Tamparuli - Tiket Serahan Tingkap","Tamparuli","SBH"
"89259","Tamparuli - Beg berkunci","Tamparuli","SBH"
"89260","Bongawan - Peti Surat","Beverly","SBH"
"89260","Bundu Tuhan","Tenghilan","SBH"
"89260","Tenghilan","Tenghilan","SBH"
"89300","Kampung Bangkod","Ranau","SBH"
"89300","Kampung Kundasang","Ranau","SBH"
"89300","Kampung Lohan","Ranau","SBH"
"89300","Kampung Malinsau","Ranau","SBH"
"89300","Kampung Nabalu","Ranau","SBH"
"89300","Kampung Nalapak","Ranau","SBH"
"89300","Kampung Panginatan","Ranau","SBH"
"89300","Kampung Tagudon","Ranau","SBH"
"89300","Kampung Tampios","Ranau","SBH"
"89300","Kampung Timbua","Ranau","SBH"
"89300","Kundasang","Ranau","SBH"
"89300","Namaus","Ranau","SBH"
"89300","Ranau","Ranau","SBH"
"89300","Tenghilan","Ranau","SBH"
"89307","Ranau - Peti surat","Ranau","SBH"
"89308","Ranau - Tiket Serahan Tingkap","Ranau","SBH"
"89309","Ranau - Beg berkunci","Ranau","SBH"
"89500","Jalan Penampang","Penampang","SBH"
"89500","Jalan Tambunan","Penampang","SBH"
"89500","Kampung Babagon","Penampang","SBH"
"89500","Kampung Kolopis","Penampang","SBH"
"89500","Kampung Limbanak","Penampang","SBH"
"89500","Kampung Maang","Penampang","SBH"
"89500","Kampung Mahanoi","Penampang","SBH"
"89500","Kampung Terawi","Penampang","SBH"
"89500","Kampung Tombovo","Penampang","SBH"
"89500","Penampang","Penampang","SBH"
"89507","Penampang - Peti Surat","Penampang","SBH"
"89508","Penampang - Tiket Serahan Tingkap","Penampang","SBH"
"89509","Penampang - Beg berkunci","Penampang","SBH"
"89600","Kampung Benoni","Papar","SBH"
"89600","Kampung Limbahau","Papar","SBH"
"89600","Kampung Nagapas","Papar","SBH"
"89600","Kawang","Papar","SBH"
"89600","Pantai Manis","Papar","SBH"
"89600","Papar","Papar","SBH"
"89600","Pengalat Besar","Papar","SBH"
"89607","Papar - Peti surat","Papar","SBH"
"89608","Papar - Tiket Serahan Tingkap","Papar","SBH"
"89609","Papar - Beg berkunci","Papar","SBH"
"89650","Kampung Kapayan","Tambunan","SBH"
"89650","Kampung Mansarulung","Tambunan","SBH"
"89650","Kampung Nabayan","Tambunan","SBH"
"89650","Kampung Patau","Tambunan","SBH"
"89650","Kampung Sinsuron","Tambunan","SBH"
"89650","Kampung Toboh","Tambunan","SBH"
"89650","Tambunan","Tambunan","SBH"
"89657","Tambunan - Peti surat","Tambunan","SBH"
"89658","Tambunan - Tiket Serahan Tingkap","Tambunan","SBH"
"89659","Tambunan - Beg berkunci","Tambunan","SBH"
"89700","Bongawan","Bongawan","SBH"
"89707","Bongawan - Peti Surat","Bongawan","SBH"
"89708","Bongawan - Tiket Serahan Tingkap","Bongawan","SBH"
"89709","Bongawan - Karung Berkunci","Bongawan","SBH"
"89720","Kampung Binsulok","Membakut","SBH"
"89720","Klias","Membakut","SBH"
"89720","Membakut","Membakut","SBH"
"89727","Membakut - Peti surat","Membakut","SBH"
"89728","Membakut - Tiket Serahan Tingkap","Membakut","SBH"
"89729","Membakut - Beg berkunci","Membakut","SBH"
"89740","Kampung Batu Lintang","Kuala Penyu","SBH"
"89740","Kampung Kerukan","Kuala Penyu","SBH"
"89740","Kampung Mansud","Kuala Penyu","SBH"
"89740","Kampung Palu-Palu","Kuala Penyu","SBH"
"89740","Kampung Tempurong","Kuala Penyu","SBH"
"89740","Kuala Penyu","Kuala Penyu","SBH"
"89747","Kuala Penyu - Peti surat","Kuala Penyu","SBH"
"89748","Kuala Penyu - Tiket Serahan Tingkap","Kuala Penyu","SBH"
"89749","Kuala Penyu - Beg berkunci","Kuala Penyu","SBH"
"89760","Kampung Lambidan","Menumbok","SBH"
"89760","Kampung Malikai","Menumbok","SBH"
"89760","Kampung Sangkabok","Menumbok","SBH"
"89760","Menumbok","Menumbok","SBH"
"89767","Menumbok - Peti surat","Menumbok","SBH"
"89768","Menumbok - Tiket Serahan Tingkap","Menumbok","SBH"
"89769","Menumbok - Beg berkunci","Menumbok","SBH"
"89800","Beaufort","Beaufort","SBH"
"89800","Kampung Bingkul","Beaufort","SBH"
"89800","Kampung Bukau","Beaufort","SBH"
"89800","Kampung Gadong","Beaufort","SBH"
"89800","Kampung Kabajang","Beaufort","SBH"
"89800","Kampung Lingkongan","Beaufort","SBH"
"89800","Kampung Lumadan","Beaufort","SBH"
"89800","Kampung Simpagar","Beaufort","SBH"
"89800","Kampung Suasa","Beaufort","SBH"
"89800","Kota Klias","Beaufort","SBH"
"89800","Padas Damit","Beaufort","SBH"
"89800","Weston","Beaufort","SBH"
"89807","Beaufort - Peti Surat","Beaufort","SBH"
"89808","Beaufort- Tiket Serahan Tingkap","Beaufort","SBH"
"89809","Beaufort - Karung Berkunci","Beaufort","SBH"
"89850","Kampung Melaman","Sipitang","SBH"
"89850","Kampung Pelakat","Sipitang","SBH"
"89850","Mesapol","Sipitang","SBH"
"89850","Sindumin","Sipitang","SBH"
"89850","Sipitang","Sipitang","SBH"
"89857","Sipitang - Peti surat","Sipitang","SBH"
"89858","Sipitang - Tiket Serahan Tingkap","Sipitang","SBH"
"89859","Sipitang - Beg berkunci","Sipitang","SBH"
"89900","Kampung Kemabong","Tenom","SBH"
"89900","Melalap","Tenom","SBH"
"89900","Melutut","Tenom","SBH"
"89900","Tenom","Tenom","SBH"
"89907","Tenom - Peti surat","Tenom","SBH"
"89908","Tenom - Tiket Serahan Tingkap","Tenom","SBH"
"89909","Tenom - Beg berkunci","Tenom","SBH"
"89950","Nabawan","Nabawan","SBH"
"89950","Pensiangan","Nabawan","SBH"
"89950","Sepulot","Nabawan","SBH"
"89957","Nabawan - Peti surat","Nabawan","SBH"
"89958","Nabawan - Tiket Serahan Tingkap","Nabawan","SBH"
"89959","Nabawan - Beg berkunci","Nabawan","SBH"
"90000","Bandar Laila","Sandakan","SBH"
"90000","Bandar Ramai - Ramai","Sandakan","SBH"
"90000","Elopura","Sandakan","SBH"
"90000","Jalan Labuk (Batu 36)","Sandakan","SBH"
"90000","Kampung B.D.C.","Sandakan","SBH"
"90000","Kampung Damai","Sandakan","SBH"
"90000","Kampung Karamunting","Sandakan","SBH"
"90000","Kampung Seri Taman","Sandakan","SBH"
"90000","Kampung Sim-Sim","Sandakan","SBH"
"90000","Kampung Sungai Manila","Sandakan","SBH"
"90000","Kampung Tambisan","Sandakan","SBH"
"90000","Kampung Tongud","Sandakan","SBH"
"90000","Labuk (Batu 9,11,13,15,& 17)","Sandakan","SBH"
"90000","Ladang Segaliud","Sandakan","SBH"
"90000","Rumah Persekutuan","Sandakan","SBH"
"90000","Sabah Palm Estate","Sandakan","SBH"
"90000","Sandakan","Sandakan","SBH"
"90000","Taman Sibuga","Sandakan","SBH"
"90000","Tanjung Papat","Sandakan","SBH"
"90000","Tonggod","Sandakan","SBH"
"90000","Ulu Dusun","Sandakan","SBH"
"90009","Sandakan - Beg berkunci","Sandakan","SBH"
"90100","Beluran","Beluran","SBH"
"90100","Labuk","Beluran","SBH"
"90100","Sugut","Beluran","SBH"
"90107","Beluran - Peti surat","Beluran","SBH"
"90109","Beluran - Beg berkunci","Beluran","SBH"
"90200","Kota Kinabatangan","Kota Kinabatangan","SBH"
"90200","Kuamut","Kota Kinabatangan","SBH"
"90200","Sekong","Kota Kinabatangan","SBH"
"90200","Sukau","Kota Kinabatangan","SBH"
"90300","Jalan Utara (Batu 1 1/2 )","Sandakan","SBH"
"90307","Peti Surat - 1- 200 Batu 1 1/2 Jalan Utara","Sandakan","SBH"
"90400","Pamol","Pamol","SBH"
"90700","Sandakan - Peti surat 1 - 60","Sandakan","SBH"
"90701","Sandakan - Peti surat 61 - 160","Sandakan","SBH"
"90702","Sandakan - Peti surat 161 - 260","Sandakan","SBH"
"90703","Sandakan - Peti surat 261 - 340","Sandakan","SBH"
"90704","Sandakan - Peti surat 341 - 430","Sandakan","SBH"
"90705","Sandakan - Peti surat 431 - 520","Sandakan","SBH"
"90706","Sandakan - Peti surat 521 - 600","Sandakan","SBH"
"90707","Sandakan - Peti surat 601 - 700","Sandakan","SBH"
"90708","Sandakan - Peti surat 701 - 800","Sandakan","SBH"
"90709","Sandakan - Peti surat 801 - 880","Sandakan","SBH"
"90711","Sandakan - Peti surat 801 - 1080","Sandakan","SBH"
"90712","Sandakan - Peti surat 1081 - 1160","Sandakan","SBH"
"90713","Sandakan - Peti surat 1161 - 1260","Sandakan","SBH"
"90714","Sandakan - Peti surat 1261 - 1360","Sandakan","SBH"
"90715","Sandakan - Peti surat 1361 - 1440","Sandakan","SBH"
"90716","Sandakan - Peti surat 1441 - 1530","Sandakan","SBH"
"90717","Sandakan - Peti surat 1531 - 1620","Sandakan","SBH"
"90718","Sandakan - Peti surat 1621 - 1700","Sandakan","SBH"
"90719","Sandakan - Peti surat 1701 - 1780","Sandakan","SBH"
"90720","Sandakan - Peti surat 1781 - 1860","Sandakan","SBH"
"90721","Sandakan - Peti surat 1861 - 1940","Sandakan","SBH"
"90722","Sandakan - Peti surat 1941 - 2020","Sandakan","SBH"
"90723","Sandakan - Peti surat 2021 -2100","Sandakan","SBH"
"90724","Sandakan - Peti surat 2101 - 2190","Sandakan","SBH"
"90725","Sandakan - Peti surat 2191 - 2280","Sandakan","SBH"
"90726","Sandakan - Peti surat 2281 - 2360","Sandakan","SBH"
"90727","Sandakan - Peti surat 2361 - 2460","Sandakan","SBH"
"90728","Sandakan - Peti surat 2461 - 2560","Sandakan","SBH"
"90729","Sandakan - Peti surat 2561 - 2640","Sandakan","SBH"
"90730","Sandakan - Peti surat 2641 - 2740","Sandakan","SBH"
"90731","Sandakan - Peti surat 2741 - 2840","Sandakan","SBH"
"90732","Sandakan - Peti surat 2841 - 2920","Sandakan","SBH"
"90733","Sandakan - Peti surat 2921 - 3020","Sandakan","SBH"
"90734","Sandakan - Peti surat 3021 - 3120","Sandakan","SBH"
"90735","Sandakan - Peti surat 3121 - 3200","Sandakan","SBH"
"90736","Sandakan - Peti surat 3201 - 3290","Sandakan","SBH"
"90737","Sandakan - Peti surat 3291 - 3380","Sandakan","SBH"
"90738","Sandakan - Peti surat 3381 - 3460","Sandakan","SBH"
"90739","Sandakan - Peti surat 3461 - 3560","Sandakan","SBH"
"90740","Sandakan - Peti surat 3561 - 3660","Sandakan","SBH"
"90741","Sandakan - Peti surat 3661 - 3720","Sandakan","SBH"
"91000","Ambar Park","Tawau","SBH"
"91000","Apas Balung","Tawau","SBH"
"91000","Balung","Tawau","SBH"
"91000","Bandar Sabindo","Tawau","SBH"
"91000","Berumas","Tawau","SBH"
"91000","Bommalai","Tawau","SBH"
"91000","Brantian","Tawau","SBH"
"91000","Check Point","Tawau","SBH"
"91000","Jalan Apas (Batu 5 1/2)","Tawau","SBH"
"91000","Kalabakan","Tawau","SBH"
"91000","Kampung Jawa","Tawau","SBH"
"91000","Kampung Tanjong Batu Darat","Tawau","SBH"
"91000","Kampung Tanjong Batu Laut","Tawau","SBH"
"91000","Kampung Titingan","Tawau","SBH"
"91000","Kampung Ulu Tiku","Tawau","SBH"
"91000","Merotai Estate","Tawau","SBH"
"91000","Merotai","Tawau","SBH"
"91000","Seri Tanjong","Tawau","SBH"
"91000","Sin On (Batu 5 1/2)","Tawau","SBH"
"91000","Tawau","Tawau","SBH"
"91007","Tawau - Peti surat 1 - 500","Tawau","SBH"
"91008","Tawau - Peti surat 500 & ke atas","Tawau","SBH"
"91009","Tawau - Beg berkunci","Tawau","SBH"
"91010","Tawau - Peti surat 60001 - 60100","Tawau","SBH"
"91011","Tawau - Peti surat 60101 - 60200","Tawau","SBH"
"91012","Tawau - Peti surat 60201 - 60230","Tawau","SBH"
"91013","Tawau - Peti surat 60301 - 60400","Tawau","SBH"
"91014","Tawau - Peti surat 60401 - 60500","Tawau","SBH"
"91015","Tawau - Peti surat 60501 - 60600","Tawau","SBH"
"91016","Tawau - Peti surat 60601 - 60700","Tawau","SBH"
"91017","Tawau - Peti surat 60701 - 60800","Tawau","SBH"
"91018","Tawau - Peti surat 60801 - 60900","Tawau","SBH"
"91019","Tawau - Peti surat 60901 - 61000","Tawau","SBH"
"91020","Tawau - Peti surat 61001 - 61100","Tawau","SBH"
"91021","Tawau - Peti surat 61101 - 61200","Tawau","SBH"
"91022","Tawau - Peti surat 61201 - 61300","Tawau","SBH"
"91023","Tawau - Peti surat 61301 - 61400","Tawau","SBH"
"91024","Tawau - Peti surat 61401 - 61500","Tawau","SBH"
"91025","Tawau - Peti surat 61501 - 61600","Tawau","SBH"
"91026","Tawau - Peti surat 61601 - 61700","Tawau","SBH"
"91027","Tawau - Peti surat 61701 - 61800","Tawau","SBH"
"91028","Tawau - Peti surat 61801 - 61900","Tawau","SBH"
"91029","Tawau - Peti surat 61901 - 62000","Tawau","SBH"
"91030","Tawau - Peti surat 62001 - 62100","Tawau","SBH"
"91031","Tawau - Peti surat 62101 - 62200","Tawau","SBH"
"91032","Tawau - Peti surat 62201 - 62300","Tawau","SBH"
"91033","Tawau - Peti surat 62301 - 62400","Tawau","SBH"
"91034","Tawau - Peti surat 62401 - 62500","Tawau","SBH"
"91035","Tawau - Peti surat 62501 - 62600","Tawau","SBH"
"91100","Kampung Sapagaya","Lahad Datu","SBH"
"91100","Kampung Silabukan","Lahad Datu","SBH"
"91100","Kampung Tengah Nipah","Lahad Datu","SBH"
"91100","Kampung Tungku","Lahad Datu","SBH"
"91100","Lahad Datu","Lahad Datu","SBH"
"91100","Segama Pangkalan","Lahad Datu","SBH"
"91100","Tungku","Lahad Datu","SBH"
"91109","Lahad Datu - Beg berkunci","Lahad Datu","SBH"
"91110","Lahad Datu - Peti surat 60001 - 60120","Lahad Datu","SBH"
"91111","Lahad Datu - Peti surat 60121 - 60240","Lahad Datu","SBH"
"91112","Lahad Datu - Peti surat 60241 - 60360","Lahad Datu","SBH"
"91113","Lahad Datu - Peti surat 60361 - 60440","Lahad Datu","SBH"
"91114","Lahad Datu - Peti surat 60441 - 60560","Lahad Datu","SBH"
"91115","Lahad Datu - Peti surat 60561 - 60680","Lahad Datu","SBH"
"91116","Lahad Datu - Peti surat 60681 - 60760","Lahad Datu","SBH"
"91117","Lahad Datu - Peti surat 60761 - 60880","Lahad Datu","SBH"
"91118","Lahad Datu - Peti surat 60881 - 61000","Lahad Datu","SBH"
"91119","Lahad Datu - Peti surat 61001 - 61080","Lahad Datu","SBH"
"91120","Lahad Datu - Peti surat 61081 - 61200","Lahad Datu","SBH"
"91121","Lahad Datu - Peti surat 61201 - 61320","Lahad Datu","SBH"
"91122","Lahad Datu - Peti surat 61321 - 61440","Lahad Datu","SBH"
"91123","Lahad Datu - Peti surat 61441 - 61560","Lahad Datu","SBH"
"91124","Lahad Datu - Peti surat 61561 - 61640","Lahad Datu","SBH"
"91125","Lahad Datu - Peti surat 61641 - 61760","Lahad Datu","SBH"
"91126","Lahad Datu - Peti surat 61761 - 61880","Lahad Datu","SBH"
"91127","Lahad Datu - Peti surat 61881 - 61960","Lahad Datu","SBH"
"91128","Lahad Datu - Peti surat 61961 - 62480","Lahad Datu","SBH"
"91150","Cenderawasih","Lahad Datu","SBH"
"91200","Kunak","Kunak","SBH"
"91200","Ladang Giram","Kunak","SBH"
"91207","Kunak - Peti surat","Kunak","SBH"
"91209","Kunak - Beg berkunci","Kunak","SBH"
"91300","Semporna","Semporna","SBH"
"91300","Senallang","Semporna","SBH"
"91300","Sulabayan","Semporna","SBH"
"91307","Semporna - Peti surat 1 - 80","Semporna","SBH"
"91308","Semporna - Peti surat 81 & ke atas","Semporna","SBH"
"91309","Semporna - Beg berkunci","Semporna","SBH"