"POSTCODE","ADDRESS","CITY","STATE"
"93000","Jalan Badruddin","Kuching","SRW"
"93000","Jalan Barrack","Kuching","SRW"
"93000","Jalan Court House","Kuching","SRW"
"93000","Jalan Crookshank","Kuching","SRW"
"93000","Jalan Gambier","Kuching","SRW"
"93000","Jalan Golflink","Kuching","SRW"
"93000","Jalan Hokkien","Kuching","SRW"
"93000","Jalan Hospital Timur","Kuching","SRW"
"93000","Jalan Main Bazaar","Kuching","SRW"
"93000","Jalan Maxwell","Kuching","SRW"
"93000","Jalan Mcdougall","Kuching","SRW"
"93000","Jalan Mosque","Kuching","SRW"
"93000","Jalan Ong Kwan Hin","Kuching","SRW"
"93000","Jalan Reservoir","Kuching","SRW"
"93000","Jalan Rodway","Kuching","SRW"
"93000","Jalan Tun Abang Haji Openg","Kuching","SRW"
"93000","Jalan Wayang","Kuching","SRW"
"93000","Jalan Were","Kuching","SRW"
"93000","Ladang Ricketts","Kuching","SRW"
"93000","Lebuh Bishopgate","Kuching","SRW"
"93000","Lebuh Carpenter","Kuching","SRW"
"93000","Lebuh China","Kuching","SRW"
"93000","Lebuh Ewe Hai","Kuching","SRW"
"93000","Lebuh Gartak","Kuching","SRW"
"93000","Lebuh India","Kuching","SRW"
"93000","Lebuh Java","Kuching","SRW"
"93000","Lebuh Khoo Hun Yeang","Kuching","SRW"
"93000","Lebuh Market","Kuching","SRW"
"93000","Lebuh Power","Kuching","SRW"
"93000","Lebuh Ulu China","Kuching","SRW"
"93000","Lebuh Wayang 1","Kuching","SRW"
"93000","Lebuh Wayang 2","Kuching","SRW"
"93000","Lorong Ban Hock","Kuching","SRW"
"93000","Lorong Carmelite","Kuching","SRW"
"93000","Lorong Dock","Kuching","SRW"
"93000","Lorong Gertak","Kuching","SRW"
"93000","Lorong Kai Joo","Kuching","SRW"
"93000","Lorong Masjid","Kuching","SRW"
"93000","Lorong Mesjid India","Kuching","SRW"
"93000","Pengkalan Jeti","Kuching","SRW"
"93000","Persiaran Mill","Kuching","SRW"
"93000","Taman Budaya","Kuching","SRW"
"93000","Taman Oriental","Kuching","SRW"
"93000","Taman Ricketts","Kuching","SRW"
"93010","Bengoh","Kuching","SRW"
"93010","Kampung Anah Rais","Kuching","SRW"
"93010","Kampung Bako","Kuching","SRW"
"93010","Kampung Baru Samarahan","Kuching","SRW"
"93010","Kampung Beliong","Kuching","SRW"
"93010","Kampung Bengoh Padawan","Kuching","SRW"
"93010","Kampung Bratok","Kuching","SRW"
"93010","Kampung Bukit Panchor","Kuching","SRW"
"93010","Kampung Buntal","Kuching","SRW"
"93010","Kampung Bunuk","Kuching","SRW"
"93010","Kampung Geobilt","Kuching","SRW"
"93010","Kampung Karu","Kuching","SRW"
"93010","Kampung Lintang Baru","Kuching","SRW"
"93010","Kampung Mambong","Kuching","SRW"
"93010","Kampung Muhibah (Seberang Pending)","Kuching","SRW"
"93010","Kampung Pasir Pandak","Kuching","SRW"
"93010","Kampung Paya Mebi","Kuching","SRW"
"93010","Kampung Rambungan","Kuching","SRW"
"93010","Kampung Salak","Kuching","SRW"
"93010","Kampung Sejingat","Kuching","SRW"
"93010","Kampung Semadang","Kuching","SRW"
"93010","Kampung Semedang","Kuching","SRW"
"93010","Kampung Semilang","Kuching","SRW"
"93010","Kampung Simpok","Kuching","SRW"
"93010","Kampung Stoh","Kuching","SRW"
"93010","Kampung Tapah","Kuching","SRW"
"93010","Kampung Terambol","Kuching","SRW"
"93010","Kolong Lapan","Kuching","SRW"
"93010","Muara Tebas","Kuching","SRW"
"93010","Pantai Damai","Kuching","SRW"
"93010","Santubong","Kuching","SRW"
"93010","Semenggok (Batu 15)","Kuching","SRW"
"93010","Tiang Bekap","Kuching","SRW"
"93050","Bintawa Batu","Kuching","SRW"
"93050","Demak Laut","Kuching","SRW"
"93050","Demak","Kuching","SRW"
"93050","Gita Laut Tengah","Kuching","SRW"
"93050","Gita Laut","Kuching","SRW"
"93050","Jalan Astana Lot","Kuching","SRW"
"93050","Jalan Astana","Kuching","SRW"
"93050","Jalan Bako","Kuching","SRW"
"93050","Jalan Bangau","Kuching","SRW"
"93050","Jalan Belian","Kuching","SRW"
"93050","Jalan Bukit Siol","Kuching","SRW"
"93050","Jalan Bunga Cempaka (Kampung Gita)","Kuching","SRW"
"93050","Jalan Bunga Engkodok (Kampung Gita)","Kuching","SRW"
"93050","Jalan Bunga Kasturi (Kampung Gita)","Kuching","SRW"
"93050","Jalan Bunga Kenanga (Kampung Gita)","Kuching","SRW"
"93050","Jalan Bunga Melati (Kampung Gita)","Kuching","SRW"
"93050","Jalan Bunga Melor (Kampung Gita)","Kuching","SRW"
"93050","Jalan Bunga Raya (Kampung Gita)","Kuching","SRW"
"93050","Jalan Bunga Rose (Kampung Gita)","Kuching","SRW"
"93050","Jalan Bunga Tanjung (Kampung Gita)","Kuching","SRW"
"93050","Jalan Bunga Teratai (Kampung Gita)","Kuching","SRW"
"93050","Jalan Bunga Tiong (Kampung Gita)","Kuching","SRW"
"93050","Jalan Bunga Tongkeng (Kampung Gita)","Kuching","SRW"
"93050","Jalan Cederawasih","Kuching","SRW"
"93050","Jalan Crocker","Kuching","SRW"
"93050","Jalan Depo","Kuching","SRW"
"93050","Jalan Enggang","Kuching","SRW"
"93050","Jalan Field Force","Kuching","SRW"
"93050","Jalan Gani","Kuching","SRW"
"93050","Jalan Geruda","Kuching","SRW"
"93050","Jalan Haji Sobeng","Kuching","SRW"
"93050","Jalan Hashim Jaafar","Kuching","SRW"
"93050","Jalan Helang","Kuching","SRW"
"93050","Jalan Istana Lama","Kuching","SRW"
"93050","Jalan Istana","Kuching","SRW"
"93050","Jalan Juara","Kuching","SRW"
"93050","Jalan Kenari","Kuching","SRW"
"93050","Jalan Layang-Layang","Kuching","SRW"
"93050","Jalan Matang","Kuching","SRW"
"93050","Jalan Medang","Kuching","SRW"
"93050","Jalan Melindo","Kuching","SRW"
"93050","Jalan Menggeris","Kuching","SRW"
"93050","Jalan Merak","Kuching","SRW"
"93050","Jalan Merdeka","Kuching","SRW"
"93050","Jalan Pedidi","Kuching","SRW"
"93050","Jalan Perupok","Kuching","SRW"
"93050","Jalan Piala","Kuching","SRW"
"93050","Jalan Punai","Kuching","SRW"
"93050","Jalan Pustaka","Kuching","SRW"
"93050","Jalan Rajawali","Kuching","SRW"
"93050","Jalan Saadon","Kuching","SRW"
"93050","Jalan Samariang Batu","Kuching","SRW"
"93050","Jalan Samariang","Kuching","SRW"
"93050","Jalan Semarak","Kuching","SRW"
"93050","Jalan Semariang Lot","Kuching","SRW"
"93050","Jalan Semariang","Kuching","SRW"
"93050","Jalan Sentubong","Kuching","SRW"
"93050","Jalan Serunai","Kuching","SRW"
"93050","Jalan Siol Kanan","Kuching","SRW"
"93050","Jalan Siol Kandis","Kuching","SRW"
"93050","Jalan Sultan Tengah","Kuching","SRW"
"93050","Jalan Sungai Tengah Kolong","Kuching","SRW"
"93050","Jalan Tan Sri Abang Ikhwan","Kuching","SRW"
"93050","Jalan Tun Abdul Rahman Yakub","Kuching","SRW"
"93050","Jalan Unggas","Kuching","SRW"
"93050","Kampung Bintawa Hilir","Kuching","SRW"
"93050","Kampung Bintawa Hulu","Kuching","SRW"
"93050","Kampung Bintawa Tengah","Kuching","SRW"
"93050","Kampung Boyan","Kuching","SRW"
"93050","Kampung Gersik","Kuching","SRW"
"93050","Kampung Gita Lama","Kuching","SRW"
"93050","Kampung Gita Laut","Kuching","SRW"
"93050","Kampung Heritage","Kuching","SRW"
"93050","Kampung Kapitan Nandak","Kuching","SRW"
"93050","Kampung Kolong 1","Kuching","SRW"
"93050","Kampung Lada Pedas","Kuching","SRW"
"93050","Kampung Laruh Scheme","Kuching","SRW"
"93050","Kampung Lintang","Kuching","SRW"
"93050","Kampung Malaysia Jaya","Kuching","SRW"
"93050","Kampung Matang Batu 10","Kuching","SRW"
"93050","Kampung Nangka (Jalan Matang)","Kuching","SRW"
"93050","Kampung Panglima Seman Hilir","Kuching","SRW"
"93050","Kampung Panglima Seman Hulu","Kuching","SRW"
"93050","Kampung Panglima Seman Lama","Kuching","SRW"
"93050","Kampung Panglima Seman","Kuching","SRW"
"93050","Kampung Pinang Jawa","Kuching","SRW"
"93050","Kampung Pulo Hilir","Kuching","SRW"
"93050","Kampung Pulo Hulu","Kuching","SRW"
"93050","Kampung Rampangi 1 - 3","Kuching","SRW"
"93050","Kampung Semarang","Kuching","SRW"
"93050","Kampung Semariang Batu","Kuching","SRW"
"93050","Kampung Semariang Jaya (Fasa 1 - 2) ","Kuching","SRW"
"93050","Kampung Semariang Lama","Kuching","SRW"
"93050","Kampung Semerah Padi","Kuching","SRW"
"93050","Kampung Sinjan","Kuching","SRW"
"93050","Kampung Siol Kandis Jalan Siol Kandis","Kuching","SRW"
"93050","Kampung Stadium","Kuching","SRW"
"93050","Kampung Sungai Bedil Besar","Kuching","SRW"
"93050","Kampung Sungai Bedil Kecil","Kuching","SRW"
"93050","Kampung Surabaya Hilir","Kuching","SRW"
"93050","Kampung Surabaya Hulu","Kuching","SRW"
"93050","Kampung Tanjung","Kuching","SRW"
"93050","Kampung Tupong Astana","Kuching","SRW"
"93050","Kampung Tupong Batu","Kuching","SRW"
"93050","Kampung Tupong Hulu","Kuching","SRW"
"93050","Kampung Tupong Jaya Jalan Merdeka","Kuching","SRW"
"93050","Kampung Tupong Tengah","Kuching","SRW"
"93050","Kampung Tupong","Kuching","SRW"
"93050","Kampung Wawasan Jaya","Kuching","SRW"
"93050","Kubah Ria","Kuching","SRW"
"93050","Kuching Family Park","Kuching","SRW"
"93050","Lorong 1 - 4 Jalan Istana","Kuching","SRW"
"93050","Lorong Haji Babel","Kuching","SRW"
"93050","Lorong Haji Said","Kuching","SRW"
"93050","Lorong Mustaffa","Kuching","SRW"
"93050","Lorong Penghulu Sudin","Kuching","SRW"
"93050","Pengkalan Sapi","Kuching","SRW"
"93050","Perumahan Rakyat Siol Kanan","Kuching","SRW"
"93050","Petra Jaya","Kuching","SRW"
"93050","Semarak Pinang Jawa","Kuching","SRW"
"93050","Semariang Aman (Phase 1 - 2)","Kuching","SRW"
"93050","Semariang Bandar Baru (Phase 1 - 5)","Kuching","SRW"
"93050","Semariang","Kuching","SRW"
"93050","Semerah Padi","Kuching","SRW"
"93050","Siol Kandis","Kuching","SRW"
"93050","Taman Abrar","Kuching","SRW"
"93050","Taman Ah Boon","Kuching","SRW"
"93050","Taman Aichi","Kuching","SRW"
"93050","Taman Alamanda Indah","Kuching","SRW"
"93050","Taman Alifah","Kuching","SRW"
"93050","Taman Amina","Kuching","SRW"
"93050","Taman Anib","Kuching","SRW"
"93050","Taman Asiah, Jalan Siol Kandis","Kuching","SRW"
"93050","Taman Bahjah","Kuching","SRW"
"93050","Taman Bersinar","Kuching","SRW"
"93050","Taman Bowood","Kuching","SRW"
"93050","Taman Bukit Mawar (Kampung Gita)","Kuching","SRW"
"93050","Taman Bunga Akasia","Kuching","SRW"
"93050","Taman Bunga Melati","Kuching","SRW"
"93050","Taman Bunga Raya","Kuching","SRW"
"93050","Taman Bunga Wangi","Kuching","SRW"
"93050","Taman Carisa","Kuching","SRW"
"93050","Taman Cresent","Kuching","SRW"
"93050","Taman Demak","Kuching","SRW"
"93050","Taman Desa Guru","Kuching","SRW"
"93050","Taman Desa Matang Jalan Matang Batu 3","Kuching","SRW"
"93050","Taman Desa Matang","Kuching","SRW"
"93050","Taman Dusun Bayu","Kuching","SRW"
"93050","Taman Dusun Indah","Kuching","SRW"
"93050","Taman Emas Jalan Depo","Kuching","SRW"
"93050","Taman Emas","Kuching","SRW"
"93050","Taman Fah Tah","Kuching","SRW"
"93050","Taman Farhanas","Kuching","SRW"
"93050","Taman Fitrah","Kuching","SRW"
"93050","Taman Foong Joon","Kuching","SRW"
"93050","Taman Gemilang, Jalan Matang","Kuching","SRW"
"93050","Taman Gita Jaya","Kuching","SRW"
"93050","Taman Grandview, Jalan Matang Batu 8","Kuching","SRW"
"93050","Taman Green View","Kuching","SRW"
"93050","Taman Haji Arshad Jalan Helang","Kuching","SRW"
"93050","Taman Hamimas Jaya","Kuching","SRW"
"93050","Taman Harmoni","Kuching","SRW"
"93050","Taman Heng Guan","Kuching","SRW"
"93050","Taman Heritage","Kuching","SRW"
"93050","Taman Hijrah","Kuching","SRW"
"93050","Taman Hillside","Kuching","SRW"
"93050","Taman Hipni","Kuching","SRW"
"93050","Taman Hussein","Kuching","SRW"
"93050","Taman Ibni Hasyim","Kuching","SRW"
"93050","Taman Ichi","Kuching","SRW"
"93050","Taman Inai Jalan Matang Batu 2 1/2","Kuching","SRW"
"93050","Taman Indah Fasa 1 - 2","Kuching","SRW"
"93050","Taman Inspire","Kuching","SRW"
"93050","Taman Juta Ria","Kuching","SRW"
"93050","Taman Kandis","Kuching","SRW"
"93050","Taman Kenanga","Kuching","SRW"
"93050","Taman Kopidim","Kuching","SRW"
"93050","Taman Kopodim,Jalan Matang","Kuching","SRW"
"93050","Taman Kubah Jaya","Kuching","SRW"
"93050","Taman Lake Side Jalan Sultan Tengah","Kuching","SRW"
"93050","Taman Larender","Kuching","SRW"
"93050","Taman Layang - Layang","Kuching","SRW"
"93050","Taman Lebunda","Kuching","SRW"
"93050","Taman Lee Ling","Kuching","SRW"
"93050","Taman Long Seng","Kuching","SRW"
"93050","Taman Madehi","Kuching","SRW"
"93050","Taman Makmur","Kuching","SRW"
"93050","Taman Malihah Jaya","Kuching","SRW"
"93050","Taman Malihah","Kuching","SRW"
"93050","Taman Mastura","Kuching","SRW"
"93050","Taman Matang Avenue Jalan Matang","Kuching","SRW"
"93050","Taman Matang Baru","Kuching","SRW"
"93050","Taman Matang Height","Kuching","SRW"
"93050","Taman Matang Indah Jalan Matang","Kuching","SRW"
"93050","Taman Matang Jaya","Kuching","SRW"
"93050","Taman Mawar","Kuching","SRW"
"93050","Taman Melati","Kuching","SRW"
"93050","Taman Monah","Kuching","SRW"
"93050","Taman Muhibbah","Kuching","SRW"
"93050","Taman Murni","Kuching","SRW"
"93050","Taman Nestle Jalan Bakti","Kuching","SRW"
"93050","Taman Norjesnita","Kuching","SRW"
"93050","Taman Orchidwood","Kuching","SRW"
"93050","Taman PJ Heights","Kuching","SRW"
"93050","Taman PRC","Kuching","SRW"
"93050","Taman Palma Indah","Kuching","SRW"
"93050","Taman Pandan Jaya","Kuching","SRW"
"93050","Taman Peaceful","Kuching","SRW"
"93050","Taman Pearl","Kuching","SRW"
"93050","Taman Peony","Kuching","SRW"
"93050","Taman Puteri (Phase 1 - 3)","Kuching","SRW"
"93050","Taman Puteri","Kuching","SRW"
"93050","Taman Rafia","Kuching","SRW"
"93050","Taman Rasa Jaya","Kuching","SRW"
"93050","Taman Rasa Makmur","Kuching","SRW"
"93050","Taman Rassnorm","Kuching","SRW"
"93050","Taman Regent (Petra Jaya)","Kuching","SRW"
"93050","Taman Riverview","Kuching","SRW"
"93050","Taman Rose","Kuching","SRW"
"93050","Taman Ruhaya","Kuching","SRW"
"93050","Taman S.K. Liew Jalan Batu Kawa - Matang","Kuching","SRW"
"93050","Taman Sajoli","Kuching","SRW"
"93050","Taman Salma","Kuching","SRW"
"93050","Taman Sebah Height","Kuching","SRW"
"93050","Taman Sejijak","Kuching","SRW"
"93050","Taman Selasih Jalan Cenderawasih Lorong 1A","Kuching","SRW"
"93050","Taman Semariang Aman","Kuching","SRW"
"93050","Taman Sepakat Jaya","Kuching","SRW"
"93050","Taman Sepawie","Kuching","SRW"
"93050","Taman Seri Kandis","Kuching","SRW"
"93050","Taman Seri Semerah Padi","Kuching","SRW"
"93050","Taman Seri Sena","Kuching","SRW"
"93050","Taman Seri Usang","Kuching","SRW"
"93050","Taman Serira","Kuching","SRW"
"93050","Taman Setia","Kuching","SRW"
"93050","Taman Sheikh Ismail","Kuching","SRW"
"93050","Taman Sinar Serapi","Kuching","SRW"
"93050","Taman Sonia","Kuching","SRW"
"93050","Taman Sourabaya Indah","Kuching","SRW"
"93050","Taman Sri Jaya","Kuching","SRW"
"93050","Taman Sri Makmur","Kuching","SRW"
"93050","Taman Sri Malihah 2","Kuching","SRW"
"93050","Taman Sri Matang","Kuching","SRW"
"93050","Taman Sri Melaga","Kuching","SRW"
"93050","Taman Sri Melati","Kuching","SRW"
"93050","Taman Sri Perkasa","Kuching","SRW"
"93050","Taman Sri Serapi","Kuching","SRW"
"93050","Taman Sri Wangi","Kuching","SRW"
"93050","Taman Sukma","Kuching","SRW"
"93050","Taman Surabaya","Kuching","SRW"
"93050","Taman Suria Jaya","Kuching","SRW"
"93050","Taman Syn Syn","Kuching","SRW"
"93050","Taman Tanjong","Kuching","SRW"
"93050","Taman Tatai Kumang","Kuching","SRW"
"93050","Taman Teratai","Kuching","SRW"
"93050","Taman Trinora","Kuching","SRW"
"93050","Taman Tupong Jaya","Kuching","SRW"
"93050","Taman Unique","Kuching","SRW"
"93050","Taman Wangi Indah Jalan Simpor","Kuching","SRW"
"93050","Taman Wangsa","Kuching","SRW"
"93050","Taman Wirajaya Jalan Bukit Siol","Kuching","SRW"
"93050","Taman Won Baru","Kuching","SRW"
"93050","Taman Won","Kuching","SRW"
"93050","Taman Wummas","Kuching","SRW"
"93050","Taman Yen Yen Park Jalan Matang","Kuching","SRW"
"93050","Taman Yen Yen","Kuching","SRW"
"93050","Tinggian Demak","Kuching","SRW"
"93050","Tupong Jaya Jalan Merdeka","Kuching","SRW"
"93100","Green Hill","Kuching","SRW"
"93100","Jalan Abell Utara","Kuching","SRW"
"93100","Jalan Abell","Kuching","SRW"
"93100","Jalan Ang Cheng Ho","Kuching","SRW"
"93100","Jalan Ban Hock Drive","Kuching","SRW"
"93100","Jalan Ban Hock","Kuching","SRW"
"93100","Jalan Blacksmith","Kuching","SRW"
"93100","Jalan Borneo","Kuching","SRW"
"93100","Jalan Bukit Mata","Kuching","SRW"
"93100","Jalan Central Garden","Kuching","SRW"
"93100","Jalan Chan Chin Ann","Kuching","SRW"
"93100","Jalan Deshon","Kuching","SRW"
"93100","Jalan Green Hill","Kuching","SRW"
"93100","Jalan Mathies","Kuching","SRW"
"93100","Jalan Nipah","Kuching","SRW"
"93100","Jalan Padungan Utara","Kuching","SRW"
"93100","Jalan Padungan","Kuching","SRW"
"93100","Jalan Petanak","Kuching","SRW"
"93100","Jalan Rumbia","Kuching","SRW"
"93100","Jalan Song Kheng Hai","Kuching","SRW"
"93100","Jalan Song Thian Cheok","Kuching","SRW"
"93100","Jalan Sungai Padungan","Kuching","SRW"
"93100","Jalan Tabuan (1 - 40)","Kuching","SRW"
"93100","Jalan Temple","Kuching","SRW"
"93100","Jalan Tukang Besi","Kuching","SRW"
"93100","Jalan Tunku Abdul Rahman","Kuching","SRW"
"93100","KMC Terrace House","Kuching","SRW"
"93100","Padungan Arcade","Kuching","SRW"
"93100","Persiaran Lucky","Kuching","SRW"
"93100","Rumah Pangsa MPK","Kuching","SRW"
"93100","Taman Central","Kuching","SRW"
"93100","Taman Goodland","Kuching","SRW"
"93100","Taman Kereta","Kuching","SRW"
"93100","Taman Padungan","Kuching","SRW"
"93100","Taman Song Kheng Hai","Kuching","SRW"
"93100","Taman Sri Sarawak","Kuching","SRW"
"93100","Wisma Pheonix","Kuching","SRW"
"93150","Green Road","Kuching","SRW"
"93150","Jalan Angsana","Kuching","SRW"
"93150","Jalan Cross","Kuching","SRW"
"93150","Jalan Emerald","Kuching","SRW"
"93150","Jalan Gold Jade","Kuching","SRW"
"93150","Jalan Green","Kuching","SRW"
"93150","Jalan Intan","Kuching","SRW"
"93150","Jalan Jambu","Kuching","SRW"
"93150","Jalan Kapor Lorong 8","Kuching","SRW"
"93150","Jalan Kapor","Kuching","SRW"
"93150","Jalan Kepayang","Kuching","SRW"
"93150","Jalan Keretapi","Kuching","SRW"
"93150","Jalan Merdeka (Off Jalan Green)","Kuching","SRW"
"93150","Jalan Ong Kee Hui","Kuching","SRW"
"93150","Jalan Pisang Barat","Kuching","SRW"
"93150","Jalan Poh Kwong Park","Kuching","SRW"
"93150","Jalan Sungai Maong Baru","Kuching","SRW"
"93150","Jalan Sungai Maong Hilir","Kuching","SRW"
"93150","Jalan Sungai Maong Hulu","Kuching","SRW"
"93150","Jalan Sungai Maong Tengah","Kuching","SRW"
"93150","Jalan Swee Joo Park","Kuching","SRW"
"93150","Kampung Sungai Maong","Kuching","SRW"
"93150","Lebuh Sockalingam","Kuching","SRW"
"93150","Lebuh Temple","Kuching","SRW"
"93150","Lorong Bintang","Kuching","SRW"
"93150","Lorong Bulan","Kuching","SRW"
"93150","Lorong Chu Su","Kuching","SRW"
"93150","Lorong Green 1","Kuching","SRW"
"93150","Lorong Kim Kiat","Kuching","SRW"
"93150","Lorong Kim Seng","Kuching","SRW"
"93150","Lorong Maleng","Kuching","SRW"
"93150","Lower Sungei Maong","Kuching","SRW"
"93150","Persiaran Crooke","Kuching","SRW"
"93150","Persiaran Rainbow","Kuching","SRW"
"93150","Persiaran St Paul","Kuching","SRW"
"93150","Sungai Maong Bharu","Kuching","SRW"
"93150","Sungai Maong Hilir","Kuching","SRW"
"93150","Sungai Maong Tengah","Kuching","SRW"
"93150","Taman Begawut","Kuching","SRW"
"93150","Taman Bigawa","Kuching","SRW"
"93150","Taman Charming","Kuching","SRW"
"93150","Taman Chin Siew","Kuching","SRW"
"93150","Taman Chong Hin","Kuching","SRW"
"93150","Taman Cloud","Kuching","SRW"
"93150","Taman Eastern","Kuching","SRW"
"93150","Taman Empire","Kuching","SRW"
"93150","Taman Exceller","Kuching","SRW"
"93150","Taman Federal","Kuching","SRW"
"93150","Taman Flourishing","Kuching","SRW"
"93150","Taman Hock Seng Lee","Kuching","SRW"
"93150","Taman Hongnion","Kuching","SRW"
"93150","Taman Hugrow","Kuching","SRW"
"93150","Taman Kapor","Kuching","SRW"
"93150","Taman Khee Moi","Kuching","SRW"
"93150","Taman King Dom","Kuching","SRW"
"93150","Taman KingBurg Home","Kuching","SRW"
"93150","Taman Kok Ban Hong","Kuching","SRW"
"93150","Taman Legendry Villa","Kuching","SRW"
"93150","Taman Lian Kwong","Kuching","SRW"
"93150","Taman Literature Villa","Kuching","SRW"
"93150","Taman Luxus","Kuching","SRW"
"93150","Taman Maong","Kuching","SRW"
"93150","Taman May Ling","Kuching","SRW"
"93150","Taman Mimpi","Kuching","SRW"
"93150","Taman Pauline","Kuching","SRW"
"93150","Taman Pigawa","Kuching","SRW"
"93150","Taman Pisang","Kuching","SRW"
"93150","Taman Poh Kwong","Kuching","SRW"
"93150","Taman Prince","Kuching","SRW"
"93150","Taman Regent (Sungai Maong Tengah)","Kuching","SRW"
"93150","Taman Ros (Sungai Maong Tengah)","Kuching","SRW"
"93150","Taman Ruby","Kuching","SRW"
"93150","Taman Sentiasa","Kuching","SRW"
"93150","Taman Sin Sin","Kuching","SRW"
"93150","Taman Sky","Kuching","SRW"
"93150","Taman Stapok Height","Kuching","SRW"
"93150","Taman Star","Kuching","SRW"
"93150","Taman Sungai Maong","Kuching","SRW"
"93150","Taman Sunrise","Kuching","SRW"
"93150","Taman Swee Joo","Kuching","SRW"
"93150","Taman Wee & Wee","Kuching","SRW"
"93200","Batu Lintang","Kuching","SRW"
"93200","Halaman Kim San","Kuching","SRW"
"93200","Jalan Bampfylde","Kuching","SRW"
"93200","Jalan Batu Kinyang","Kuching","SRW"
"93200","Jalan Batu Lintang","Kuching","SRW"
"93200","Jalan Bidayuh","Kuching","SRW"
"93200","Jalan Bisayah","Kuching","SRW"
"93200","Jalan Bukit Antu","Kuching","SRW"
"93200","Jalan Bukit Lintang","Kuching","SRW"
"93200","Jalan Bukitan","Kuching","SRW"
"93200","Jalan Chua Say Chat","Kuching","SRW"
"93200","Jalan Datin Wee Siew Eng","Kuching","SRW"
"93200","Jalan Datuk Hamdan","Kuching","SRW"
"93200","Jalan Dusun","Kuching","SRW"
"93200","Jalan Hua Joo","Kuching","SRW"
"93200","Jalan Keretapi (Batu 3)","Kuching","SRW"
"93200","Jalan Kolej","Kuching","SRW"
"93200","Jalan Kumpang","Kuching","SRW"
"93200","Jalan Lintang Park","Kuching","SRW"
"93200","Jalan Lintang Selatan","Kuching","SRW"
"93200","Jalan Lowlands","Kuching","SRW"
"93200","Jalan Manggis","Kuching","SRW"
"93200","Jalan Mendu","Kuching","SRW"
"93200","Jalan Midland","Kuching","SRW"
"93200","Jalan Midlands","Kuching","SRW"
"93200","Jalan Nangka (Batu Lintang)","Kuching","SRW"
"93200","Jalan Nyiur","Kuching","SRW"
"93200","Jalan Ong Hup Leong","Kuching","SRW"
"93200","Jalan Ong Tiang Swee","Kuching","SRW"
"93200","Jalan Ridgeway","Kuching","SRW"
"93200","Jalan Rock","Kuching","SRW"
"93200","Jalan Rockview","Kuching","SRW"
"93200","Jalan Simpang Tiga","Kuching","SRW"
"93200","Jalan Tabuan (41 & ke atas)","Kuching","SRW"
"93200","Jalan Tai Tshin Jar","Kuching","SRW"
"93200","Jalan Thian Guan","Kuching","SRW"
"93200","Jalan Tong Wei Tah","Kuching","SRW"
"93200","Jalan Tun Ahmad Zaidi Adruce","Kuching","SRW"
"93200","Jalan Wee Boon Ping","Kuching","SRW"
"93200","Jalan Wee Seng Goon","Kuching","SRW"
"93200","Kampung Simpang Tiga Jalan Mendu","Kuching","SRW"
"93200","Kampung Simpang Tiga","Kuching","SRW"
"93200","Kim San Court","Kuching","SRW"
"93200","Laman Bong Chin","Kuching","SRW"
"93200","Laman Rock","Kuching","SRW"
"93200","Lintang Heights","Kuching","SRW"
"93200","Lorong 1 - 3 Jalan Mendu","Kuching","SRW"
"93200","Lorong Batu Bata","Kuching","SRW"
"93200","Lorong Batu","Kuching","SRW"
"93200","Lorong Karangan","Kuching","SRW"
"93200","Lorong Kelikir","Kuching","SRW"
"93200","Lorong Pasir","Kuching","SRW"
"93200","Lorong Permata","Kuching","SRW"
"93200","Lorong Rock Terrace","Kuching","SRW"
"93200","Lorong Rock","Kuching","SRW"
"93200","Lorong Tabuan Timur","Kuching","SRW"
"93200","Lorong Tabuan","Kuching","SRW"
"93200","Pasar Batu 3 Jalan Rock","Kuching","SRW"
"93200","Pekan Batu 3","Kuching","SRW"
"93200","Rock Terrace","Kuching","SRW"
"93200","Sunny Estate","Kuching","SRW"
"93200","Taman Acme","Kuching","SRW"
"93200","Taman Bong Chin","Kuching","SRW"
"93200","Taman Bunga Teratai (Batu Lintang)","Kuching","SRW"
"93200","Taman Central (Jalan Rock)","Kuching","SRW"
"93200","Taman Dunwa","Kuching","SRW"
"93200","Taman Gan Swee Cho","Kuching","SRW"
"93200","Taman Ho San","Kuching","SRW"
"93200","Taman Hua Joo","Kuching","SRW"
"93200","Taman Hwata","Kuching","SRW"
"93200","Taman Intersar","Kuching","SRW"
"93200","Taman Iris","Kuching","SRW"
"93200","Taman Kelly","Kuching","SRW"
"93200","Taman Kim San","Kuching","SRW"
"93200","Taman Lintang","Kuching","SRW"
"93200","Taman Liong Seng","Kuching","SRW"
"93200","Taman Meng Meng","Kuching","SRW"
"93200","Taman Merlin","Kuching","SRW"
"93200","Taman Min Chu","Kuching","SRW"
"93200","Taman Ong Guan Tee","Kuching","SRW"
"93200","Taman Ridge","Kuching","SRW"
"93200","Taman Rock View","Kuching","SRW"
"93200","Taman Sentiasa","Kuching","SRW"
"93200","Taman Sun Valley","Kuching","SRW"
"93200","Taman Thian Guan","Kuching","SRW"
"93200","Taman Timberland","Kuching","SRW"
"93200","Taman Westwood","Kuching","SRW"
"93200","Taman Wingli","Kuching","SRW"
"93200","Third Miles Bazaar","Kuching","SRW"
"93250","Batu Kawa Commercial Centre","Kuching","SRW"
"93250","Industrial Area Jalan Kuching/Serian Batu 13","Kuching","SRW"
"93250","Jalan Arang Barat","Kuching","SRW"
"93250","Jalan Arang","Kuching","SRW"
"93250","Jalan Batu Kawa - Matang","Kuching","SRW"
"93250","Jalan Batu Kawa Lorong 3","Kuching","SRW"
"93250","Jalan Batu Kawa","Kuching","SRW"
"93250","Jalan Batu Kawa/ Tondong","Kuching","SRW"
"93250","Jalan Batu Kawa/Bau","Kuching","SRW"
"93250","Jalan Batu Kitang","Kuching","SRW"
"93250","Jalan Bayan","Kuching","SRW"
"93250","Jalan Bengang","Kuching","SRW"
"93250","Jalan Benggang","Kuching","SRW"
"93250","Jalan Bukit Cahaya","Kuching","SRW"
"93250","Jalan Burung Bunga Api","Kuching","SRW"
"93250","Jalan Burung Kawok","Kuching","SRW"
"93250","Jalan Burung Landas","Kuching","SRW"
"93250","Jalan Burung Lilin","Kuching","SRW"
"93250","Jalan Burung Rawa","Kuching","SRW"
"93250","Jalan Chaya Batu 3","Kuching","SRW"
"93250","Jalan Chong Jing Chong","Kuching","SRW"
"93250","Jalan Datok Tawi Sli","Kuching","SRW"
"93250","Jalan Datuk Mustapha","Kuching","SRW"
"93250","Jalan Datuk Stephen Yong","Kuching","SRW"
"93250","Jalan Dogan Arang","Kuching","SRW"
"93250","Jalan Dogan","Kuching","SRW"
"93250","Jalan Embok Tanah","Kuching","SRW"
"93250","Jalan Ensing","Kuching","SRW"
"93250","Jalan Golden Farm","Kuching","SRW"
"93250","Jalan Hup Kee","Kuching","SRW"
"93250","Jalan Kampung Kuap Batu 10","Kuching","SRW"
"93250","Jalan Kangking","Kuching","SRW"
"93250","Jalan Kangkok","Kuching","SRW"
"93250","Jalan Ketek","Kuching","SRW"
"93250","Jalan Ketitir","Kuching","SRW"
"93250","Jalan Kong Ping","Kuching","SRW"
"93250","Jalan Kopua","Kuching","SRW"
"93250","Jalan Kuching - Serian (Km 23)","Kuching","SRW"
"93250","Jalan Kunchit","Kuching","SRW"
"93250","Jalan Landeh","Kuching","SRW"
"93250","Jalan Lapangan Terbang Lama","Kuching","SRW"
"93250","Jalan Lapangan Terbang Lrg 2 Dan 4","Kuching","SRW"
"93250","Jalan Meng Chong","Kuching","SRW"
"93250","Jalan Minggi","Kuching","SRW"
"93250","Jalan Penrissen (Km 6 - 24)","Kuching","SRW"
"93250","Jalan Penrissen Lama","Kuching","SRW"
"93250","Jalan Puncak Borneo Km. 18-20","Kuching","SRW"
"93250","Jalan Semeba","Kuching","SRW"
"93250","Jalan Semenggok","Kuching","SRW"
"93250","Jalan Sg Tapang Batu 7 - 7 1/2th","Kuching","SRW"
"93250","Jalan Stakan","Kuching","SRW"
"93250","Jalan Stampin Tengah","Kuching","SRW"
"93250","Jalan Stapok","Kuching","SRW"
"93250","Jalan Stephen Kalong Ningkan","Kuching","SRW"
"93250","Jalan Stephen Yong","Kuching","SRW"
"93250","Jalan Tawi Seli","Kuching","SRW"
"93250","Kampung Batu Kitang","Kuching","SRW"
"93250","Kampung Bumbok","Kuching","SRW"
"93250","Kampung Haji Baki","Kuching","SRW"
"93250","Kampung Jawa Semenggok","Kuching","SRW"
"93250","Kampung Jawa","Kuching","SRW"
"93250","Kampung Sandong","Kuching","SRW"
"93250","Kampung Segedup Jalan Segedup","Kuching","SRW"
"93250","Kampung Semeba Jalan Semeba","Kuching","SRW"
"93250","Kampung Seri Arjuna","Kuching","SRW"
"93250","Kampung Sinar Budi","Kuching","SRW"
"93250","Kampung Stapok Cina","Kuching","SRW"
"93250","Kampung Stapok","Kuching","SRW"
"93250","Kampung Tematu Jalan Batu Kitang","Kuching","SRW"
"93250","Kampung Tematu, Jalan Batu Kitang","Kuching","SRW"
"93250","Lapangan Terbang Antarabangsa Kuching","Kuching","SRW"
"93250","Lorong 1 (Batu Kawa)","Kuching","SRW"
"93250","Lorong 2 (Batu Kawa)","Kuching","SRW"
"93250","Lorong 3 (Batu Kawa)","Kuching","SRW"
"93250","MJC Apartment & Condo Jalan Batu Kawa","Kuching","SRW"
"93250","MJC Commercial Centre Jalan Batu Kawa","Kuching","SRW"
"93250","Pasar Batu 10 (Jalan Penrissen)","Kuching","SRW"
"93250","Pasar Batu 7 (Jalan Penrissen)","Kuching","SRW"
"93250","Pasar Batu Kitang (Km 11)","Kuching","SRW"
"93250","Pasar Batu Kitang","Kuching","SRW"
"93250","Pengkalan Baru","Kuching","SRW"
"93250","Persiaran Kingsway","Kuching","SRW"
"93250","Resettlement Scheme Kampung Jawa","Kuching","SRW"
"93250","Resettlement Scheme Stapok","Kuching","SRW"
"93250","Seventh Mile Bazaar","Kuching","SRW"
"93250","Taman Ann Siang","Kuching","SRW"
"93250","Taman Arang","Kuching","SRW"
"93250","Taman Aromatic","Kuching","SRW"
"93250","Taman BJ","Kuching","SRW"
"93250","Taman Batu 12 Jalan Kuching/Serian Batu 12","Kuching","SRW"
"93250","Taman Batu 9","Kuching","SRW"
"93250","Taman Batu Kawa Heights","Kuching","SRW"
"93250","Taman Beautiful Jalan Field Force","Kuching","SRW"
"93250","Taman Beauty","Kuching","SRW"
"93250","Taman Bengoh","Kuching","SRW"
"93250","Taman Berjaya Jalan Kalong Ningkan","Kuching","SRW"
"93250","Taman Berjaya","Kuching","SRW"
"93250","Taman Blessed Jalan Stapok Utara","Kuching","SRW"
"93250","Taman Bolder Built","Kuching","SRW"
"93250","Taman Brilliance","Kuching","SRW"
"93250","Taman Budi Jasa","Kuching","SRW"
"93250","Taman Buditra Jaya","Kuching","SRW"
"93250","Taman Bukit Stampin","Kuching","SRW"
"93250","Taman Bumiko","Kuching","SRW"
"93250","Taman Capital","Kuching","SRW"
"93250","Taman Carina Estate","Kuching","SRW"
"93250","Taman Cavery Jalan Kuching/Serian Batu 12","Kuching","SRW"
"93250","Taman Chai Yii","Kuching","SRW"
"93250","Taman Chia Teng Chew","Kuching","SRW"
"93250","Taman Chong Kong","Kuching","SRW"
"93250","Taman Chong","Kuching","SRW"
"93250","Taman Chuan Liaw Jalan Stakan Batu 7 1/2","Kuching","SRW"
"93250","Taman Chung Nion","Kuching","SRW"
"93250","Taman Cinmuk","Kuching","SRW"
"93250","Taman Contemporary","Kuching","SRW"
"93250","Taman Coral","Kuching","SRW"
"93250","Taman Country Hill","Kuching","SRW"
"93250","Taman Country Vale","Kuching","SRW"
"93250","Taman Cuaca","Kuching","SRW"
"93250","Taman Damansara","Kuching","SRW"
"93250","Taman Desa Moyan","Kuching","SRW"
"93250","Taman Desa Wira","Kuching","SRW"
"93250","Taman Dogan Jalan Dogan","Kuching","SRW"
"93250","Taman East Height","Kuching","SRW"
"93250","Taman Eden Field","Kuching","SRW"
"93250","Taman Eligen Villa Jalan Stapok Utara","Kuching","SRW"
"93250","Taman Emas","Kuching","SRW"
"93250","Taman Everbright Estate (Batu Kawa)","Kuching","SRW"
"93250","Taman Everbright Park","Kuching","SRW"
"93250","Taman Fairview Height","Kuching","SRW"
"93250","Taman Fairyland Jalan Kuching/Serian Batu 12","Kuching","SRW"
"93250","Taman Flora Indah Jalan Arang","Kuching","SRW"
"93250","Taman Fook Nyen","Kuching","SRW"
"93250","Taman Fuyi","Kuching","SRW"
"93250","Taman Genesis","Kuching","SRW"
"93250","Taman GoldenView Jalan Puncak Borneo","Kuching","SRW"
"93250","Taman Grace","Kuching","SRW"
"93250","Taman Green Heights","Kuching","SRW"
"93250","Taman Green Ville","Kuching","SRW"
"93250","Taman Greenhill","Kuching","SRW"
"93250","Taman Greenland Villa","Kuching","SRW"
"93250","Taman Greenvilla","Kuching","SRW"
"93250","Taman Greenwood Park","Kuching","SRW"
"93250","Taman HDC (RPR Batu 12)","Kuching","SRW"
"93250","Taman HDC (RPR Batu Kawa)","Kuching","SRW"
"93250","Taman Haji Baki","Kuching","SRW"
"93250","Taman High Field Jalan Batu Kawa","Kuching","SRW"
"93250","Taman Hin Yu","Kuching","SRW"
"93250","Taman Hock Nion","Kuching","SRW"
"93250","Taman Hoi Lee","Kuching","SRW"
"93250","Taman Home Mart","Kuching","SRW"
"93250","Taman Home Park","Kuching","SRW"
"93250","Taman Hong Hong","Kuching","SRW"
"93250","Taman Hong Leong","Kuching","SRW"
"93250","Taman How Ching","Kuching","SRW"
"93250","Taman Hua Ling","Kuching","SRW"
"93250","Taman Hua Yan","Kuching","SRW"
"93250","Taman Iddylick","Kuching","SRW"
"93250","Taman Indah Height","Kuching","SRW"
"93250","Taman Indah Jaya","Kuching","SRW"
"93250","Taman Indah Landeh","Kuching","SRW"
"93250","Taman Indah Ria","Kuching","SRW"
"93250","Taman Ing Ling Jalan Kuching/Serian Batu 12","Kuching","SRW"
"93250","Taman Inspire","Kuching","SRW"
"93250","Taman Janting","Kuching","SRW"
"93250","Taman Kalien Ph. 1 - 6 Jalan Stakan Batu 7 1/2","Kuching","SRW"
"93250","Taman Ketika","Kuching","SRW"
"93250","Taman Khua Hua","Kuching","SRW"
"93250","Taman Kim Lee Jalan Semaba Lorong 9","Kuching","SRW"
"93250","Taman Kim Lee","Kuching","SRW"
"93250","Taman Kim Pang","Kuching","SRW"
"93250","Taman Kit Fah","Kuching","SRW"
"93250","Taman Kong Ping Height","Kuching","SRW"
"93250","Taman Kong Ping","Kuching","SRW"
"93250","Taman Kota Padawan","Kuching","SRW"
"93250","Taman Kuap","Kuching","SRW"
"93250","Taman Kwong Tiong","Kuching","SRW"
"93250","Taman Lai - Lai","Kuching","SRW"
"93250","Taman Landeh","Kuching","SRW"
"93250","Taman Lee Onn","Kuching","SRW"
"93250","Taman Lian Hua","Kuching","SRW"
"93250","Taman Lian Kwang","Kuching","SRW"
"93250","Taman Lilok","Kuching","SRW"
"93250","Taman Lok Thiam","Kuching","SRW"
"93250","Taman Lovely Land","Kuching","SRW"
"93250","Taman Lucky Hill Jalan Penrissen Batu 10","Kuching","SRW"
"93250","Taman Lung Foo","Kuching","SRW"
"93250","Taman MJC Mutiara","Kuching","SRW"
"93250","Taman Mawar (Jalan Arang)","Kuching","SRW"
"93250","Taman Megajuta","Kuching","SRW"
"93250","Taman Mei Lee","Kuching","SRW"
"93250","Taman Metro","Kuching","SRW"
"93250","Taman Mewah","Kuching","SRW"
"93250","Taman Millinium","Kuching","SRW"
"93250","Taman Moyan Height","Kuching","SRW"
"93250","Taman Moyan Utama ","Kuching","SRW"
"93250","Taman Mulbery","Kuching","SRW"
"93250","Taman Nam Hoi","Kuching","SRW"
"93250","Taman Nan Chi","Kuching","SRW"
"93250","Taman Olive","Kuching","SRW"
"93250","Taman Orchid (Jalan Arang Bara)","Kuching","SRW"
"93250","Taman Paradise","Kuching","SRW"
"93250","Taman Parkview","Kuching","SRW"
"93250","Taman Pearl","Kuching","SRW"
"93250","Taman Pek Seng","Kuching","SRW"
"93250","Taman Penrissen","Kuching","SRW"
"93250","Taman Phoenix","Kuching","SRW"
"93250","Taman Princess","Kuching","SRW"
"93250","Taman Punica","Kuching","SRW"
"93250","Taman Putera Park","Kuching","SRW"
"93250","Taman Ramin Jalan Arang","Kuching","SRW"
"93250","Taman Range","Kuching","SRW"
"93250","Taman Regal","Kuching","SRW"
"93250","Taman Renggas Estate","Kuching","SRW"
"93250","Taman Richmond Hill","Kuching","SRW"
"93250","Taman Rimba Stapok","Kuching","SRW"
"93250","Taman Royal","Kuching","SRW"
"93250","Taman STC","Kuching","SRW"
"93250","Taman Saidu Khan","Kuching","SRW"
"93250","Taman Sakura Indah","Kuching","SRW"
"93250","Taman San Chin","Kuching","SRW"
"93250","Taman Sarmax","Kuching","SRW"
"93250","Taman Sasa","Kuching","SRW"
"93250","Taman Sati","Kuching","SRW"
"93250","Taman Sedegup Height","Kuching","SRW"
"93250","Taman Semaba Jalan Semaba Lorong 8","Kuching","SRW"
"93250","Taman Seng Goon","Kuching","SRW"
"93250","Taman Sentosa","Kuching","SRW"
"93250","Taman Seri Emas","Kuching","SRW"
"93250","Taman Shefford View","Kuching","SRW"
"93250","Taman Shing Yu","Kuching","SRW"
"93250","Taman Siwi","Kuching","SRW"
"93250","Taman Spring Field","Kuching","SRW"
"93250","Taman Sri Borneo","Kuching","SRW"
"93250","Taman Sri Cahaya","Kuching","SRW"
"93250","Taman Sri Moyan","Kuching","SRW"
"93250","Taman Sri Muhibbah","Kuching","SRW"
"93250","Taman Sri Segedup","Kuching","SRW"
"93250","Taman Stapok Avenue Jalan Stapok","Kuching","SRW"
"93250","Taman Stapok Central Jalan Stapok Central","Kuching","SRW"
"93250","Taman Stapok Estate Jalan Stapok Selatan","Kuching","SRW"
"93250","Taman Stapok Height Jalan Stapok Selatan","Kuching","SRW"
"93250","Taman Stapok Height Jalan stapok Utara","Kuching","SRW"
"93250","Taman Stapok","Kuching","SRW"
"93250","Taman Stella","Kuching","SRW"
"93250","Taman Stephen Yong Avenue","Kuching","SRW"
"93250","Taman Summerhill Villa Jalan Stapok Selatan","Kuching","SRW"
"93250","Taman Sunny Heights","Kuching","SRW"
"93250","Taman Sunny Hill","Kuching","SRW"
"93250","Taman Sunyeh","Kuching","SRW"
"93250","Taman TJM","Kuching","SRW"
"93250","Taman Taipei","Kuching","SRW"
"93250","Taman Tiang Ling","Kuching","SRW"
"93250","Taman Tropimas","Kuching","SRW"
"93250","Taman Ultra","Kuching","SRW"
"93250","Taman Union","Kuching","SRW"
"93250","Taman Victoria Jalan Satpok Utama","Kuching","SRW"
"93250","Taman Victoria","Kuching","SRW"
"93250","Taman Victory","Kuching","SRW"
"93250","Taman WEC","Kuching","SRW"
"93250","Taman Wai Leong","Kuching","SRW"
"93250","Taman Wawasan","Kuching","SRW"
"93250","Taman Wepac","Kuching","SRW"
"93250","Taman Wui Lee","Kuching","SRW"
"93250","Taman Xafa Jalan Penrissen Batu 7 1/2","Kuching","SRW"
"93250","Tenth Mile Bazaar","Kuching","SRW"
"93300","Jalan Berjaya","Kuching","SRW"
"93300","Jalan Cahaya","Kuching","SRW"
"93300","Jalan Central Barat","Kuching","SRW"
"93300","Jalan Central Esat/Ellis","Kuching","SRW"
"93300","Jalan Central Timur","Kuching","SRW"
"93300","Jalan Chawan Hulu","Kuching","SRW"
"93300","Jalan Chawan","Kuching","SRW"
"93300","Jalan Chong Kiun Kong","Kuching","SRW"
"93300","Jalan Datuk Bandar","Kuching","SRW"
"93300","Jalan Datuk Sim Kheng Hong","Kuching","SRW"
"93300","Jalan Ellis","Kuching","SRW"
"93300","Jalan Foochow 1","Kuching","SRW"
"93300","Jalan Foochow 2","Kuching","SRW"
"93300","Jalan Foochow Barat","Kuching","SRW"
"93300","Jalan Kuek Siok Hong","Kuching","SRW"
"93300","Jalan Ming Ching","Kuching","SRW"
"93300","Jalan Nyatoh","Kuching","SRW"
"93300","Jalan Parklane","Kuching","SRW"
"93300","Jalan Penyau","Kuching","SRW"
"93300","Jalan Rengas","Kuching","SRW"
"93300","Jalan Resak","Kuching","SRW"
"93300","Jalan Sekama Utara","Kuching","SRW"
"93300","Jalan Sekama","Kuching","SRW"
"93300","Jalan Sekama/Pending","Kuching","SRW"
"93300","Jalan Sinar","Kuching","SRW"
"93300","Jalan Suadi Haji Arshad","Kuching","SRW"
"93300","Jalan Tai Poo","Kuching","SRW"
"93300","Jalan Upper Chawan","Kuching","SRW"
"93300","Jalan Wan Abdul Rahman","Kuching","SRW"
"93300","Kampung Tabuan Foochow Jalan Foochow No. 1","Kuching","SRW"
"93300","Kuching By pass (Foochow)","Kuching","SRW"
"93300","Lebuh Sekama","Kuching","SRW"
"93300","Lorong Goh Meng Teck","Kuching","SRW"
"93300","Lorong Park","Kuching","SRW"
"93300","Sekama Utara","Kuching","SRW"
"93300","Tabuan Ulu Chawan Cina","Kuching","SRW"
"93300","Taman Chung Hua","Kuching","SRW"
"93300","Taman Dirgahayu","Kuching","SRW"
"93300","Taman Fushing","Kuching","SRW"
"93300","Taman Futee","Kuching","SRW"
"93300","Taman Hawaii","Kuching","SRW"
"93300","Taman Joo Chuan (Jalan Ellis)","Kuching","SRW"
"93300","Taman Kali","Kuching","SRW"
"93300","Taman Kenyalang","Kuching","SRW"
"93300","Taman Kim Fook","Kuching","SRW"
"93300","Taman Kuching","Kuching","SRW"
"93300","Taman Lein Kun","Kuching","SRW"
"93300","Taman Mei Teck","Kuching","SRW"
"93300","Taman Orchid Jalan Foochow No. 1","Kuching","SRW"
"93300","Taman Pecky","Kuching","SRW"
"93300","Taman Poh Hua","Kuching","SRW"
"93300","Taman Poh Ming","Kuching","SRW"
"93300","Taman Sin Juak","Kuching","SRW"
"93300","Taman Sung Hong","Kuching","SRW"
"93300","Taman Supreme","Kuching","SRW"
"93300","Taman Tabuan Supreme","Kuching","SRW"
"93300","Taman Three Hill","Kuching","SRW"
"93300","Taman Tungshi","Kuching","SRW"
"93300","Taman Yung Kong","Kuching","SRW"
"93350","Happy Valley","Kuching","SRW"
"93350","Hui Sing Heights","Kuching","SRW"
"93350","Jalan Bayor Bukit","Kuching","SRW"
"93350","Jalan Bintangor","Kuching","SRW"
"93350","Jalan Durian Burong","Kuching","SRW"
"93350","Jalan Geronggang","Kuching","SRW"
"93350","Jalan Hui Sing","Kuching","SRW"
"93350","Jalan Jelutong","Kuching","SRW"
"93350","Jalan Kedandi 11","Kuching","SRW"
"93350","Jalan Kedandi 14","Kuching","SRW"
"93350","Jalan Kempas","Kuching","SRW"
"93350","Jalan Kenny Hill","Kuching","SRW"
"93350","Jalan Keranji 1 - 6","Kuching","SRW"
"93350","Jalan Kruak","Kuching","SRW"
"93350","Jalan Laksamana Cheng Ho","Kuching","SRW"
"93350","Jalan Luis","Kuching","SRW"
"93350","Jalan Muara Tabuan","Kuching","SRW"
"93350","Jalan Murut","Kuching","SRW"
"93350","Jalan Seladah","Kuching","SRW"
"93350","Jalan Setia Raja","Kuching","SRW"
"93350","Jalan Sherip Mansor","Kuching","SRW"
"93350","Jalan Simpang Tiga (Main Road)","Kuching","SRW"
"93350","Jalan Song","Kuching","SRW"
"93350","Jalan Stampin Barat","Kuching","SRW"
"93350","Jalan Stampin Timur","Kuching","SRW"
"93350","Jalan Stampin","Kuching","SRW"
"93350","Jalan Stutong Indah","Kuching","SRW"
"93350","Jalan Stutong Jaya","Kuching","SRW"
"93350","Jalan Tabuan Dayak","Kuching","SRW"
"93350","Jalan Tabuan Jaya","Kuching","SRW"
"93350","Jalan Temenggong Jugah","Kuching","SRW"
"93350","Jalan Tun Jugah","Kuching","SRW"
"93350","Jalan Upland","Kuching","SRW"
"93350","Jalan Urat Mata","Kuching","SRW"
"93350","Jalan Wan Alwi Tunku Ibrahim","Kuching","SRW"
"93350","Jalan Wan Alwi","Kuching","SRW"
"93350","Kampung Stampin","Kuching","SRW"
"93350","Kampung Tabuan Dayak","Kuching","SRW"
"93350","Kampung Tabuan Jaya","Kuching","SRW"
"93350","Kuching By pass (Km 7)","Kuching","SRW"
"93350","Kuching By pass Stampin","Kuching","SRW"
"93350","Lorong Wan Alwi 5","Kuching","SRW"
"93350","Muara Tabuan Industrial Free Zone","Kuching","SRW"
"93350","Resettlement Schme Stutong","Kuching","SRW"
"93350","Samajaya Appartment, Jalan Setia Raja","Kuching","SRW"
"93350","Samajaya Comercial Centre, Jalan Setia Raja","Kuching","SRW"
"93350","Stutong Affordable Scheme (Phase 1 - 2)","Kuching","SRW"
"93350","Tabuan Court Jalan Song","Kuching","SRW"
"93350","Tabuan Dayak","Kuching","SRW"
"93350","Tabuan Dusun Tengah","Kuching","SRW"
"93350","Tabuan Dusun","Kuching","SRW"
"93350","Tabuan Heights","Kuching","SRW"
"93350","Tabuan Jaya Tengah","Kuching","SRW"
"93350","Tabuan Jaya","Kuching","SRW"
"93350","Tabuan Lalang","Kuching","SRW"
"93350","Tabuan Stutong Jalan Setia Raja","Kuching","SRW"
"93350","Taman 7th Avenue Jalan Durian Burung","Kuching","SRW"
"93350","Taman BDC Stampin","Kuching","SRW"
"93350","Taman BDC","Kuching","SRW"
"93350","Taman Bahagia, Jalan Stampin","Kuching","SRW"
"93350","Taman Bayang Estate","Kuching","SRW"
"93350","Taman Bayang","Kuching","SRW"
"93350","Taman Beverly Heights","Kuching","SRW"
"93350","Taman Bintang","Kuching","SRW"
"93350","Taman Casamarbela","Kuching","SRW"
"93350","Taman Cemerlang","Kuching","SRW"
"93350","Taman Centurion 1","Kuching","SRW"
"93350","Taman Centurion 2","Kuching","SRW"
"93350","Taman Cinta Avenue","Kuching","SRW"
"93350","Taman Daya","Kuching","SRW"
"93350","Taman Desa Indah","Kuching","SRW"
"93350","Taman Desa Utara","Kuching","SRW"
"93350","Taman Durian Burung Jalan Durian Burung","Kuching","SRW"
"93350","Taman Esco Ville","Kuching","SRW"
"93350","Taman Everbright Jaya","Kuching","SRW"
"93350","Taman Fortune","Kuching","SRW"
"93350","Taman Gan Swee","Kuching","SRW"
"93350","Taman Gawing","Kuching","SRW"
"93350","Taman Golden Height Lorong Hui Sing 6","Kuching","SRW"
"93350","Taman Happy Valley","Kuching","SRW"
"93350","Taman Hartawan","Kuching","SRW"
"93350","Taman Height Estate Jalan Stutong","Kuching","SRW"
"93350","Taman Height Estate, Jalan Stutong","Kuching","SRW"
"93350","Taman Hua Lee","Kuching","SRW"
"93350","Taman Hui Sing Close","Kuching","SRW"
"93350","Taman Hui Sing Height","Kuching","SRW"
"93350","Taman Hui Sing Jaya","Kuching","SRW"
"93350","Taman Hui Sing","Kuching","SRW"
"93350","Taman Jade Villa Jalan Lapangan Terbang 5","Kuching","SRW"
"93350","Taman Jelita","Kuching","SRW"
"93350","Taman Julemas","Kuching","SRW"
"93350","Taman Jupit","Kuching","SRW"
"93350","Taman Kenny Hill","Kuching","SRW"
"93350","Taman Kenny","Kuching","SRW"
"93350","Taman Lee Ling ( Song)","Kuching","SRW"
"93350","Taman Legend Hill","Kuching","SRW"
"93350","Taman Linang Suboh","Kuching","SRW"
"93350","Taman Linang","Kuching","SRW"
"93350","Taman Mabel","Kuching","SRW"
"93350","Taman Major","Kuching","SRW"
"93350","Taman Marble","Kuching","SRW"
"93350","Taman Meranja","Kuching","SRW"
"93350","Taman Mersing","Kuching","SRW"
"93350","Taman Million, Jalan Kempas","Kuching","SRW"
"93350","Taman Muara Tabuan","Kuching","SRW"
"93350","Taman Mutiara Permai","Kuching","SRW"
"93350","Taman Opulence","Kuching","SRW"
"93350","Taman Orchard","Kuching","SRW"
"93350","Taman Pelita Height Jalan BDC","Kuching","SRW"
"93350","Taman Phoning","Kuching","SRW"
"93350","Taman Pinery Villa","Kuching","SRW"
"93350","Taman Polarwood Lorong 5H5","Kuching","SRW"
"93350","Taman Progress","Kuching","SRW"
"93350","Taman Rosewood","Kuching","SRW"
"93350","Taman Satria Jaya","Kuching","SRW"
"93350","Taman Scenery Villa","Kuching","SRW"
"93350","Taman Sherip Mansor","Kuching","SRW"
"93350","Taman Sin Hai Min 1","Kuching","SRW"
"93350","Taman Sin Hai Min 2","Kuching","SRW"
"93350","Taman Sin Hai Min","Kuching","SRW"
"93350","Taman Sri Stutong Jalan Setia Raja","Kuching","SRW"
"93350","Taman Stampin Barat","Kuching","SRW"
"93350","Taman Stampin Heights","Kuching","SRW"
"93350","Taman Stutong Avenue","Kuching","SRW"
"93350","Taman Suboh","Kuching","SRW"
"93350","Taman Swee Lee","Kuching","SRW"
"93350","Taman Tabuan Desa","Kuching","SRW"
"93350","Taman Tabuan Dusun","Kuching","SRW"
"93350","Taman Tabuan Height Boulevard, Jalan Stutong","Kuching","SRW"
"93350","Taman Tabuan Height Drive, Jalan Stutong","Kuching","SRW"
"93350","Taman Tabuan Jaya 1 & 2","Kuching","SRW"
"93350","Taman Tabuan Jaya","Kuching","SRW"
"93350","Taman Tabuan Laru","Kuching","SRW"
"93350","Taman Woodland","Kuching","SRW"
"93350","Taman Yet Ho","Kuching","SRW"
"93350","Uplands (Deret Kedai)","Kuching","SRW"
"93400","Jalan Abang Ateh","Kuching","SRW"
"93400","Jalan Abong Taip","Kuching","SRW"
"93400","Jalan Bintangor Besar","Kuching","SRW"
"93400","Jalan Bintangor Kecil","Kuching","SRW"
"93400","Jalan Bolhassan","Kuching","SRW"
"93400","Jalan Dagok Barat","Kuching","SRW"
"93400","Jalan Dagok Tengah","Kuching","SRW"
"93400","Jalan Dagok Timur","Kuching","SRW"
"93400","Jalan Datuk Ajibah Abol","Kuching","SRW"
"93400","Jalan Haji Bolhassan","Kuching","SRW"
"93400","Jalan Haji Kassan","Kuching","SRW"
"93400","Jalan Haji Mataim","Kuching","SRW"
"93400","Jalan Haji Mustapa Junit","Kuching","SRW"
"93400","Jalan Haji Taha","Kuching","SRW"
"93400","Jalan Jawa","Kuching","SRW"
"93400","Jalan Kulas Barat","Kuching","SRW"
"93400","Jalan Kulas Tengah","Kuching","SRW"
"93400","Jalan Kulas Timur","Kuching","SRW"
"93400","Jalan Kulas Utara Dua","Kuching","SRW"
"93400","Jalan Kulas","Kuching","SRW"
"93400","Jalan Laruh Barat","Kuching","SRW"
"93400","Jalan Laruh Tengah","Kuching","SRW"
"93400","Jalan Laruh Timur","Kuching","SRW"
"93400","Jalan Masjid","Kuching","SRW"
"93400","Jalan Medan Temple","Kuching","SRW"
"93400","Jalan Middle","Kuching","SRW"
"93400","Jalan Muda Hashim","Kuching","SRW"
"93400","Jalan Muhibbah","Kuching","SRW"
"93400","Jalan Nagor","Kuching","SRW"
"93400","Jalan Nanas Barat","Kuching","SRW"
"93400","Jalan Nanas","Kuching","SRW"
"93400","Jalan Ong Guan Poh","Kuching","SRW"
"93400","Jalan P. Ramlee","Kuching","SRW"
"93400","Jalan Paduka Sitom","Kuching","SRW"
"93400","Jalan Palm","Kuching","SRW"
"93400","Jalan Parit Lama Barat","Kuching","SRW"
"93400","Jalan Parit Lama Tengah","Kuching","SRW"
"93400","Jalan Parit Lama","Kuching","SRW"
"93400","Jalan Patingan","Kuching","SRW"
"93400","Jalan Patinggi Ali","Kuching","SRW"
"93400","Jalan Pisang Selatan","Kuching","SRW"
"93400","Jalan Pisang Utara","Kuching","SRW"
"93400","Jalan Pisang","Kuching","SRW"
"93400","Jalan Rambutan","Kuching","SRW"
"93400","Jalan Rubber Barat","Kuching","SRW"
"93400","Jalan Rubber","Kuching","SRW"
"93400","Jalan Satok - Pisang","Kuching","SRW"
"93400","Jalan Satok","Kuching","SRW"
"93400","Jalan Tanjong Selatan","Kuching","SRW"
"93400","Jalan Tanjung","Kuching","SRW"
"93400","Jalan Tengah","Kuching","SRW"
"93400","Kampung Bandarshah","Kuching","SRW"
"93400","Kampung Bintangor","Kuching","SRW"
"93400","Kampung Kudei Rubber","Kuching","SRW"
"93400","Kampung Kudei Tengah","Kuching","SRW"
"93400","Kampung Kudei","Kuching","SRW"
"93400","Kampung Masjid Jalan Datuk Ajibah Abol","Kuching","SRW"
"93400","Satok","Kuching","SRW"
"93400","Taman Diamond","Kuching","SRW"
"93400","Taman Evergreen","Kuching","SRW"
"93400","Taman Fair Park Jalan Nanas","Kuching","SRW"
"93400","Taman Friendship","Kuching","SRW"
"93400","Taman Happy","Kuching","SRW"
"93400","Taman Hong Kong","Kuching","SRW"
"93400","Taman Intan Jalan Nanas Barat","Kuching","SRW"
"93400","Taman Kiaw Ann","Kuching","SRW"
"93400","Taman Nanas","Kuching","SRW"
"93400","Taman Ong Guan Poh Jalan Green","Kuching","SRW"
"93400","Taman Ong Soon","Kuching","SRW"
"93400","Taman San San","Kuching","SRW"
"93400","Taman Sin Lian Hin","Kuching","SRW"
"93400","Taman Yen Jalan Nanas Barat","Kuching","SRW"
"93400","Wisma Satok","Kuching","SRW"
"93450","Bintawa Village","Kuching","SRW"
"93450","Jalan Abdul Rahim","Kuching","SRW"
"93450","Jalan Belian (Bintawa)","Kuching","SRW"
"93450","Jalan Bengkel","Kuching","SRW"
"93450","Jalan Bintawa Tengah","Kuching","SRW"
"93450","Jalan Bintawa","Kuching","SRW"
"93450","Jalan Buruh","Kuching","SRW"
"93450","Jalan Cement Raya","Kuching","SRW"
"93450","Jalan Datuk Sim Kheng Hong Wharf","Kuching","SRW"
"93450","Jalan Datuk Wee Kheng Chiang","Kuching","SRW"
"93450","Jalan Datuk William Tan","Kuching","SRW"
"93450","Jalan Daya","Kuching","SRW"
"93450","Jalan Dermaga","Kuching","SRW"
"93450","Jalan Eng Ai","Kuching","SRW"
"93450","Jalan Gedung","Kuching","SRW"
"93450","Jalan Gubah","Kuching","SRW"
"93450","Jalan Jentera","Kuching","SRW"
"93450","Jalan Keluli","Kuching","SRW"
"93450","Jalan Kemajuan","Kuching","SRW"
"93450","Jalan Keruing","Kuching","SRW"
"93450","Jalan Kilang","Kuching","SRW"
"93450","Jalan Kisar","Kuching","SRW"
"93450","Jalan Kwong Lee Bank","Kuching","SRW"
"93450","Jalan Lentor","Kuching","SRW"
"93450","Jalan Loji","Kuching","SRW"
"93450","Jalan Lumba Kuda Lorong 5","Kuching","SRW"
"93450","Jalan Lumba Kuda","Kuching","SRW"
"93450","Jalan Meranti","Kuching","SRW"
"93450","Jalan Merbau","Kuching","SRW"
"93450","Jalan Merican","Kuching","SRW"
"93450","Jalan Mersawa","Kuching","SRW"
"93450","Jalan Noakes (1 & 2)","Kuching","SRW"
"93450","Jalan Pangkalan","Kuching","SRW"
"93450","Jalan Peace","Kuching","SRW"
"93450","Jalan Pelabuhan","Kuching","SRW"
"93450","Jalan Pending / Sekama","Kuching","SRW"
"93450","Jalan Pending Lama","Kuching","SRW"
"93450","Jalan Pending","Kuching","SRW"
"93450","Jalan Perbadanan","Kuching","SRW"
"93450","Jalan Perdana","Kuching","SRW"
"93450","Jalan Peteri","Kuching","SRW"
"93450","Jalan Pinang","Kuching","SRW"
"93450","Jalan Sebor","Kuching","SRW"
"93450","Jalan Selangan Batu","Kuching","SRW"
"93450","Jalan Semangat","Kuching","SRW"
"93450","Jalan Semen Raya","Kuching","SRW"
"93450","Jalan Sentang","Kuching","SRW"
"93450","Jalan Sungai Apong","Kuching","SRW"
"93450","Jalan Sungai Biawak","Kuching","SRW"
"93450","Jalan Sungai Periok","Kuching","SRW"
"93450","Jalan Sungai Sekama","Kuching","SRW"
"93450","Jalan Swasta","Kuching","SRW"
"93450","Jalan Tambatan","Kuching","SRW"
"93450","Jalan Tekad","Kuching","SRW"
"93450","Jalan Tenaga","Kuching","SRW"
"93450","Jalan Tenun","Kuching","SRW"
"93450","Jalan Three Hill","Kuching","SRW"
"93450","Jalan Tun Abdul Rahim","Kuching","SRW"
"93450","Jalan Tun Razak","Kuching","SRW"
"93450","Jalan Utama","Kuching","SRW"
"93450","Jalan William Tan","Kuching","SRW"
"93450","Kampung Nelayan Bintawa","Kuching","SRW"
"93450","Kampung Sungai Apong","Kuching","SRW"
"93450","Kampung Sungai Periok","Kuching","SRW"
"93450","Kampung Tabuan (Lot No 3)","Kuching","SRW"
"93450","Kampung Tabuan Hilir Seberang Sungai","Kuching","SRW"
"93450","Kampung Tabuan Hilir","Kuching","SRW"
"93450","Kampung Tabuan Lot","Kuching","SRW"
"93450","Kampung Tabuan Tengah Seberang Sungai","Kuching","SRW"
"93450","Kampung Tabuan Tengah","Kuching","SRW"
"93450","Kampung Tabuan Ulu","Kuching","SRW"
"93450","Kawasan Perindustrian Bintawa","Kuching","SRW"
"93450","Lebuh Chan Bee Kiew","Kuching","SRW"
"93450","Muara Tuang Industrial Zon","Kuching","SRW"
"93450","Pending Heights","Kuching","SRW"
"93450","Pending","Kuching","SRW"
"93450","Persiaran Kong Ming","Kuching","SRW"
"93450","Persiaran Poh Ming","Kuching","SRW"
"93450","Taman Arbi","Kuching","SRW"
"93450","Taman Henghua","Kuching","SRW"
"93450","Taman Kong Ann","Kuching","SRW"
"93450","Taman Kong Ming","Kuching","SRW"
"93450","Taman Mee Teck","Kuching","SRW"
"93450","Taman Pending Height","Kuching","SRW"
"93450","Taman River View","Kuching","SRW"
"93450","Taman Tabuan Park","Kuching","SRW"
"93500","TYT Yang Di Pertua Negeri Sarawak","Kuching","SRW"
"93502","YAB Ketua Menteri Sarawak","Kuching","SRW"
"93503","Setiausaha Kerajaan Negeri","Kuching","SRW"
"93504","Biro Bantuan Guaman","Kuching","SRW"
"93505","Biro Pengaduan Awam","Kuching","SRW"
"93506","Jabatan Kehakiman / Mahkamah Tinggi","Kuching","SRW"
"93507","Pusat Latihan Perkhidmatan Awam (Intan)","Kuching","SRW"
"93508","Amanah Raya Berhad","Kuching","SRW"
"93514","Jabatan Perangkaan","Kuching","SRW"
"93516","Jabatan Pemegang Harta","Kuching","SRW"
"93517","Jabatan Perpaduan Negara","Kuching","SRW"
"93518","Jabatan Audit Negeri","Kuching","SRW"
"93519","Majlis Agama Islam Sarawak","Kuching","SRW"
"93520","Suruhanjaya Perkhidmatan Awam Persekutuan","Kuching","SRW"
"93520","Suruhanjaya Perkhidmatan Awam","Kuching","SRW"
"93527","Unit Pemodenan & Tenaga Manusia","Kuching","SRW"
"93529","Unit Penyelidikan Sosio Ekonomi","Kuching","SRW"
"93532","Jabatan Sumber Manusia","Kuching","SRW"
"93540","Jabatan Tenaga Rakyat","Kuching","SRW"
"93550","Jabatan Imigresen","Kuching","SRW"
"93551","Jabatan Pendaftaran Negara","Kuching","SRW"
"93552","Jabatan Pendaftar Pertubuhan","Kuching","SRW"
"93554","Percetakan Nasional Berhad","Kuching","SRW"
"93556","Jabatan Pertahanan Awam","Kuching","SRW"
"93558","Jabatan Penjara","Kuching","SRW"
"93560","Ketua Polis Negeri","Kuching","SRW"
"93564","Jabatan Kebajikan Masyarakat","Kuching","SRW"
"93566","Muzium Negeri Sarawak","Kuching","SRW"
"93570","Jabatan Belia Dan Sukan","Kuching","SRW"
"93572","Perpustakaan Awam Negeri","Kuching","SRW"
"93576","Jabatan Tanah & Galian","Kuching","SRW"
"93578","Jabatan Ukur & Pemetaan","Kuching","SRW"
"93582","Jabatan Kerja Raya","Kuching","SRW"
"93586","Hospital Kuching","Kuching","SRW"
"93590","Jabatan Kesihatan","Kuching","SRW"
"93592","Pegawai Kewangan Negeri","Kuching","SRW"
"93592","Pegawai Kewangan Persekutuan","Kuching","SRW"
"93594","Akauntan Negeri","Kuching","SRW"
"93596","Jabatan Kastam & Eksais Di Raja","Kuching","SRW"
"93600","Lembaga Hasil Dalam Negeri","Kuching","SRW"
"93604","Jabatan Pendidikan","Kuching","SRW"
"93606","Jabatan Kemajuan Masyarakat (Kemas)","Kuching","SRW"
"93608","Jabatan Pembangunan Koperasi","Kuching","SRW"
"93609","Pejabat Mara Negeri","Kuching","SRW"
"93610","Bahagian Pelesenan - Kementerian Penerangan","Kuching","SRW"
"93612","Jabatan Penerangan","Kuching","SRW"
"93614","Jabatan Penyiaran","Kuching","SRW"
"93618","Jabatan Penerbangan Awam","Kuching","SRW"
"93619","Jabatan Laut","Kuching","SRW"
"93620","Jabatan Pengangkutan Jalan","Kuching","SRW"
"93626","Jabatan Pengairan & Saliran","Kuching","SRW"
"93628","Jabatan Perikanan","Kuching","SRW"
"93632","Jabatan Pertanian","Kuching","SRW"
"93634","Kementerian Pertahanan Sarawak","Kuching","SRW"
"93648","Jabatan Bomba & Penyelamat","Kuching","SRW"
"93658","Jabatan Kajibumi","Kuching","SRW"
"93660","Jabatan Perhutanan","Kuching","SRW"
"93661","Padi & Beras Nasional (Bernas)","Kuching","SRW"
"93662","Jabatan Kajicuaca","Kuching","SRW"
"93670","Pos Malaysia Berhad","Kuching","SRW"
"93672","Telekom Malaysia Berhad","Kuching","SRW"
"93677","Penrissen Kem","Kuching","SRW"
"93690","Suruhanjaya Pilihanraya Negeri","Kuching","SRW"
"93694","Jabatan Kebudayaan Dan Kesenian","Kuching","SRW"
"93700","Kuching - Peti Surat (1 - 11)","Kuching","SRW"
"93700","Kuching - Peti Surat (13 - 150)","Kuching","SRW"
"93702","Kuching - Peti Surat (151 - 250)","Kuching","SRW"
"93704","Kuching - Peti Surat (251 - 350)","Kuching","SRW"
"93706","Kuching - Peti Surat (351 - 399)","Kuching","SRW"
"93708","Kuching - Peti Surat (401 - 450)","Kuching","SRW"
"93710","Kuching - Peti Surat (451 - 481)","Kuching","SRW"
"93710","Kuching - Peti Surat (483 - 544)","Kuching","SRW"
"93710","Kuching - Peti Surat (546 - 550)","Kuching","SRW"
"93712","Kuching - Peti Surat (551 - 638)","Kuching","SRW"
"93712","Kuching - Peti Surat (640 - 650)","Kuching","SRW"
"93714","Kuching - Peti Surat (651 - 750)","Kuching","SRW"
"93716","Kuching - Peti Surat (751 - 850)","Kuching","SRW"
"93718","Kuching - Peti Surat (851 - 950)","Kuching","SRW"
"93720","Kuching - Peti Surat (951 - 1050)","Kuching","SRW"
"93722","Kuching - Peti Surat (1051 - 1147)","Kuching","SRW"
"93722","Kuching - Peti Surat (1149 - 1150)","Kuching","SRW"
"93724","Kuching - Peti Surat (1151 - 1250)","Kuching","SRW"
"93726","Kuching - Peti Surat (1251 - 1257)","Kuching","SRW"
"93726","Kuching - Peti Surat (1259 - 1350)","Kuching","SRW"
"93728","Kuching - Peti Surat (1351 - 1432)","Kuching","SRW"
"93728","Kuching - Peti Surat (1434 - 1450)","Kuching","SRW"
"93730","Kuching - Peti Surat (1451 - 1550)","Kuching","SRW"
"93732","Kuching - Peti Surat (1551 - 1650)","Kuching","SRW"
"93734","Kuching - Peti Surat (1651 - 1652)","Kuching","SRW"
"93734","Kuching - Peti Surat (1654 - 1750)","Kuching","SRW"
"93736","Kuching - Peti Surat (1751 - 1850)","Kuching","SRW"
"93738","Kuching - Peti Surat (1851 - 1950)","Kuching","SRW"
"93740","Kuching - Peti Surat (1951 - 2050)","Kuching","SRW"
"93742","Kuching - Peti Surat (2051 - 2150)","Kuching","SRW"
"93744","Kuching - Peti Surat (2151 - 2250)","Kuching","SRW"
"93746","Kuching - Peti Surat (2251 - 2350)","Kuching","SRW"
"93748","Kuching - Peti Surat (2351 - 2500)","Kuching","SRW"
"93750","Kuching - Peti Surat (2501 - 2600)","Kuching","SRW"
"93752","Kuching - Peti Surat (2601 - 2700)","Kuching","SRW"
"93754","Kuching - Peti Surat (2701 - 2840)","Kuching","SRW"
"93756","Kuching - Peti Surat (2841 - 2930)","Kuching","SRW"
"93758","Kuching - Peti Surat (2931 - 3040)","Kuching","SRW"
"93760","Kuching - Peti Surat (3041 - 3140)","Kuching","SRW"
"93762","Kuching - Peti Surat (3141 - 3240)","Kuching","SRW"
"93764","Kuching - Peti Surat (3241 & ke atas)","Kuching","SRW"
"93900","Kuching - Peti Surat 12","Kuching","SRW"
"93902","Kuching - Peti Surat 400","Kuching","SRW"
"93904","Kuching - Peti Surat 482","Kuching","SRW"
"93906","Kuching - Peti Surat 545","Kuching","SRW"
"93908","Kuching - Peti Surat 639","Kuching","SRW"
"93910","Kuching - Peti Surat 1148","Kuching","SRW"
"93912","Kuching - Peti Surat 1258","Kuching","SRW"
"93914","Kuching - Peti Surat 1433","Kuching","SRW"
"93916","Kuching - Peti Surat 1653","Kuching","SRW"
"93990","Kuching - Beg Berkunci","Kuching","SRW"
"94000","Bau Lama","Bau","SRW"
"94000","Bau","Bau","SRW"
"94000","Buso","Bau","SRW"
"94000","Jalan Black Smith","Bau","SRW"
"94000","Jalan Bungalow","Bau","SRW"
"94000","Jalan Datuk Temenggong Salau","Bau","SRW"
"94000","Jalan Emas","Bau","SRW"
"94000","Jalan Johari Sunchar","Bau","SRW"
"94000","Jalan Lee Khoi Choon","Bau","SRW"
"94000","Jalan Lee Nyan Foo","Bau","SRW"
"94000","Jalan Ong Guan Cheng","Bau","SRW"
"94000","Jalan Penghulu Durin","Bau","SRW"
"94000","Jalan Selamat","Bau","SRW"
"94000","Jambusan","Bau","SRW"
"94000","Kampung Batu Spit","Bau","SRW"
"94000","Kampung Bidi","Bau","SRW"
"94000","Kampung Bogag","Bau","SRW"
"94000","Kampung Boring","Bau","SRW"
"94000","Kampung Buan","Bau","SRW"
"94000","Kampung Duyoh","Bau","SRW"
"94000","Kampung Grogo","Bau","SRW"
"94000","Kampung Jugan","Bau","SRW"
"94000","Kampung Kandis Baru","Bau","SRW"
"94000","Kampung Kandis Lama","Bau","SRW"
"94000","Kampung Keranji","Bau","SRW"
"94000","Kampung Kopit","Bau","SRW"
"94000","Kampung Lidah Tanah","Bau","SRW"
"94000","Kampung Masjid","Bau","SRW"
"94000","Kampung Melayu","Bau","SRW"
"94000","Kampung Merembeh","Bau","SRW"
"94000","Kampung Opar","Bau","SRW"
"94000","Kampung Pangkalan","Bau","SRW"
"94000","Kampung Pejiru","Bau","SRW"
"94000","Kampung Pengkalan Tebang","Bau","SRW"
"94000","Kampung Peninjau Baru","Bau","SRW"
"94000","Kampung Peninjau Lama","Bau","SRW"
"94000","Kampung Pinet","Bau","SRW"
"94000","Kampung Podam","Bau","SRW"
"94000","Kampung Puak","Bau","SRW"
"94000","Kampung Rabak Rotan","Bau","SRW"
"94000","Kampung Rumih","Bau","SRW"
"94000","Kampung Sebobok","Bau","SRW"
"94000","Kampung Sebuluh","Bau","SRW"
"94000","Kampung Sega","Bau","SRW"
"94000","Kampung Segubang","Bau","SRW"
"94000","Kampung Serasot","Bau","SRW"
"94000","Kampung Serikin","Bau","SRW"
"94000","Kampung Seromah","Bau","SRW"
"94000","Kampung Seropak","Bau","SRW"
"94000","Kampung Skiat Baru","Bau","SRW"
"94000","Kampung Skiat Lama","Bau","SRW"
"94000","Kampung Skibang","Bau","SRW"
"94000","Kampung Skio","Bau","SRW"
"94000","Kampung Sogoh","Bau","SRW"
"94000","Kampung Stass","Bau","SRW"
"94000","Kampung Stenggang","Bau","SRW"
"94000","Kampung Suba Bandar","Bau","SRW"
"94000","Kampung Suba Bau","Bau","SRW"
"94000","Kampung Suba Buan","Bau","SRW"
"94000","Kampung Sungai Pinang","Bau","SRW"
"94000","Kampung Tembawang","Bau","SRW"
"94000","Kampung Tringgus","Bau","SRW"
"94000","Krian","Bau","SRW"
"94000","Krokong","Bau","SRW"
"94000","Paku","Bau","SRW"
"94000","Samchien","Bau","SRW"
"94000","Sebuku","Bau","SRW"
"94000","Seringgok","Bau","SRW"
"94000","Siniawan","Bau","SRW"
"94000","Taiton","Bau","SRW"
"94000","Taman Dayu","Bau","SRW"
"94000","Taman Limbang","Bau","SRW"
"94000","Taman Mutiara","Bau","SRW"
"94000","Tanjong Batu","Bau","SRW"
"94000","Tanjong Durian","Bau","SRW"
"94000","Tasik Biru","Bau","SRW"
"94000","Tondong","Bau","SRW"
"94007","Bau - Peti Surat","Bau","SRW"
"94009","Bau - Beg Berkunci","Bau","SRW"
"94200","Batu 15 Jalan Kuching Serian","Siburan","SRW"
"94200","Beratok","Siburan","SRW"
"94200","Kampung Endap","Siburan","SRW"
"94200","Kampung Siburan","Siburan","SRW"
"94200","Kampung Sungai Duuh","Siburan","SRW"
"94200","Siburan","Siburan","SRW"
"94200","Tapah","Siburan","SRW"
"94300","Jalan Muara Tuang (Hingga Km 3)","Kota Samarahan","SRW"
"94300","Kampung Ampila","Kota Samarahan","SRW"
"94300","Kampung Bajo","Kota Samarahan","SRW"
"94300","Kampung Baru Samarahan","Kota Samarahan","SRW"
"94300","Kampung Lubok Mata","Kota Samarahan","SRW"
"94300","Kampung Mangka","Kota Samarahan","SRW"
"94300","Kampung Mata Parang","Kota Samarahan","SRW"
"94300","Kampung Melayu","Kota Samarahan","SRW"
"94300","Kampung Meranik","Kota Samarahan","SRW"
"94300","Kampung Merdang Lumut Jalan Datuk Mohd Musa","Kota Samarahan","SRW"
"94300","Kampung Merdang Lumut","Kota Samarahan","SRW"
"94300","Kampung Muara Tuang","Kota Samarahan","SRW"
"94300","Kampung Niup","Kota Samarahan","SRW"
"94300","Kampung Pengkalan Kuap Jalan Datuk Mohd Musa","Kota Samarahan","SRW"
"94300","Kampung Pinang","Kota Samarahan","SRW"
"94300","Kampung Plaie","Kota Samarahan","SRW"
"94300","Kampung Rambus","Kota Samarahan","SRW"
"94300","Kampung Semawang","Kota Samarahan","SRW"
"94300","Kampung Sindang","Kota Samarahan","SRW"
"94300","Kampung Sungai Mata","Kota Samarahan","SRW"
"94300","Kampung Tanjung Bundung","Kota Samarahan","SRW"
"94300","Kampung Tanjung Parang","Kota Samarahan","SRW"
"94300","Kampung Tanjung Tuang","Kota Samarahan","SRW"
"94300","Kota Samarahan","Kota Samarahan","SRW"
"94300","Taman Mustafa Jalan Datok Mohd Musa","Kota Samarahan","SRW"
"94300","UiTM Cawangan Sarawak Jalan Meranek","Kota Samarahan","SRW"
"94500","Jalan Blacksmith","Lundu","SRW"
"94500","Kampung Baru","Lundu","SRW"
"94500","Kampung Begak","Lundu","SRW"
"94500","Kampung Biawak","Lundu","SRW"
"94500","Kampung Dagang","Lundu","SRW"
"94500","Kampung Gerunggang","Lundu","SRW"
"94500","Kampung Klaoh","Lundu","SRW"
"94500","Kampung Perundang","Lundu","SRW"
"94500","Kampung Prian","Lundu","SRW"
"94500","Kampung Sebandi Matang","Lundu","SRW"
"94500","Kampung Sebemban","Lundu","SRW"
"94500","Kampung Sekambal","Lundu","SRW"
"94500","Kampung Seketi","Lundu","SRW"
"94500","Kampung Selampit","Lundu","SRW"
"94500","Kampung Seling Dayak","Lundu","SRW"
"94500","Kampung Seling Melayu","Lundu","SRW"
"94500","Kampung Sembawang","Lundu","SRW"
"94500","Kampung Sempadi","Lundu","SRW"
"94500","Kampung Semunin","Lundu","SRW"
"94500","Kampung Senibong","Lundu","SRW"
"94500","Kampung Serayan","Lundu","SRW"
"94500","Kampung Siar","Lundu","SRW"
"94500","Kampung Sileng Dayak","Lundu","SRW"
"94500","Kampung Sileng Melayu","Lundu","SRW"
"94500","Kampung Stunggang Dayak","Lundu","SRW"
"94500","Kampung Stunggang Melayu","Lundu","SRW"
"94500","Kampung Sungai Lundu","Lundu","SRW"
"94500","Kampung Temelan","Lundu","SRW"
"94500","Lundu","Lundu","SRW"
"94500","Sematan","Lundu","SRW"
"94500","Tanjung Datuk","Lundu","SRW"
"94507","Lundu - Peti Surat","Lundu","SRW"
"94509","Lundu - Beg Berkunci","Lundu","SRW"
"94600","Asajaya Bakong","Asajaya","SRW"
"94600","Asajaya Laut","Asajaya","SRW"
"94600","Asajaya Ulu","Asajaya","SRW"
"94600","Asajaya","Asajaya","SRW"
"94600","Kampung Iboi","Asajaya","SRW"
"94600","Kampung Jaie","Asajaya","SRW"
"94600","Kampung Jemukan","Asajaya","SRW"
"94600","Kampung Moyan","Asajaya","SRW"
"94600","Kampung Pelandok","Asajaya","SRW"
"94600","Kampung Rangawan","Asajaya","SRW"
"94600","Kampung Rebak","Asajaya","SRW"
"94600","Kampung Sambir","Asajaya","SRW"
"94600","Kampung Sampun Gerunggang","Asajaya","SRW"
"94600","Kampung Sebandi Hilir","Asajaya","SRW"
"94600","Kampung Sebandi Matang","Asajaya","SRW"
"94600","Kampung Sebandi Ulu","Asajaya","SRW"
"94600","Kampung Semera","Asajaya","SRW"
"94600","Kampung Senangeh","Asajaya","SRW"
"94600","Kampung Serpan Laut","Asajaya","SRW"
"94600","Kampung Serpan Parit Ulu","Asajaya","SRW"
"94600","Kampung Sungai Buluh","Asajaya","SRW"
"94600","Kampung Sungai Putin","Asajaya","SRW"
"94600","Kampung Tambirat","Asajaya","SRW"
"94600","Kampung Tanjung Apong","Asajaya","SRW"
"94600","Kampung Tanjung Kelaso","Asajaya","SRW"
"94600","Kampung Tembirat","Asajaya","SRW"
"94600","Kampung Terasi","Asajaya","SRW"
"94600","Pendam","Asajaya","SRW"
"94600","Sadong Jaya","Asajaya","SRW"
"94650","Kabong","Kabong","SRW"
"94650","Kampung Alit","Kabong","SRW"
"94650","Kampung Hilir","Kabong","SRW"
"94650","Kampung Hulu","Kabong","SRW"
"94700","Jalan Serian - Sri Aman (Batu 68)","Serian","SRW"
"94700","Jalan Serian - Sri Aman (Km 109)","Serian","SRW"
"94700","Kampung Benat","Serian","SRW"
"94700","Kampung Bintawa","Serian","SRW"
"94700","Kampung Cina","Serian","SRW"
"94700","Kampung Gedong","Serian","SRW"
"94700","Kampung Gumpey Gedong","Serian","SRW"
"94700","Kampung Jerok","Serian","SRW"
"94700","Kampung Kakai","Serian","SRW"
"94700","Kampung Lalang Gedong","Serian","SRW"
"94700","Kampung Munggu Limo","Serian","SRW"
"94700","Kampung Nyelitak","Serian","SRW"
"94700","Kampung Pancur","Serian","SRW"
"94700","Kampung Rasau","Serian","SRW"
"94700","Kampung Sambal Apeng","Serian","SRW"
"94700","Kampung Sambal Kruin","Serian","SRW"
"94700","Kampung Serian Hilir & Hulu","Serian","SRW"
"94700","Kampung Simpang Simunjan","Serian","SRW"
"94700","Kampung Slabi","Serian","SRW"
"94700","Kampung Spaoh Gedong","Serian","SRW"
"94700","Kampung Sungai Pinang","Serian","SRW"
"94700","Kampung Sungai Rawa","Serian","SRW"
"94700","Kampung Tanah Putih","Serian","SRW"
"94700","Kampung Tangga","Serian","SRW"
"94700","Kampung Telagus","Serian","SRW"
"94700","Kampung Terbat","Serian","SRW"
"94700","Kedup","Serian","SRW"
"94700","Serian","Serian","SRW"
"94700","Tarat","Serian","SRW"
"94707","Serian - Peti Surat","Serian","SRW"
"94709","Serian - Beg Berkunci","Serian","SRW"
"94750","Bunan Gega","Serian","SRW"
"94750","Kampung Krusen","Serian","SRW"
"94750","Kampung Pichin","Serian","SRW"
"94750","Kampung Tebakang Dayak","Serian","SRW"
"94750","Kampung Tebakang Melayu","Serian","SRW"
"94750","Muara Mongkos","Serian","SRW"
"94750","Tebakang","Serian","SRW"
"94760","Tebedu","Serian","SRW"
"94800","Gunung Ngeli","Simunjan","SRW"
"94800","Kampung Kelaka","Simunjan","SRW"
"94800","Kampung Lintang","Simunjan","SRW"
"94800","Kampung Lubuk Punggor","Simunjan","SRW"
"94800","Kampung Munggu Air","Simunjan","SRW"
"94800","Kampung Munggu Bejit","Simunjan","SRW"
"94800","Kampung Nanas","Simunjan","SRW"
"94800","Kampung Regelam","Simunjan","SRW"
"94800","Kampung Sageng","Simunjan","SRW"
"94800","Kampung Sedilo","Simunjan","SRW"
"94800","Kampung Tenggelam","Simunjan","SRW"
"94800","Munggu Bejit","Simunjan","SRW"
"94800","Sebangan","Simunjan","SRW"
"94800","Simunjan","Simunjan","SRW"
"94807","Simunjan - Peti Surat","Simunjan","SRW"
"94809","Simunjan - Beg Berkunci","Simunjan","SRW"
"94850","Jalan Sawmill","Sebuyau","SRW"
"94850","Kampung Baru","Sebuyau","SRW"
"94850","Kampung Hulu","Sebuyau","SRW"
"94850","Kampung Jeragan","Sebuyau","SRW"
"94850","Kampung Kelait","Sebuyau","SRW"
"94850","Kampung Lunying","Sebuyau","SRW"
"94850","Kampung Mamba","Sebuyau","SRW"
"94850","Kampung Masjid","Sebuyau","SRW"
"94850","Kampung Raba","Sebuyau","SRW"
"94850","Kampung Tanjong","Sebuyau","SRW"
"94850","Kampung Tebelu","Sebuyau","SRW"
"94850","Kampung Tuba","Sebuyau","SRW"
"94850","Sebuyau","Sebuyau","SRW"
"94900","Banting","Lingga","SRW"
"94900","Kampung Lingga","Lingga","SRW"
"94900","Kampung Semulong Ulu","Lingga","SRW"
"94900","Lingga","Lingga","SRW"
"94900","Semulong Ulu","Lingga","SRW"
"94950","Kampung Beladin","Pusa","SRW"
"94950","Kampung Hilir","Pusa","SRW"
"94950","Kampung Hulu","Pusa","SRW"
"94950","Kampung Tengah","Pusa","SRW"
"94950","Kampung Triso","Pusa","SRW"
"94950","Maludam","Pusa","SRW"
"94950","Pusa","Pusa","SRW"
"95000","Bakong","Sri Aman","SRW"
"95000","Batu Lintang Ulu Undop","Sri Aman","SRW"
"95000","Batu Lintang","Sri Aman","SRW"
"95000","Beting Maro","Sri Aman","SRW"
"95000","Bukit Begunan","Sri Aman","SRW"
"95000","Jalan Bayu","Sri Aman","SRW"
"95000","Jalan Belimbing","Sri Aman","SRW"
"95000","Jalan Berjaya","Sri Aman","SRW"
"95000","Jalan Brayun","Sri Aman","SRW"
"95000","Jalan Council","Sri Aman","SRW"
"95000","Jalan Datuk Tawi Sli","Sri Aman","SRW"
"95000","Jalan Datus","Sri Aman","SRW"
"95000","Jalan Durian","Sri Aman","SRW"
"95000","Jalan Foochow","Sri Aman","SRW"
"95000","Jalan Glumba","Sri Aman","SRW"
"95000","Jalan Hap Sing","Sri Aman","SRW"
"95000","Jalan Hollis","Sri Aman","SRW"
"95000","Jalan Hospital","Sri Aman","SRW"
"95000","Jalan Hujung Brayun","Sri Aman","SRW"
"95000","Jalan Hup Chung","Sri Aman","SRW"
"95000","Jalan Kampung Baru","Sri Aman","SRW"
"95000","Jalan Kampung Sri Wangi","Sri Aman","SRW"
"95000","Jalan Kejatau","Sri Aman","SRW"
"95000","Jalan Kelab","Sri Aman","SRW"
"95000","Jalan Laden","Sri Aman","SRW"
"95000","Jalan Litak","Sri Aman","SRW"
"95000","Jalan Market","Sri Aman","SRW"
"95000","Jalan Micheal Pilo","Sri Aman","SRW"
"95000","Jalan Muhibbah","Sri Aman","SRW"
"95000","Jalan Ningkan","Sri Aman","SRW"
"95000","Jalan Padri","Sri Aman","SRW"
"95000","Jalan Pasir Panas Hoping","Sri Aman","SRW"
"95000","Jalan Pasir Panas","Sri Aman","SRW"
"95000","Jalan Paya","Sri Aman","SRW"
"95000","Jalan Ping Ping","Sri Aman","SRW"
"95000","Jalan Resak","Sri Aman","SRW"
"95000","Jalan Residensi","Sri Aman","SRW"
"95000","Jalan Sabu","Sri Aman","SRW"
"95000","Jalan Sau Hui","Sri Aman","SRW"
"95000","Jalan Sembau","Sri Aman","SRW"
"95000","Jalan Stawang","Sri Aman","SRW"
"95000","Jalan Tapang","Sri Aman","SRW"
"95000","Jalan Tini","Sri Aman","SRW"
"95000","Kampung Baru Stumbin","Sri Aman","SRW"
"95000","Kampung Baru","Sri Aman","SRW"
"95000","Kampung Hilir","Sri Aman","SRW"
"95000","Kampung Hulu","Sri Aman","SRW"
"95000","Kampung Lemanak","Sri Aman","SRW"
"95000","Kampung Muhibbah","Sri Aman","SRW"
"95000","Kampung STC","Sri Aman","SRW"
"95000","Kampung Sabu","Sri Aman","SRW"
"95000","Kampung Seri Wangni","Sri Aman","SRW"
"95000","Kampung Tengah","Sri Aman","SRW"
"95000","Kampung Teratai","Sri Aman","SRW"
"95000","Lachau","Sri Aman","SRW"
"95000","Melugu","Sri Aman","SRW"
"95000","Pantu","Sri Aman","SRW"
"95000","Rumah Gilan","Sri Aman","SRW"
"95000","Selepong","Sri Aman","SRW"
"95000","Sembau","Sri Aman","SRW"
"95000","Simanggang","Sri Aman","SRW"
"95000","Sri Aman","Sri Aman","SRW"
"95000","Stumbin","Sri Aman","SRW"
"95000","Sungai Tenggang","Sri Aman","SRW"
"95000","Taman Azba","Sri Aman","SRW"
"95000","Taman Bayu","Sri Aman","SRW"
"95000","Taman Bestari","Sri Aman","SRW"
"95000","Taman Crystal","Sri Aman","SRW"
"95000","Taman Desa Indah","Sri Aman","SRW"
"95000","Taman Foochow","Sri Aman","SRW"
"95000","Taman Gamang Height","Sri Aman","SRW"
"95000","Taman Green Height","Sri Aman","SRW"
"95000","Taman Hoover Height","Sri Aman","SRW"
"95000","Taman King","Sri Aman","SRW"
"95000","Taman Kurniawan (Fasa 1 - 3)","Sri Aman","SRW"
"95000","Taman Loon Coon","Sri Aman","SRW"
"95000","Taman Mayfair","Sri Aman","SRW"
"95000","Taman Norita","Sri Aman","SRW"
"95000","Taman Padri","Sri Aman","SRW"
"95000","Taman Pasir Panas (Fasa 1 - 2)","Sri Aman","SRW"
"95000","Taman Sabu","Sri Aman","SRW"
"95000","Taman Sagam","Sri Aman","SRW"
"95000","Taman Siang","Sri Aman","SRW"
"95000","Taman Sing Sing","Sri Aman","SRW"
"95000","Taman Sri Gamang","Sri Aman","SRW"
"95000","Taman Sri Jaya","Sri Aman","SRW"
"95000","Taman Sri Mewah","Sri Aman","SRW"
"95000","Taman Tiara","Sri Aman","SRW"
"95000","Taman Vistaro","Sri Aman","SRW"
"95000","Taman Wawasan","Sri Aman","SRW"
"95000","Tanjung Bijat","Sri Aman","SRW"
"95000","Ulu Undop","Sri Aman","SRW"
"95007","Sri Aman - Peti Surat (1 - 200)","Sri Aman","SRW"
"95008","Sri Aman - Peti Surat (201 & ke atas)","Sri Aman","SRW"
"95009","Sri Aman - Beg Berkunci","Sri Aman","SRW"
"95300","Brayang","Roban","SRW"
"95300","Jalan Mundu","Roban","SRW"
"95300","Jalan Panjang","Roban","SRW"
"95300","Jalan Sabit","Roban","SRW"
"95300","Kampung Sabit","Roban","SRW"
"95300","Lichok Seblak","Roban","SRW"
"95300","Roban","Roban","SRW"
"95300","Rumah Admond Kombong","Roban","SRW"
"95300","Rumah Daud","Roban","SRW"
"95300","Rumah Enggah","Roban","SRW"
"95300","Rumah Entusan","Roban","SRW"
"95300","Rumah Indu","Roban","SRW"
"95300","Rumah Jenang","Roban","SRW"
"95300","Rumah Kunchi","Roban","SRW"
"95300","Rumah Latit","Roban","SRW"
"95300","Rumah Nait","Roban","SRW"
"95300","Rumah Raming Metong","Roban","SRW"
"95300","Rumah Ramping","Roban","SRW"
"95300","Rumah Saing","Roban","SRW"
"95300","Rumah Sungka","Roban","SRW"
"95400","Engkudu","Saratok","SRW"
"95400","Kaki Wong","Saratok","SRW"
"95400","Kalaka","Saratok","SRW"
"95400","Kampung Disso Hilir","Saratok","SRW"
"95400","Kampung Disso Hulu","Saratok","SRW"
"95400","Kampung Kaba","Saratok","SRW"
"95400","Kampung Krupok","Saratok","SRW"
"95400","Kampung Kupang","Saratok","SRW"
"95400","Kampung Lubok Renit Hilir","Saratok","SRW"
"95400","Kampung Masjid","Saratok","SRW"
"95400","Kampung Melanggo Baru","Saratok","SRW"
"95400","Kampung Melanggo Lama","Saratok","SRW"
"95400","Kampung Ng Malong","Saratok","SRW"
"95400","Krangan","Saratok","SRW"
"95400","Krian","Saratok","SRW"
"95400","Lubuk Kepayang","Saratok","SRW"
"95400","Nanga Atoi","Saratok","SRW"
"95400","Nanga Budu","Saratok","SRW"
"95400","Saratok","Saratok","SRW"
"95400","Simpang Tiga Sungai Barangan","Saratok","SRW"
"95400","Taman Metro Park","Saratok","SRW"
"95400","Taman Miniata","Saratok","SRW"
"95400","Taman Muhibbah","Saratok","SRW"
"95400","Taman Seroja Indah","Saratok","SRW"
"95400","Wong Limat","Saratok","SRW"
"95407","Saratok - Peti Surat","Saratok","SRW"
"95409","Saratok - Beg Berkunci","Saratok","SRW"
"95500","Debak","Debak","SRW"
"95500","Kampung Babu","Debak","SRW"
"95500","Kampung Bungey","Debak","SRW"
"95500","Kampung Debak Laut","Debak","SRW"
"95500","Kampung Lalang","Debak","SRW"
"95500","Kampung Tuie","Debak","SRW"
"95500","Saribas","Debak","SRW"
"95600","Kampung Bungin","Spaoh","SRW"
"95600","Kampung Hilir","Spaoh","SRW"
"95600","Penom","Spaoh","SRW"
"95600","Rumah Jali Ng Bangkit","Spaoh","SRW"
"95600","Spaoh","Spaoh","SRW"
"95700","Betong","Betong","SRW"
"95700","Kampung Entanak","Betong","SRW"
"95700","Kampung Hilir","Betong","SRW"
"95700","Kampung Lempaong","Betong","SRW"
"95700","Kampung Masjid","Betong","SRW"
"95700","Kampung Tengah","Betong","SRW"
"95700","Layar Bridge","Betong","SRW"
"95700","Nanga Spak","Betong","SRW"
"95700","Skrang","Betong","SRW"
"95707","Betong - Peti Surat","Betong","SRW"
"95709","Betong - Beg Berkunci","Betong","SRW"
"95800","Engkilili","Engkilili","SRW"
"95800","Kampung Melayu","Engkilili","SRW"
"95900","Batang Ai","Lubok Antu","SRW"
"95900","Kampung Kutai","Lubok Antu","SRW"
"95900","Kampung Melayu","Lubok Antu","SRW"
"95900","Lubuk Antu","Lubok Antu","SRW"
"95900","Merindun","Lubok Antu","SRW"
"95900","Nanga Mepi","Lubok Antu","SRW"
"96000","Aup","Sibu","SRW"
"96000","Batang Lasa","Sibu","SRW"
"96000","Bawang Assan","Sibu","SRW"
"96000","Bukit Asek","Sibu","SRW"
"96000","Bukit Lan","Sibu","SRW"
"96000","Dudong","Sibu","SRW"
"96000","Durin","Sibu","SRW"
"96000","Engkalat","Sibu","SRW"
"96000","Engkio","Sibu","SRW"
"96000","Ensurai","Sibu","SRW"
"96000","Kampung Bahagia Jaya","Sibu","SRW"
"96000","Kampung Banyok","Sibu","SRW"
"96000","Kampung Bungan","Sibu","SRW"
"96000","Kampung Igan","Sibu","SRW"
"96000","Kampung Jeriah Baru","Sibu","SRW"
"96000","Kampung Sawai Dalat","Sibu","SRW"
"96000","Kampung Usaha Jaya Baru","Sibu","SRW"
"96000","Kampung Usaha Jaya","Sibu","SRW"
"96000","Lengan","Sibu","SRW"
"96000","Menyan","Sibu","SRW"
"96000","Naman","Sibu","SRW"
"96000","Nanga Baoh","Sibu","SRW"
"96000","Nanga Paloh","Sibu","SRW"
"96000","Nanga Tamin","Sibu","SRW"
"96000","Nanga Tepus Balingian","Sibu","SRW"
"96000","Nangka","Sibu","SRW"
"96000","Paradom","Sibu","SRW"
"96000","Pasai Siong","Sibu","SRW"
"96000","Pasar Stapang","Sibu","SRW"
"96000","Passin","Sibu","SRW"
"96000","Pelawan","Sibu","SRW"
"96000","Penasu","Sibu","SRW"
"96000","Pulai Kerto","Sibu","SRW"
"96000","Rajang Park","Sibu","SRW"
"96000","Rantau Panjang","Sibu","SRW"
"96000","Rassau","Sibu","SRW"
"96000","Salim","Sibu","SRW"
"96000","Sekuau","Sibu","SRW"
"96000","Selangau","Sibu","SRW"
"96000","Sengan","Sibu","SRW"
"96000","Sibintik","Sibu","SRW"
"96000","Sibu","Sibu","SRW"
"96000","Singat","Sibu","SRW"
"96000","Stabau","Sibu","SRW"
"96000","Sungai Bidut","Sibu","SRW"
"96000","Sungai Dasan","Sibu","SRW"
"96000","Sungai Empawah","Sibu","SRW"
"96000","Sungai Maaw","Sibu","SRW"
"96000","Sungai Nibong","Sibu","SRW"
"96000","Sungai Pak","Sibu","SRW"
"96000","Sungai Salim","Sibu","SRW"
"96000","Sungai Saoit","Sibu","SRW"
"96000","Sungai Teku","Sibu","SRW"
"96000","Sungai Telian","Sibu","SRW"
"96000","Taman Crystal","Sibu","SRW"
"96000","Taman Damai","Sibu","SRW"
"96000","Taman Grands Heights","Sibu","SRW"
"96000","Taman Harmoni","Sibu","SRW"
"96000","Taman Kenari","Sibu","SRW"
"96000","Taman Mutiara","Sibu","SRW"
"96000","Taman Paramount","Sibu","SRW"
"96000","Taman Pulau Li Hua","Sibu","SRW"
"96000","Taman Rajang","Sibu","SRW"
"96000","Taman Shan Shui","Sibu","SRW"
"96000","Taman Siti Nurbaya","Sibu","SRW"
"96000","Taman Soon Hup","Sibu","SRW"
"96000","Taman Swan","Sibu","SRW"
"96000","Taman Wawasan","Sibu","SRW"
"96000","Tanjung Kunyit","Sibu","SRW"
"96000","Tanjung Pan","Sibu","SRW"
"96000","Teluk Bango","Sibu","SRW"
"96000","Teluk Selalo","Sibu","SRW"
"96000","Tung Nam Poh","Sibu","SRW"
"96000","Ulu Lanang","Sibu","SRW"
"96007","Sibu - Peti Surat (1 - 750)","Sibu","SRW"
"96008","Sibu - Peti Surat (751 & ke atas)","Sibu","SRW"
"96009","Sibu - Beg Berkunci","Sibu","SRW"
"96100","Jakar","Sarikei","SRW"
"96100","Pakan (Sarikei)","Sarikei","SRW"
"96100","Paloh","Sarikei","SRW"
"96100","Repok","Sarikei","SRW"
"96100","Sarikei","Sarikei","SRW"
"96100","Selalang","Sarikei","SRW"
"96100","Sungai Petai","Sarikei","SRW"
"96107","Sarikei - Peti Surat 1 - 300","Sarikei","SRW"
"96108","Sarikei - Peti Surat 301 & ke atas","Sarikei","SRW"
"96109","Sarikei - Beg Berkunci","Sarikei","SRW"
"96150","Belawai","Belawai","SRW"
"96150","Kampung Baru","Belawai","SRW"
"96150","Kampung Darat","Belawai","SRW"
"96150","Kampung Jerijeh Baru","Belawai","SRW"
"96150","Kampung Masjid Lama","Belawai","SRW"
"96150","Kampung Rejang","Belawai","SRW"
"96150","Kampung Tengah","Belawai","SRW"
"96150","Kampung Tepi Laut","Belawai","SRW"
"96150","Tanjung Manis","Belawai","SRW"
"96200","Batang Lasak","Daro","SRW"
"96200","Bericakong","Daro","SRW"
"96200","Betanak","Daro","SRW"
"96200","Daro","Daro","SRW"
"96200","Jalan Bina","Daro","SRW"
"96200","Jalan Central","Daro","SRW"
"96200","Jalan Itol","Daro","SRW"
"96200","Kampung Bawang","Daro","SRW"
"96200","Kampung Bruit","Daro","SRW"
"96200","Kampung Kelian","Daro","SRW"
"96200","Kampung Nan San","Daro","SRW"
"96200","Kampung Nangar","Daro","SRW"
"96200","Kampung Paloh","Daro","SRW"
"96200","Kampung Penakong","Daro","SRW"
"96200","Kampung Penuai","Daro","SRW"
"96200","Kampung Penyipah","Daro","SRW"
"96200","Kampung Saai","Daro","SRW"
"96200","Kampung Sawai","Daro","SRW"
"96200","Kampung Sebakau","Daro","SRW"
"96200","Kampung Sebenak","Daro","SRW"
"96200","Kampung Sedeo","Daro","SRW"
"96200","Kampung Serdeng","Daro","SRW"
"96200","Kampung Tebaang","Daro","SRW"
"96200","Kampung Tekajong","Daro","SRW"
"96200","Kampung Tikajong","Daro","SRW"
"96200","Kampung Ulu Daro","Daro","SRW"
"96200","Kelian","Daro","SRW"
"96200","Mupong","Daro","SRW"
"96200","Naga Kecil","Daro","SRW"
"96200","Ng. Semah","Daro","SRW"
"96200","Salah Kecil/Besar","Daro","SRW"
"96250","Kampung Dagang","Matu","SRW"
"96250","Kampung Jemoreng","Matu","SRW"
"96250","Kampung Kuala Matu","Matu","SRW"
"96250","Kampung Muut","Matu","SRW"
"96250","Kampung Pasar Baru","Matu","SRW"
"96250","Kampung Pasar Lama","Matu","SRW"
"96250","Kampung Pergau","Matu","SRW"
"96250","Kampung Sekaan Besar","Matu","SRW"
"96250","Kampung Sekaan Kecil","Matu","SRW"
"96250","Kampung Serakat","Matu","SRW"
"96250","Kampung Tering","Matu","SRW"
"96250","Kampung Tian","Matu","SRW"
"96250","Matu","Matu","SRW"
"96250","Telok Gelam","Matu","SRW"
"96300","Dalat","Dalat","SRW"
"96300","Kampung Balan","Dalat","SRW"
"96300","Kampung Baru Cina","Dalat","SRW"
"96300","Kampung Baru","Dalat","SRW"
"96300","Kampung Brunei","Dalat","SRW"
"96300","Kampung Dalat Seberang","Dalat","SRW"
"96300","Kampung Hilir","Dalat","SRW"
"96300","Kampung Kekan","Dalat","SRW"
"96300","Kampung Klid","Dalat","SRW"
"96300","Kampung Medong","Dalat","SRW"
"96300","Kampung Narub","Dalat","SRW"
"96300","Kampung Sua","Dalat","SRW"
"96300","Kampung Sungai Anak","Dalat","SRW"
"96300","Kampung Sungai Kut Muara","Dalat","SRW"
"96300","Kampung Sungai Kut Tengah","Dalat","SRW"
"96300","Kampung Sungai Ud","Dalat","SRW"
"96300","Kampung Tanam","Dalat","SRW"
"96300","Kampung Tengah","Dalat","SRW"
"96300","Kampung The","Dalat","SRW"
"96300","Sungai Kut","Dalat","SRW"
"96307","Dalat - Peti Surat","Dalat","SRW"
"96309","Dalat - Beg Berkunci","Dalat","SRW"
"96350","Balingian","Balingian","SRW"
"96350","Kampung Baru","Balingian","SRW"
"96350","Kampung Lintang","Balingian","SRW"
"96350","Kampung Masjid","Balingian","SRW"
"96350","Kampung Pulat","Balingian","SRW"
"96350","Kampung Suyong","Balingian","SRW"
"96350","Kuala Balingian","Balingian","SRW"
"96400","Kampung Badengan","Mukah","SRW"
"96400","Kampung Boyan","Mukah","SRW"
"96400","Kampung Bunut","Mukah","SRW"
"96400","Kampung Datu","Mukah","SRW"
"96400","Kampung Jebungan","Mukah","SRW"
"96400","Kampung Judan","Mukah","SRW"
"96400","Kampung Litong","Mukah","SRW"
"96400","Kampung Penakub Permai","Mukah","SRW"
"96400","Kampung Penakub Ulu","Mukah","SRW"
"96400","Kampung Penipah","Mukah","SRW"
"96400","Kampung Petanak","Mukah","SRW"
"96400","Kampung Pewat","Mukah","SRW"
"96400","Kampung Pinang","Mukah","SRW"
"96400","Kampung Sau","Mukah","SRW"
"96400","Kampung Seri Tellian","Mukah","SRW"
"96400","Kampung Sesok","Mukah","SRW"
"96400","Kampung Sungai Alo","Mukah","SRW"
"96400","Kampung Sungai Ragei","Mukah","SRW"
"96400","Kampung Teh","Mukah","SRW"
"96400","Kampung Tellian Daya","Mukah","SRW"
"96400","Kampung Tellian Jaya","Mukah","SRW"
"96400","Kampung Tutus Ulu","Mukah","SRW"
"96400","Mukah","Mukah","SRW"
"96400","Nanga Kenyana","Mukah","SRW"
"96400","Nanga Selangau","Mukah","SRW"
"96400","Nanga Sikat","Mukah","SRW"
"96400","Nanga Taroh","Mukah","SRW"
"96400","Taman Boulevard","Mukah","SRW"
"96400","Taman Ching Ching","Mukah","SRW"
"96400","Taman Hong Leong","Mukah","SRW"
"96400","Taman King Sun","Mukah","SRW"
"96400","Taman Kubang Jaya","Mukah","SRW"
"96400","Taman Li Hua","Mukah","SRW"
"96400","Taman Muhibbah","Mukah","SRW"
"96400","Taman Pelita (1 - 4)","Mukah","SRW"
"96400","Taman Yun Seng","Mukah","SRW"
"96410","Oya","Mukah","SRW"
"96500","Bakong","Bintangor","SRW"
"96500","Bintangor","Bintangor","SRW"
"96500","Kampung Penasu","Bintangor","SRW"
"96500","Kampung Semop","Bintangor","SRW"
"96500","Mador","Bintangor","SRW"
"96500","Meradong","Bintangor","SRW"
"96500","Nanga Semah","Bintangor","SRW"
"96500","Narasit","Bintangor","SRW"
"96500","Rumah Mura","Bintangor","SRW"
"96500","Sungai Strass","Bintangor","SRW"
"96500","Tanjong Genting","Bintangor","SRW"
"96500","Tulai","Bintangor","SRW"
"96500","Ulu Strass","Bintangor","SRW"
"96507","Bintangor - Peti Surat (1 - 140)","Bintangor","SRW"
"96508","Bintangor - Peti Surat (141 & ke atas)","Bintangor","SRW"
"96509","Bintangor - Beg Berkunci","Bintangor","SRW"
"96600","Julau","Julau","SRW"
"96600","Nanga Ensiring","Julau","SRW"
"96600","Nanga Entabai","Julau","SRW"
"96600","Nanga Meluan","Julau","SRW"
"96700","Kampung Hilir","Kanowit","SRW"
"96700","Kampung Masjid","Kanowit","SRW"
"96700","Kanowit","Kanowit","SRW"
"96700","Nanga Dap","Kanowit","SRW"
"96700","Nanga Jagau","Kanowit","SRW"
"96700","Nanga Machan","Kanowit","SRW"
"96700","Nanga Manggut","Kanowit","SRW"
"96700","Nanga Ngemah","Kanowit","SRW"
"96700","Nanga Tada","Kanowit","SRW"
"96707","Kanowit - Peti Surat","Kanowit","SRW"
"96709","Kanowit - Beg Berkunci","Kanowit","SRW"
"96800","Baleh","Kapit","SRW"
"96800","Jalan Abang Suhaili","Kapit","SRW"
"96800","Kampung Baru","Kapit","SRW"
"96800","Kampung Bleteh","Kapit","SRW"
"96800","Kapit","Kapit","SRW"
"96800","Nanga Bena","Kapit","SRW"
"96800","Nanga Gaat","Kapit","SRW"
"96800","Nanga Merit","Kapit","SRW"
"96800","Nanga Mujong","Kapit","SRW"
"96800","Pelagus","Kapit","SRW"
"96807","Kapit - Peti Surat","Kapit","SRW"
"96809","Kapit - Beg Berkunci","Kapit","SRW"
"96850","Kampung Cina","Song","SRW"
"96850","Kampung Gelam","Song","SRW"
"96850","Katibas","Song","SRW"
"96850","Nanga Bangkit","Song","SRW"
"96850","Nanga Bena","Song","SRW"
"96850","Song","Song","SRW"
"96900","Batu Keling","Belaga","SRW"
"96900","Belaga","Belaga","SRW"
"96900","Kampung Melayu","Belaga","SRW"
"96900","Long Amo","Belaga","SRW"
"96900","Long Bah","Belaga","SRW"
"96900","Long Busang","Belaga","SRW"
"96900","Long Segaham","Belaga","SRW"
"97000","Abang Galau","Bintulu","SRW"
"97000","Bintulu","Bintulu","SRW"
"97000","Kampung Baru","Bintulu","SRW"
"97000","Kampung Dagang","Bintulu","SRW"
"97000","Kampung Dato","Bintulu","SRW"
"97000","Kampung Jepak","Bintulu","SRW"
"97000","Kampung Masjid","Bintulu","SRW"
"97000","Kampung Sibiew","Bintulu","SRW"
"97000","Kampung Sinong","Bintulu","SRW"
"97000","Kampung Tepak","Bintulu","SRW"
"97000","Kemena","Bintulu","SRW"
"97000","Universiti Pertanian Bintulu","Bintulu","SRW"
"97007","Bintulu - Peti Surat (1 - 300)","Bintulu","SRW"
"97008","Bintulu - Peti Surat (301 - 1500)","Bintulu","SRW"
"97009","Bintulu - Beg Berkunci","Bintulu","SRW"
"97010","Bintulu - Peti Surat (1501 - 2000)","Bintulu","SRW"
"97011","Bintulu - Peti Surat (2001 - 2500)","Bintulu","SRW"
"97012","Bintulu - Peti Surat (2501 - 3000)","Bintulu","SRW"
"97013","Bintulu - Peti Surat (3001 - 3500)","Bintulu","SRW"
"97014","Bintulu - Peti Surat (3501 - 4000)","Bintulu","SRW"
"97015","Bintulu - Peti Surat (4001 & ke atas)","Bintulu","SRW"
"97100","Kampung Hilir","Sebauh","SRW"
"97100","Kampung Masjid","Sebauh","SRW"
"97100","Labang","Sebauh","SRW"
"97100","Pandan","Sebauh","SRW"
"97100","Sebauh","Sebauh","SRW"
"97100","Tubau","Sebauh","SRW"
"97200","Kakus","Tatau","SRW"
"97200","Kampung Dagang","Tatau","SRW"
"97200","Kampung Kuala Tatau","Tatau","SRW"
"97200","Kuala Tatau Bazaar","Tatau","SRW"
"97200","Nanga Tau","Tatau","SRW"
"97200","Sangan Bazaar","Tatau","SRW"
"97200","Tatau","Tatau","SRW"
"97300","Tanjung Kidurong","Bintulu","SRW"
"98000","Beluru","Miri","SRW"
"98000","Jalan Miri - Bintulu (Batu 26)","Miri","SRW"
"98000","Kampung Bakam","Miri","SRW"
"98000","Kampung Kuala Baram","Miri","SRW"
"98000","Kampung Tuanku Abdul Rahman","Miri","SRW"
"98000","Kuala Baram","Miri","SRW"
"98000","Ladang Tiga","Miri","SRW"
"98000","Lambir","Miri","SRW"
"98000","Miri","Miri","SRW"
"98000","Morsjaya","Miri","SRW"
"98000","Piasau","Miri","SRW"
"98000","Senadin","Miri","SRW"
"98000","Sungai Rait","Miri","SRW"
"98007","Miri - Peti Surat 1 - 750","Miri","SRW"
"98008","Miri - Peti Surat 751 & ke atas","Miri","SRW"
"98009","Miri - Beg Berkunci","Miri","SRW"
"98050","Baram","Baram","SRW"
"98050","Bario","Baram","SRW"
"98050","Golden Hill (Jalan Hii Nguon Song)","Baram","SRW"
"98050","Jalan Kapitan Lim Ching Kiat","Baram","SRW"
"98050","Jalan Setia","Baram","SRW"
"98050","Kampung Baru (Jalan Dato Tuanku Abdul Rahman)","Baram","SRW"
"98050","Kampung Dagang","Baram","SRW"
"98050","Kampung Narum","Baram","SRW"
"98050","Kampung Padang Kerbau","Baram","SRW"
"98050","Kampung Permindahan (Jalan Muhibah) P1 & P2","Baram","SRW"
"98050","Long Akah","Baram","SRW"
"98050","Long Atip","Baram","SRW"
"98050","Long Lellang","Baram","SRW"
"98050","Long Seridan","Baram","SRW"
"98050","Long Teru","Baram","SRW"
"98050","Lubuk Nibong","Baram","SRW"
"98050","Marudi","Baram","SRW"
"98050","RC Mission (Jalan Tem. Dato Oyong Lawai Jau)","Baram","SRW"
"98050","Sungai Jaong","Baram","SRW"
"98050","Taman Dah Yuh (Jalan Temenggong Gau Jau)","Baram","SRW"
"98050","Telang Usan","Baram","SRW"
"98057","Baram - Peti Surat 1 - 100","Baram","SRW"
"98058","Baram - Peti Surat 101 & ke atas","Baram","SRW"
"98059","Baram - Beg Berkunci","Baram","SRW"
"98100","Lutong","Lutong","SRW"
"98107","Lutong - Peti Surat","Lutong","SRW"
"98109","Lutong - Beg Berkunci","Lutong","SRW"
"98150","Bekenu","Bekenu","SRW"
"98150","Kampung Bekenu","Bekenu","SRW"
"98150","Kampung Bulau","Bekenu","SRW"
"98150","Kampung Bungai","Bekenu","SRW"
"98150","Kampung Jangalas","Bekenu","SRW"
"98150","Kampung Kayu Kapur","Bekenu","SRW"
"98150","Kampung Kejapil","Bekenu","SRW"
"98150","Kampung Kelulit","Bekenu","SRW"
"98150","Kampung Keluru","Bekenu","SRW"
"98150","Kampung Kuala Bakar","Bekenu","SRW"
"98150","Kampung Kuala Sibuti","Bekenu","SRW"
"98150","Kampung Menjelin","Bekenu","SRW"
"98150","Kampung Mutap","Bekenu","SRW"
"98150","Kampung Ranca-Ranca","Bekenu","SRW"
"98150","Kampung Satap","Bekenu","SRW"
"98150","Kampung Sebalik","Bekenu","SRW"
"98150","Kampung Selanyau","Bekenu","SRW"
"98150","Kampung Sepurau","Bekenu","SRW"
"98150","Kampung Sinop","Bekenu","SRW"
"98150","Kampung Subak","Bekenu","SRW"
"98157","Bekenu - Peti Surat","Bekenu","SRW"
"98159","Bekenu - Beg Berkunci","Bekenu","SRW"
"98200","Batu Niah","Niah","SRW"
"98200","Kampung Dagang","Niah","SRW"
"98200","Kampung Masjid","Niah","SRW"
"98200","Kampung Sepupok","Niah","SRW"
"98200","Niah","Niah","SRW"
"98200","Rumah Sawing","Niah","SRW"
"98200","Sungai Sekerat","Niah","SRW"
"98300","Jalan 7 mile Round","Long Lama","SRW"
"98300","Kampung Sri Kenawan","Long Lama","SRW"
"98300","Kampung Sungai Dua","Long Lama","SRW"
"98300","Lang Laput","Long Lama","SRW"
"98300","Long Lama","Long Lama","SRW"
"98300","Long Miri","Long Lama","SRW"
"98300","Long Pilah","Long Lama","SRW"
"98700","Jalan Bangkita","Limbang","SRW"
"98700","Jalan Buangsiol","Limbang","SRW"
"98700","Jalan Cempaka Utara","Limbang","SRW"
"98700","Jalan Kubong","Limbang","SRW"
"98700","Jalan Kubu","Limbang","SRW"
"98700","Jalan Maybank","Limbang","SRW"
"98700","Jalan Merdeka","Limbang","SRW"
"98700","Jalan Muhibbah","Limbang","SRW"
"98700","Jalan Pandaruan","Limbang","SRW"
"98700","Jalan Pegong","Limbang","SRW"
"98700","Jalan Rickettes","Limbang","SRW"
"98700","Jalan Tarap","Limbang","SRW"
"98700","Jalan Wayang","Limbang","SRW"
"98700","Jalan Wong Tsap Tsen","Limbang","SRW"
"98700","Kampung Agong Tua","Limbang","SRW"
"98700","Kampung Anak Bukit","Limbang","SRW"
"98700","Kampung Anak Tuno","Limbang","SRW"
"98700","Kampung Bakol","Limbang","SRW"
"98700","Kampung Bambangan","Limbang","SRW"
"98700","Kampung Bangkita","Limbang","SRW"
"98700","Kampung Bangkuati","Limbang","SRW"
"98700","Kampung Baru Kuala Berawan","Limbang","SRW"
"98700","Kampung Baru","Limbang","SRW"
"98700","Kampung Batu 2 1/2","Limbang","SRW"
"98700","Kampung Batu Bekarang","Limbang","SRW"
"98700","Kampung Batu Berawan","Limbang","SRW"
"98700","Kampung Batu Danau","Limbang","SRW"
"98700","Kampung Batu Kerang","Limbang","SRW"
"98700","Kampung Belading","Limbang","SRW"
"98700","Kampung Belimbing","Limbang","SRW"
"98700","Kampung Benuas","Limbang","SRW"
"98700","Kampung Bidang","Limbang","SRW"
"98700","Kampung Binjai","Limbang","SRW"
"98700","Kampung Buang Siol","Limbang","SRW"
"98700","Kampung Buangabai","Limbang","SRW"
"98700","Kampung Bukit Kota","Limbang","SRW"
"98700","Kampung Bukit Luba","Limbang","SRW"
"98700","Kampung Buluh Balui","Limbang","SRW"
"98700","Kampung Bumbun","Limbang","SRW"
"98700","Kampung Bunga Raya","Limbang","SRW"
"98700","Kampung Cempaka","Limbang","SRW"
"98700","Kampung Gadong","Limbang","SRW"
"98700","Kampung Gumaya","Limbang","SRW"
"98700","Kampung Imok","Limbang","SRW"
"98700","Kampung Indok","Limbang","SRW"
"98700","Kampung Ipai","Limbang","SRW"
"98700","Kampung Kelapa Mawar","Limbang","SRW"
"98700","Kampung Kuala Awang","Limbang","SRW"
"98700","Kampung Lembuak","Limbang","SRW"
"98700","Kampung Limpaki","Limbang","SRW"
"98700","Kampung Limpaong","Limbang","SRW"
"98700","Kampung Lubok Bidai","Limbang","SRW"
"98700","Kampung Lubok Lasa","Limbang","SRW"
"98700","Kampung Lubok Pangie","Limbang","SRW"
"98700","Kampung Lubok Piasau","Limbang","SRW"
"98700","Kampung Malagangai","Limbang","SRW"
"98700","Kampung Masjid","Limbang","SRW"
"98700","Kampung Medait","Limbang","SRW"
"98700","Kampung Mengatai","Limbang","SRW"
"98700","Kampung Merasan","Limbang","SRW"
"98700","Kampung Meritam","Limbang","SRW"
"98700","Kampung Nauran","Limbang","SRW"
"98700","Kampung Pabahanan","Limbang","SRW"
"98700","Kampung Pahlawan","Limbang","SRW"
"98700","Kampung Pandak","Limbang","SRW"
"98700","Kampung Patiambun","Limbang","SRW"
"98700","Kampung Paya Mengeliong","Limbang","SRW"
"98700","Kampung Pekan Gurah","Limbang","SRW"
"98700","Kampung Pekan Jawa","Limbang","SRW"
"98700","Kampung Pekan Madang","Limbang","SRW"
"98700","Kampung Pelita (LCDA)","Limbang","SRW"
"98700","Kampung Pemukat","Limbang","SRW"
"98700","Kampung Penapak","Limbang","SRW"
"98700","Kampung Pendam","Limbang","SRW"
"98700","Kampung Petiambun","Limbang","SRW"
"98700","Kampung Pundut","Limbang","SRW"
"98700","Kampung Runggu","Limbang","SRW"
"98700","Kampung Sangkar","Limbang","SRW"
"98700","Kampung Sayong","Limbang","SRW"
"98700","Kampung Sebukang","Limbang","SRW"
"98700","Kampung Sembiling","Limbang","SRW"
"98700","Kampung Sigantang","Limbang","SRW"
"98700","Kampung Sungai Poyan","Limbang","SRW"
"98700","Kampung Tababang","Limbang","SRW"
"98700","Kampung Tabahan","Limbang","SRW"
"98700","Kampung Tanjong Darat","Limbang","SRW"
"98700","Kampung Tanjong Rimau","Limbang","SRW"
"98700","Kampung Tanjong Ungar","Limbang","SRW"
"98700","Kampung Tanjong","Limbang","SRW"
"98700","Kampung Tedungan","Limbang","SRW"
"98700","Kampung Telabak","Limbang","SRW"
"98700","Kampung Temiang","Limbang","SRW"
"98700","Kampung Tendungan","Limbang","SRW"
"98700","Kampung Tuna","Limbang","SRW"
"98700","Kampung Ukong","Limbang","SRW"
"98700","Kampung Ulak","Limbang","SRW"
"98700","Kampung Uma Bawang","Limbang","SRW"
"98700","Kubong","Limbang","SRW"
"98700","Limbang","Limbang","SRW"
"98700","Pandaruan","Limbang","SRW"
"98700","Penganan","Limbang","SRW"
"98700","Taman Batu Biah","Limbang","SRW"
"98700","Taman Batu Keramat Jalan Kubong","Limbang","SRW"
"98700","Taman Bunga Simpor Jalan Pekeliling","Limbang","SRW"
"98700","Taman Cahaya","Limbang","SRW"
"98700","Taman Desa Pabahanan","Limbang","SRW"
"98700","Taman Haji Mohidin Jalan Pandaruan","Limbang","SRW"
"98700","Taman Happy Jalan Kubong","Limbang","SRW"
"98700","Taman Hen Yii Jalan Batu Biah","Limbang","SRW"
"98700","Taman Indah Jalan Pekeliling","Limbang","SRW"
"98700","Taman International Jalan Pandaruan","Limbang","SRW"
"98700","Taman Jayitek","Limbang","SRW"
"98700","Taman Kaban Jalan Kubong","Limbang","SRW"
"98700","Taman Lik Hin Jalan Pekeliling","Limbang","SRW"
"98700","Taman Lucky Jalan Kubong","Limbang","SRW"
"98700","Taman Ming Hock Jalan Batu Biah","Limbang","SRW"
"98700","Taman Nyuk Lian","Limbang","SRW"
"98700","Taman Pertama Jalan Kubong","Limbang","SRW"
"98700","Taman Piramid Jalan Kubong","Limbang","SRW"
"98700","Taman Poyan Jaya Jalan Kubong","Limbang","SRW"
"98700","Taman Pulo Bunga Jalan Kubong","Limbang","SRW"
"98700","Taman Riverway Park Jalan Kubong","Limbang","SRW"
"98700","Taman Sentosa","Limbang","SRW"
"98700","Taman St. Edmund Jalan Kubong","Limbang","SRW"
"98700","Taman Star Jalan Kubong","Limbang","SRW"
"98700","Taman Sungai Kaban Jalan Kubong","Limbang","SRW"
"98700","Taman Tasek Mas Jalan Kubong","Limbang","SRW"
"98700","Ukong","Limbang","SRW"
"98707","Limbang - Peti Surat 1 - 200","Limbang","SRW"
"98708","Limbang - Peti Surat 201 & ke atas","Limbang","SRW"
"98709","Limbang - Beg Berkunci","Limbang","SRW"
"98750","Nanga Medamit","Nanga Medamit","SRW"
"98800","Kampung Aru","Sundar","SRW"
"98800","Kampung Awat-Awat","Sundar","SRW"
"98800","Kampung Baru","Sundar","SRW"
"98800","Sundar","Sundar","SRW"
"98850","Awat-Awat","Lawas","SRW"
"98850","Ba Kelalan","Lawas","SRW"
"98850","Belakang Kedai","Lawas","SRW"
"98850","Kampung Air Terjun","Lawas","SRW"
"98850","Kampung Batu Dua","Lawas","SRW"
"98850","Kampung Batu Tiga","Lawas","SRW"
"98850","Kampung Belangsat","Lawas","SRW"
"98850","Kampung Belimbing","Lawas","SRW"
"98850","Kampung Datu","Lawas","SRW"
"98850","Kampung Empittied","Lawas","SRW"
"98850","Kampung Long Sebangang","Lawas","SRW"
"98850","Kampung Masjid","Lawas","SRW"
"98850","Kampung Merapok","Lawas","SRW"
"98850","Kampung Nor Islam","Lawas","SRW"
"98850","Kampung Pangi","Lawas","SRW"
"98850","Kampung Pemukat","Lawas","SRW"
"98850","Kampung Punang","Lawas","SRW"
"98850","Kampung Sebangan Lawas","Lawas","SRW"
"98850","Kampung Sesco","Lawas","SRW"
"98850","Kampung Tanjong Batu","Lawas","SRW"
"98850","Kampung Temanggis","Lawas","SRW"
"98850","Lawas","Lawas","SRW"
"98850","Long Semadoh","Lawas","SRW"
"98850","Long Sukang","Lawas","SRW"
"98850","Sungai Bangat","Lawas","SRW"
"98850","Sungai Berlipat","Lawas","SRW"
"98850","Sungai Seloating","Lawas","SRW"
"98850","Trusan","Lawas","SRW"
"98850","Tuaran","Lawas","SRW"
"98857","Lawas - Peti Surat","Lawas","SRW"
"98859","Lawas - Beg Berkunci","Lawas","SRW"