"POSTCODE","ADDRESS","CITY","STATE"
"20000","Hotel Tanjung Vista","Kuala Terengganu","TRG"
"20000","Jalan Istana Kolam","Kuala Terengganu","TRG"
"20000","Jalan Kota","Kuala Terengganu","TRG"
"20000","Jalan Ladang Sekolah","Kuala Terengganu","TRG"
"20000","Jalan Nesan Empat","Kuala Terengganu","TRG"
"20000","Jalan Petani","Kuala Terengganu","TRG"
"20000","Jalan Sultan Sulaiman","Kuala Terengganu","TRG"
"20000","Jalan Sultan Zainal Abidin","Kuala Terengganu","TRG"
"20000","Kampung Aur","Kuala Terengganu","TRG"
"20000","Kampung Bangsal","Kuala Terengganu","TRG"
"20000","Kampung Daik","Kuala Terengganu","TRG"
"20000","Kampung Dalam Bata","Kuala Terengganu","TRG"
"20000","Kampung Dato Penglima Perang","Kuala Terengganu","TRG"
"20000","Kampung Kolam","Kuala Terengganu","TRG"
"20000","Kampung Ladang Cicar","Kuala Terengganu","TRG"
"20000","Kampung Ladang Mengabang","Kuala Terengganu","TRG"
"20000","Kampung Ladang Pasar","Kuala Terengganu","TRG"
"20000","Kampung Ladang Sekolah","Kuala Terengganu","TRG"
"20000","Kampung Ladang Titian","Kuala Terengganu","TRG"
"20000","Kampung Pantai Haji Kasim","Kuala Terengganu","TRG"
"20000","Kampung Petani","Kuala Terengganu","TRG"
"20000","Kampung Rakyat","Kuala Terengganu","TRG"
"20000","Kampung Surau Haji Mat Tokey","Kuala Terengganu","TRG"
"20000","Kampung Surau Telok","Kuala Terengganu","TRG"
"20000","Kampung Surau Tok She","Kuala Terengganu","TRG"
"20000","Kampung Tanjong (Km 1.5)","Kuala Terengganu","TRG"
"20000","Kampung Tanjong Paya","Kuala Terengganu","TRG"
"20000","Kampung Tanjong Surau Besar","Kuala Terengganu","TRG"
"20000","Kampung Tanjong Surau Pasir","Kuala Terengganu","TRG"
"20000","Kampung Tanjung Batu Satu","Kuala Terengganu","TRG"
"20000","Kampung Tanjung Mengabang","Kuala Terengganu","TRG"
"20000","Lorong Bemban","Kuala Terengganu","TRG"
"20000","Perbadanan Pembangunan Bandar","Kuala Terengganu","TRG"
"20000","Taman Petani","Kuala Terengganu","TRG"
"20050","Jalan Kelantan (Hingga Km 6)","Kuala Terengganu","TRG"
"20050","Jalan Pulau Musang","Kuala Terengganu","TRG"
"20050","Kampung Banggol Chempedak","Kuala Terengganu","TRG"
"20050","Kampung Banggol Katong","Kuala Terengganu","TRG"
"20050","Kampung Banggol Lalang","Kuala Terengganu","TRG"
"20050","Kampung Banggol Tok Ku","Kuala Terengganu","TRG"
"20050","Kampung Baru Serada","Kuala Terengganu","TRG"
"20050","Kampung Beladau Selat","Kuala Terengganu","TRG"
"20050","Kampung Belukar Sukai","Kuala Terengganu","TRG"
"20050","Kampung Bukit Kubang Jambu","Kuala Terengganu","TRG"
"20050","Kampung Durian Burong","Kuala Terengganu","TRG"
"20050","Kampung Dusun Melintang","Kuala Terengganu","TRG"
"20050","Kampung Gelugor Haji Tahir","Kuala Terengganu","TRG"
"20050","Kampung Gelugor Kedai","Kuala Terengganu","TRG"
"20050","Kampung Gelugor Raja","Kuala Terengganu","TRG"
"20050","Kampung Gong Pauh","Kuala Terengganu","TRG"
"20050","Kampung Gong Pipit","Kuala Terengganu","TRG"
"20050","Kampung Kedai Kepong","Kuala Terengganu","TRG"
"20050","Kampung Kepong","Kuala Terengganu","TRG"
"20050","Kampung Kuala Bekah Pasar","Kuala Terengganu","TRG"
"20050","Kampung Kuala Bekah","Kuala Terengganu","TRG"
"20050","Kampung Kubang Bakong","Kuala Terengganu","TRG"
"20050","Kampung Kubang Bujok","Kuala Terengganu","TRG"
"20050","Kampung Kubang Kura","Kuala Terengganu","TRG"
"20050","Kampung Kubang Parit","Kuala Terengganu","TRG"
"20050","Kampung Kubang Tangga","Kuala Terengganu","TRG"
"20050","Kampung Kubang Terap","Kuala Terengganu","TRG"
"20050","Kampung Melintang","Kuala Terengganu","TRG"
"20050","Kampung Merbau Patah","Kuala Terengganu","TRG"
"20050","Kampung Padang Sena","Kuala Terengganu","TRG"
"20050","Kampung Pak Pa","Kuala Terengganu","TRG"
"20050","Kampung Paloh Masjid","Kuala Terengganu","TRG"
"20050","Kampung Paloh Sekolah","Kuala Terengganu","TRG"
"20050","Kampung Paloh Sungai Kiat","Kuala Terengganu","TRG"
"20050","Kampung Paloh Tok Ku","Kuala Terengganu","TRG"
"20050","Kampung Paloh Tuan Sulong","Kuala Terengganu","TRG"
"20050","Kampung Panji","Kuala Terengganu","TRG"
"20050","Kampung Pengadang Baru","Kuala Terengganu","TRG"
"20050","Kampung Pengkalan Setar","Kuala Terengganu","TRG"
"20050","Kampung Pengkalan Star","Kuala Terengganu","TRG"
"20050","Kampung Pulau Musang","Kuala Terengganu","TRG"
"20050","Kampung Pulau Rusa Masjid","Kuala Terengganu","TRG"
"20050","Kampung Pulau Rusa Rang","Kuala Terengganu","TRG"
"20050","Kampung Pulau Rusa Sekolah","Kuala Terengganu","TRG"
"20050","Kampung Pulau Rusa Wan Nik","Kuala Terengganu","TRG"
"20050","Kampung Pulau Rusa","Kuala Terengganu","TRG"
"20050","Kampung Serada","Kuala Terengganu","TRG"
"20050","Kampung Sungai Pinang","Kuala Terengganu","TRG"
"20050","Kampung Sungai Rengas","Kuala Terengganu","TRG"
"20050","Kampung Telok Paku","Kuala Terengganu","TRG"
"20050","Kampung Tirok","Kuala Terengganu","TRG"
"20050","Kampung Titian Hangus","Kuala Terengganu","TRG"
"20050","Kampung Tok Badir","Kuala Terengganu","TRG"
"20050","Kampung Tok Jamal","Kuala Terengganu","TRG"
"20050","Kampung Tok Kaya","Kuala Terengganu","TRG"
"20050","Kampung Tuan Nong","Kuala Terengganu","TRG"
"20050","Kampung Wakaf Beruas","Kuala Terengganu","TRG"
"20050","Kampung Wakaf Che Kapor","Kuala Terengganu","TRG"
"20050","Kampung Wakaf Mempelam","Kuala Terengganu","TRG"
"20050","Taman Seri Paloh","Kuala Terengganu","TRG"
"20050","Taman Setia Durian Burong","Kuala Terengganu","TRG"
"20100","Jalan Bandar","Kuala Terengganu","TRG"
"20100","Jalan Banggol","Kuala Terengganu","TRG"
"20100","Jalan Belakang Kampung China","Kuala Terengganu","TRG"
"20100","Jalan Jail","Kuala Terengganu","TRG"
"20100","Jalan Kampung Dalam","Kuala Terengganu","TRG"
"20100","Jalan Kampung Tiong","Kuala Terengganu","TRG"
"20100","Jalan Kubor","Kuala Terengganu","TRG"
"20100","Jalan Masjid Abidin","Kuala Terengganu","TRG"
"20100","Jalan Pantai","Kuala Terengganu","TRG"
"20100","Jalan Syed Hussein","Kuala Terengganu","TRG"
"20100","Jalan Tok Lam","Kuala Terengganu","TRG"
"20100","Kampung Banggol","Kuala Terengganu","TRG"
"20100","Kampung Jail","Kuala Terengganu","TRG"
"20100","Kampung Masjid","Kuala Terengganu","TRG"
"20100","Kampung Paya Keladi","Kuala Terengganu","TRG"
"20100","Kampung Surau Puteh","Kuala Terengganu","TRG"
"20100","Kampung Surau Wan Su","Kuala Terengganu","TRG"
"20100","Kampung Telaga Panchor","Kuala Terengganu","TRG"
"20100","Kampung Tiong","Kuala Terengganu","TRG"
"20100","Kedai Payang","Kuala Terengganu","TRG"
"20100","Komplek Niaga Paya Bunga","Kuala Terengganu","TRG"
"20100","Lorong Haji Jamil","Kuala Terengganu","TRG"
"20100","Penguatkuasa Akta Penanaman Padi","Kuala Terengganu","TRG"
"20100","Pusat Perniagaan Paya Keladi","Kuala Terengganu","TRG"
"20200","Jabatan Bekalan Air","Kuala Terengganu","TRG"
"20200","Jabatan Hal Ehwal Kesatuan Sekerja","Kuala Terengganu","TRG"
"20200","Jabatan Hutan Daerah Terengganu Utara","Kuala Terengganu","TRG"
"20200","Jalan Pejabat","Kuala Terengganu","TRG"
"20200","Jalan Sultan Ismail","Kuala Terengganu","TRG"
"20200","Jawatankuasa Keselamatan Negeri","Kuala Terengganu","TRG"
"20200","Kampung Paya Bunga","Kuala Terengganu","TRG"
"20200","Lembaga Kemajuan Perindustrian (MIDA)","Kuala Terengganu","TRG"
"20200","Lembaga Pasaran & Perusahaan Getah","Kuala Terengganu","TRG"
"20200","Lembaga Pelesenan Kenderaan (LPKP)","Kuala Terengganu","TRG"
"20200","Lembaga Pelesenan Minyak Sawit","Kuala Terengganu","TRG"
"20200","Lembaga Pemasaran Pertanian","Kuala Terengganu","TRG"
"20200","Lembaga Tabung Haji","Kuala Terengganu","TRG"
"20200","Majlis Perbandaran Kuala Terengganu","Kuala Terengganu","TRG"
"20200","Muasasah Gadaian Islam","Kuala Terengganu","TRG"
"20200","Pejabat Pelancungan Malaysia (TDC)","Kuala Terengganu","TRG"
"20200","Perbadanan Kemajuan Iktisad Negeri Terengganu","Kuala Terengganu","TRG"
"20200","Pusat Khidmat Kontraktor","Kuala Terengganu","TRG"
"20200","Unit Kontrak Penyelenggaraan & Bumiputera","Kuala Terengganu","TRG"
"20200","Unit Perpaduan Ummah","Kuala Terengganu","TRG"
"20200","Wisma Persekutuan","Kuala Terengganu","TRG"
"20300","Jabatan Pertanian Daerah","Kuala Terengganu","TRG"
"20300","Jalan Air Jernih","Kuala Terengganu","TRG"
"20300","Jalan Batas Baru","Kuala Terengganu","TRG"
"20300","Jalan Cherong Lanjut","Kuala Terengganu","TRG"
"20300","Jalan Hilir","Kuala Terengganu","TRG"
"20300","Jalan Kota Lama","Kuala Terengganu","TRG"
"20300","Jalan Mengadang Akar","Kuala Terengganu","TRG"
"20300","Jalan Sultan Omar","Kuala Terengganu","TRG"
"20300","Jalan Syed Zain","Kuala Terengganu","TRG"
"20300","Jalan Tekukor","Kuala Terengganu","TRG"
"20300","Kampung Balik Bukit","Kuala Terengganu","TRG"
"20300","Kampung Batas Baru","Kuala Terengganu","TRG"
"20300","Kampung Bukit Jambol","Kuala Terengganu","TRG"
"20300","Kampung Paya Tok Ber","Kuala Terengganu","TRG"
"20300","Kampung Pengadang Akar","Kuala Terengganu","TRG"
"20300","Kampung Pulau Kambing","Kuala Terengganu","TRG"
"20300","Kampung Titian Lembut","Kuala Terengganu","TRG"
"20300","Pejabat Felda","Kuala Terengganu","TRG"
"20300","Pejabat Shah Bandar Pantai Timur","Kuala Terengganu","TRG"
"20300","Taman Dalya","Kuala Terengganu","TRG"
"20300","Taman Hajjah Kelsom","Kuala Terengganu","TRG"
"20300","Taman Terkukur","Kuala Terengganu","TRG"
"20300","Yayasan Terengganu","Kuala Terengganu","TRG"
"20400","Jalan Dato Amar","Kuala Terengganu","TRG"
"20400","Jalan Haji Busu","Kuala Terengganu","TRG"
"20400","Jalan Hospital","Kuala Terengganu","TRG"
"20400","Jalan Kamaruddin","Kuala Terengganu","TRG"
"20400","Jalan Kenanga","Kuala Terengganu","TRG"
"20400","Jalan Peranginan","Kuala Terengganu","TRG"
"20400","Jalan Pusara","Kuala Terengganu","TRG"
"20400","Jalan Sultan Mahmud","Kuala Terengganu","TRG"
"20400","Kampung Banggol Tok Mudin","Kuala Terengganu","TRG"
"20400","Kampung Batu Burok","Kuala Terengganu","TRG"
"20400","Kampung Gong Kemunting","Kuala Terengganu","TRG"
"20400","Kampung Kolam Kuala Ibai","Kuala Terengganu","TRG"
"20400","Kampung Kuala Ibai","Kuala Terengganu","TRG"
"20400","Kampung Ladang Hospital","Kuala Terengganu","TRG"
"20400","Kampung Ladang Sheikh Ibrahim","Kuala Terengganu","TRG"
"20400","Kampung Ladang Sihat","Kuala Terengganu","TRG"
"20400","Kampung Masjid Batu Burok","Kuala Terengganu","TRG"
"20400","Kampung Mengabang Tengah Masjid","Kuala Terengganu","TRG"
"20400","Kampung Mengabang Tengah","Kuala Terengganu","TRG"
"20400","Kampung Pantai Kuala Ibai","Kuala Terengganu","TRG"
"20400","Kampung Telok Tok Adis","Kuala Terengganu","TRG"
"20400","Lembaga Tembakau Negara","Kuala Terengganu","TRG"
"20400","Lorong Budiman","Kuala Terengganu","TRG"
"20400","Lorong Haji Da","Kuala Terengganu","TRG"
"20400","Lorong Pandan","Kuala Terengganu","TRG"
"20400","Lorong Temasya Pantai","Kuala Terengganu","TRG"
"20400","Taman Jaya","Kuala Terengganu","TRG"
"20400","Taman Purnama","Kuala Terengganu","TRG"
"20400","Taman Salimor 2","Kuala Terengganu","TRG"
"20400","Taman Seri Pantai","Kuala Terengganu","TRG"
"20500","DYMM Sultan Terengganu","Kuala Terengganu","TRG"
"20502","Biro Tata Negara Terengganu","Kuala Terengganu","TRG"
"20502","YAB Menteri Besar Terengganu","Kuala Terengganu","TRG"
"20503","Majlis Sukan Negeri","Kuala Terengganu","TRG"
"20503","Setiausaha Kerajaan Negeri","Kuala Terengganu","TRG"
"20503","Unit Perancang Ekonomi","Kuala Terengganu","TRG"
"20504","Biro Bantuan Guaman","Kuala Terengganu","TRG"
"20505","Biro Pengaduan Awam","Kuala Terengganu","TRG"
"20506","Mahkamah Tinggi","Kuala Terengganu","TRG"
"20508","Amanah Raya Berhad","Kuala Terengganu","TRG"
"20512","Penasihat Undang-Undang Negeri","Kuala Terengganu","TRG"
"20514","Jabatan Perangkaan","Kuala Terengganu","TRG"
"20516","Jabatan Pemegang Harta","Kuala Terengganu","TRG"
"20517","Jabatan Perpaduan Negara","Kuala Terengganu","TRG"
"20518","Ketua Audit Negeri","Kuala Terengganu","TRG"
"20519","Majlis Agama Islam Terengganu","Kuala Terengganu","TRG"
"20520","SuruhanJaya Perkhidmatan Awam","Kuala Terengganu","TRG"
"20532","Jabatan Sumber Manusia","Kuala Terengganu","TRG"
"20534","Jabatan Kilang & Jentera","Kuala Terengganu","TRG"
"20536","Jabatan Perhubungan Perusahaan","Kuala Terengganu","TRG"
"20538","Jabatan Keselamatan Sosial (Perkeso)","Kuala Terengganu","TRG"
"20540","Jabatan Tenaga Rakyat","Kuala Terengganu","TRG"
"20542","Pendaftar Kesatuan Sekerja","Kuala Terengganu","TRG"
"20546","Pejabat Rela Negeri","Kuala Terengganu","TRG"
"20548","Jabatan Hal Ehwal Orang Asli","Kuala Terengganu","TRG"
"20550","Jabatan Imigresen","Kuala Terengganu","TRG"
"20551","Jabatan Pendaftaran Negara","Kuala Terengganu","TRG"
"20552","Jabatan Pendaftar Pertubuhan","Kuala Terengganu","TRG"
"20554","Percetakan Nasional Berhad","Kuala Terengganu","TRG"
"20556","Jabatan Pertahanan Awam","Kuala Terengganu","TRG"
"20560","Ketua Polis Negeri","Kuala Terengganu","TRG"
"20564","Jabatan Kebajikan Masyarakat","Kuala Terengganu","TRG"
"20566","Jabatan Muzium","Kuala Terengganu","TRG"
"20568","Jabatan Arkib Negara","Kuala Terengganu","TRG"
"20570","Jabatan Belia & Sukan","Kuala Terengganu","TRG"
"20570","Pusat Latihan Belia Negeri","Kuala Terengganu","TRG"
"20572","Perpustakaan Awam Negeri","Kuala Terengganu","TRG"
"20576","Jabatan Tanah & Galian","Kuala Terengganu","TRG"
"20578","Jabatan Ukur & Pemetaan","Kuala Terengganu","TRG"
"20582","Jabatan Kerja Raya","Kuala Terengganu","TRG"
"20586","Hospital Kuala Terengganu","Kuala Terengganu","TRG"
"20590","Jabatan Kesihatan","Kuala Terengganu","TRG"
"20592","Jabatan Penilaian Harta","Kuala Terengganu","TRG"
"20592","Pegawai Kewangan Negeri","Kuala Terengganu","TRG"
"20596","Akauntan Negeri","Kuala Terengganu","TRG"
"20596","Jabatan Kastam & Eksais Di Raja","Kuala Terengganu","TRG"
"20600","Lembaga Hasil Dalam Negeri","Kuala Terengganu","TRG"
"20604","Jabatan Pendidikan","Kuala Terengganu","TRG"
"20604","Ketua Nazir Sekolah Persekutuan","Kuala Terengganu","TRG"
"20606","Jabatan Kemajuan Masyarakat (Kemas)","Kuala Terengganu","TRG"
"20608","Jabatan Pembangunan Koperasi","Kuala Terengganu","TRG"
"20609","Pejabat Mara Negeri","Kuala Terengganu","TRG"
"20610","Bahagian Pelesenan - Kementerian Penerangan","Kuala Terengganu","TRG"
"20612","Jabatan Penerangan","Kuala Terengganu","TRG"
"20614","Jabatan Penyiaran","Kuala Terengganu","TRG"
"20618","Jabatan Penerbangan Awam","Kuala Terengganu","TRG"
"20620","Jabatan Pengangkutan Jalan","Kuala Terengganu","TRG"
"20622","Penguatkuasa Kementerian Perdagangan Dalam Negeri","Kuala Terengganu","TRG"
"20626","Jabatan Pengairan & Saliran","Kuala Terengganu","TRG"
"20628","Jabatan Perikanan","Kuala Terengganu","TRG"
"20630","Jabatan Haiwan","Kuala Terengganu","TRG"
"20632","Jabatan Pertanian","Kuala Terengganu","TRG"
"20646","Jabatan Perancang Bandar & Desa","Kuala Terengganu","TRG"
"20648","Jabatan Bomba & Penyelamat","Kuala Terengganu","TRG"
"20656","Jabatan Galian","Kuala Terengganu","TRG"
"20658","Jabatan Kajibumi","Kuala Terengganu","TRG"
"20660","Jabatan Perhutanan","Kuala Terengganu","TRG"
"20661","Padi & Beras Nasional (Bernas)","Kuala Terengganu","TRG"
"20662","Jabatan Alam Sekitar Negeri","Kuala Terengganu","TRG"
"20662","Jabatan Kajicuaca","Kuala Terengganu","TRG"
"20662","Jabatan Kimia","Kuala Terengganu","TRG"
"20664","Jabatan Perhilitan","Kuala Terengganu","TRG"
"20668","Jabatan Telekom Timur","Kuala Terengganu","TRG"
"20670","Pos Malaysia Berhad","Kuala Terengganu","TRG"
"20672","Telekom Malaysia Berhad","Kuala Terengganu","TRG"
"20673","Tenaga Nasional Berhad","Kuala Terengganu","TRG"
"20674","Pegawai Kemajuan Negeri","Kuala Terengganu","TRG"
"20676","Jabatan Agama Islam Terengganu","Kuala Terengganu","TRG"
"20680","Dewan Undangan Negeri","Kuala Terengganu","TRG"
"20690","Suruhanjaya Pilihan Raya Negeri","Kuala Terengganu","TRG"
"20698","Kumpulan Wang Simpanan Pekerja","Kuala Terengganu","TRG"
"20700","Kuala Terengganu - Peti surat 1 - 3","Kuala Terengganu","TRG"
"20700","Kuala Terengganu - Peti surat 19 - 42","Kuala Terengganu","TRG"
"20700","Kuala Terengganu - Peti surat 44 - 49","Kuala Terengganu","TRG"
"20700","Kuala Terengganu - Peti surat 5 - 17","Kuala Terengganu","TRG"
"20700","Kuala Terengganu - Peti surat 52 - 55","Kuala Terengganu","TRG"
"20700","Kuala Terengganu - Peti surat 58 - 62","Kuala Terengganu","TRG"
"20700","Kuala Terengganu - Peti surat 64","Kuala Terengganu","TRG"
"20700","Kuala Terengganu - Peti surat 69 - 80","Kuala Terengganu","TRG"
"20710","Kuala Terengganu - Peti surat 123 - 125","Kuala Terengganu","TRG"
"20710","Kuala Terengganu - Peti surat 128 - 160","Kuala Terengganu","TRG"
"20710","Kuala Terengganu - Peti surat 81 - 89","Kuala Terengganu","TRG"
"20710","Kuala Terengganu - Peti surat 91- 121","Kuala Terengganu","TRG"
"20720","Kuala Terengganu - Peti surat 161 & ke atas","Kuala Terengganu","TRG"
"20900","Kuala Terengganu - Peti surat 4","Kuala Terengganu","TRG"
"20902","Kuala Terengganu - Peti surat 18","Kuala Terengganu","TRG"
"20904","Kuala Terengganu - Peti surat 43","Kuala Terengganu","TRG"
"20906","Kuala Terengganu - Peti surat 50","Kuala Terengganu","TRG"
"20908","Kuala Terengganu - Peti surat 51","Kuala Terengganu","TRG"
"20910","Kuala Terengganu - Peti surat 56","Kuala Terengganu","TRG"
"20912","Kuala Terengganu - Peti surat 57","Kuala Terengganu","TRG"
"20914","Kuala Terengganu - Peti surat 63","Kuala Terengganu","TRG"
"20916","Kuala Terengganu - Peti surat 65","Kuala Terengganu","TRG"
"20918","Kuala Terengganu - Peti surat 66","Kuala Terengganu","TRG"
"20920","Kuala Terengganu - Peti surat 67","Kuala Terengganu","TRG"
"20922","Kuala Terengganu - Peti surat 68","Kuala Terengganu","TRG"
"20924","Kuala Terengganu - Peti surat 90","Kuala Terengganu","TRG"
"20926","Kuala Terengganu - Peti surat 122","Kuala Terengganu","TRG"
"20928","Kuala Terengganu - Peti surat 126","Kuala Terengganu","TRG"
"20930","Kuala Terengganu - Peti surat 127","Kuala Terengganu","TRG"
"20990","Kuala Terengganu - Beg berkunci","Kuala Terengganu","TRG"
"21000","Chabang Tiga","Kuala Terengganu","TRG"
"21000","Jalan Hiliran Masjid","Kuala Terengganu","TRG"
"21000","Jalan Kosong Ferry","Kuala Terengganu","TRG"
"21000","Jalan Kuala Hiliran","Kuala Terengganu","TRG"
"21000","Jalan Losong Masjid","Kuala Terengganu","TRG"
"21000","Jalan Seb Baroh Kanan","Kuala Terengganu","TRG"
"21000","Jalan Siakap","Kuala Terengganu","TRG"
"21000","Kampung Bukit Losong","Kuala Terengganu","TRG"
"21000","Kampung Bukit Tangki Ayer","Kuala Terengganu","TRG"
"21000","Kampung Hiliran Binjai Besar","Kuala Terengganu","TRG"
"21000","Kampung Hiliran Masjid","Kuala Terengganu","TRG"
"21000","Kampung Hiliran Parit Gali","Kuala Terengganu","TRG"
"21000","Kampung Hiliran Surau Baru","Kuala Terengganu","TRG"
"21000","Kampung Kubang Buyong","Kuala Terengganu","TRG"
"21000","Kampung Lorong Salak","Kuala Terengganu","TRG"
"21000","Kampung Losong Atap Zing","Kuala Terengganu","TRG"
"21000","Kampung Losong Bata","Kuala Terengganu","TRG"
"21000","Kampung Losong Dato Amar","Kuala Terengganu","TRG"
"21000","Kampung Losong Ebeng","Kuala Terengganu","TRG"
"21000","Kampung Losong Haji Awang","Kuala Terengganu","TRG"
"21000","Kampung Losong Haji Long Hakim","Kuala Terengganu","TRG"
"21000","Kampung Losong Haji Mohd","Kuala Terengganu","TRG"
"21000","Kampung Losong Haji Su","Kuala Terengganu","TRG"
"21000","Kampung Losong Haji Wan Nawang","Kuala Terengganu","TRG"
"21000","Kampung Losong Masjid","Kuala Terengganu","TRG"
"21000","Kampung Losong Megat Husain","Kuala Terengganu","TRG"
"21000","Kampung Losong Pak Bas","Kuala Terengganu","TRG"
"21000","Kampung Losong Panglima Perang","Kuala Terengganu","TRG"
"21000","Kampung Losong Pasir","Kuala Terengganu","TRG"
"21000","Kampung Losong Tangkol Hijau","Kuala Terengganu","TRG"
"21000","Kampung Makam Lama","Kuala Terengganu","TRG"
"21000","Kampung Masjid Tok Ku","Kuala Terengganu","TRG"
"21000","Kampung Padang Hiliran","Kuala Terengganu","TRG"
"21000","Kampung Pulau Sekati","Kuala Terengganu","TRG"
"21000","Kampung Seberang Baroh Belukar","Kuala Terengganu","TRG"
"21000","Kampung Seberang Baroh Taliair","Kuala Terengganu","TRG"
"21000","Kampung Seberang Baroh","Kuala Terengganu","TRG"
"21000","Kampung Tok Ku","Kuala Terengganu","TRG"
"21000","Kuala Hiliran","Kuala Terengganu","TRG"
"21000","Kubang Buyong","Kuala Terengganu","TRG"
"21000","Lorong Ciku","Kuala Terengganu","TRG"
"21000","Lorong Limau","Kuala Terengganu","TRG"
"21000","Lorong Makam Lama","Kuala Terengganu","TRG"
"21000","Lorong Radio Malaysia","Kuala Terengganu","TRG"
"21000","Lorong Stesen Pemancar RTM","Kuala Terengganu","TRG"
"21000","Losong Feri Kiri","Kuala Terengganu","TRG"
"21000","Losong Haji Long","Kuala Terengganu","TRG"
"21000","Losong Haji Mat Shafie","Kuala Terengganu","TRG"
"21000","Losong Lebai Salleh","Kuala Terengganu","TRG"
"21000","Losong Sekolah","Kuala Terengganu","TRG"
"21000","Losong Tepas Mahmud","Kuala Terengganu","TRG"
"21000","Pulau Pak Mat","Kuala Terengganu","TRG"
"21000","Pulau Wan Man","Kuala Terengganu","TRG"
"21000","Simpang Tok Ku","Kuala Terengganu","TRG"
"21009","Chabang Tiga - Beg berkunci","Kuala Terengganu","TRG"
"21010","Kampung Bari Besar","Kuala Terengganu","TRG"
"21010","Kampung Gong Arang","Kuala Terengganu","TRG"
"21010","Kampung Mengabang","Kuala Terengganu","TRG"
"21010","Kampung Rhu Tapai","Kuala Terengganu","TRG"
"21010","Kampung Telaga Papan","Kuala Terengganu","TRG"
"21020","Jalan Batu Rakit","Kuala Terengganu","TRG"
"21020","Jalan Merang","Kuala Terengganu","TRG"
"21020","Kampung Bari Besar","Kuala Terengganu","TRG"
"21020","Kampung Darat Tok Wail","Kuala Terengganu","TRG"
"21020","Kampung Dusun Durian","Kuala Terengganu","TRG"
"21020","Kampung Gelong Gajah","Kuala Terengganu","TRG"
"21020","Kampung Kubor Timah","Kuala Terengganu","TRG"
"21020","Kampung Maras","Kuala Terengganu","TRG"
"21020","Kampung Medan Cengal","Kuala Terengganu","TRG"
"21020","Kampung Mengabang Bakong","Kuala Terengganu","TRG"
"21020","Kampung Mengabang Lekar","Kuala Terengganu","TRG"
"21020","Kampung Mengabang Panjang","Kuala Terengganu","TRG"
"21020","Kampung Mengabang Telong","Kuala Terengganu","TRG"
"21020","Kampung Padang Kemunting","Kuala Terengganu","TRG"
"21020","Kampung Pagar Besi","Kuala Terengganu","TRG"
"21020","Kampung Pancur Kuin","Kuala Terengganu","TRG"
"21020","Kampung Pengkalan Atap","Kuala Terengganu","TRG"
"21020","Kampung Sungai Pimpin","Kuala Terengganu","TRG"
"21020","Kampung Taman Hijrah","Kuala Terengganu","TRG"
"21020","Kampung Tanjung Kedepan","Kuala Terengganu","TRG"
"21020","Kampung Telaga Putat","Kuala Terengganu","TRG"
"21020","PPRT Ru Tapai","Kuala Terengganu","TRG"
"21020","Taman Perumahan Lembah Bidong","Kuala Terengganu","TRG"
"21020","Tapah","Kuala Terengganu","TRG"
"21030","Jalan Bakti Simpang Tiga Kubang Badak","Kuala Terengganu","TRG"
"21030","Jalan Sekolah Rendah Gong Badak","Kuala Terengganu","TRG"
"21030","Kampung Gong Benjok","Kuala Terengganu","TRG"
"21030","Kampung Gong Datok","Kuala Terengganu","TRG"
"21030","Kampung Kubang Badak (Jalan Pantai)","Kuala Terengganu","TRG"
"21030","Kampung Pak Tuyu","Kuala Terengganu","TRG"
"21030","Kampung Tanjong Gelang","Kuala Terengganu","TRG"
"21030","Kampung Wakaf Cagak","Kuala Terengganu","TRG"
"21030","Kampung Wakaf Tengah","Kuala Terengganu","TRG"
"21030","Maktab Perguruan Kuala Terengganu","Kuala Terengganu","TRG"
"21030","Maktab Rendah Sains Mara","Kuala Terengganu","TRG"
"21030","Mengabang Telipot","Kuala Terengganu","TRG"
"21030","Simpang Tiga Kubang Badak","Kuala Terengganu","TRG"
"21030","Taman Baiduri","Kuala Terengganu","TRG"
"21030","Taman Indah Wangsa","Kuala Terengganu","TRG"
"21030","Taman Seri Nenas","Kuala Terengganu","TRG"
"21040","Kampung Bukit Chempedak","Kuala Terengganu","TRG"
"21040","Kampung Bukit Kolam","Kuala Terengganu","TRG"
"21040","Kampung Cherang Gajah","Kuala Terengganu","TRG"
"21040","Kampung Durian Guling","Kuala Terengganu","TRG"
"21040","Kampung Jerong Surau","Kuala Terengganu","TRG"
"21040","Kampung Jerong Tuan","Kuala Terengganu","TRG"
"21040","Kampung Kayu Arang","Kuala Terengganu","TRG"
"21040","Kampung Kuala Bekah (Pengkalan Berangan)","Kuala Terengganu","TRG"
"21040","Kampung Lubok Batu (Wakaf Tapai)","Kuala Terengganu","TRG"
"21040","Kampung Pengkalan Berangan","Kuala Terengganu","TRG"
"21040","Kampung Tanggol","Kuala Terengganu","TRG"
"21040","Kampung Tapu","Kuala Terengganu","TRG"
"21040","Kampung Temala","Kuala Terengganu","TRG"
"21040","Kampung Wakaf Tapai","Kuala Terengganu","TRG"
"21040","Pusat Perikanan & Sains","Kuala Terengganu","TRG"
"21060","Kampung Alor Gemia","Kuala Terengganu","TRG"
"21060","Kampung Banggol Nyour","Kuala Terengganu","TRG"
"21060","Kampung Bukit ChemPaka","Kuala Terengganu","TRG"
"21060","Kampung Bukit Guntong","Kuala Terengganu","TRG"
"21060","Kampung Bukit Kubor","Kuala Terengganu","TRG"
"21060","Kampung Bukit Nangka","Kuala Terengganu","TRG"
"21060","Kampung Bukit Nenas","Kuala Terengganu","TRG"
"21060","Kampung Gemuroh","Kuala Terengganu","TRG"
"21060","Kampung Jeram Hilir","Kuala Terengganu","TRG"
"21060","Kampung Jeram Hulu","Kuala Terengganu","TRG"
"21060","Kampung Padang Baloh","Kuala Terengganu","TRG"
"21060","Kampung Padang Hangus","Kuala Terengganu","TRG"
"21060","Kampung Pagar Ubi","Kuala Terengganu","TRG"
"21060","Kampung Pondok Lalang","Kuala Terengganu","TRG"
"21060","Kampung Raja Tepoh","Kuala Terengganu","TRG"
"21060","Kampung Sungai Ikan","Kuala Terengganu","TRG"
"21060","Kampung Tepoh","Kuala Terengganu","TRG"
"21060","Kampung Tok Ban","Kuala Terengganu","TRG"
"21060","Kampung Wakaf Gomok","Kuala Terengganu","TRG"
"21060","Tepoh","Kuala Terengganu","TRG"
"21070","Atas Tol","Kuala Terengganu","TRG"
"21070","Kampung Alor Tempoyak","Kuala Terengganu","TRG"
"21070","Kampung Alor","Kuala Terengganu","TRG"
"21070","Kampung Atas Tol","Kuala Terengganu","TRG"
"21070","Kampung Bawah Atas Tol","Kuala Terengganu","TRG"
"21070","Kampung Kedai Buloh","Kuala Terengganu","TRG"
"21070","Kampung Titian Baharu","Kuala Terengganu","TRG"
"21080","Chendering","Kuala Terengganu","TRG"
"21080","Institut Latihan Perikanan","Kuala Terengganu","TRG"
"21080","Institut Piawaian Malaysia (SIRIM)","Kuala Terengganu","TRG"
"21080","Kampung Belukar Jambu","Kuala Terengganu","TRG"
"21080","Kampung Bukit Batu Puteh","Kuala Terengganu","TRG"
"21080","Kampung Bukit Chendering","Kuala Terengganu","TRG"
"21080","Kampung Chendering","Kuala Terengganu","TRG"
"21080","Kampung Ketapang","Kuala Terengganu","TRG"
"21080","Kampung Kubang Ikan","Kuala Terengganu","TRG"
"21080","Kampung Laut","Kuala Terengganu","TRG"
"21080","Kampung Pengkalan Raja Wali","Kuala Terengganu","TRG"
"21080","Kampung Raja Chendering","Kuala Terengganu","TRG"
"21080","Kampung Rusila","Kuala Terengganu","TRG"
"21080","Kampung Sendong","Kuala Terengganu","TRG"
"21080","Kampung Wakaf Tok Keh","Kuala Terengganu","TRG"
"21080","Kubang Ikan","Kuala Terengganu","TRG"
"21080","Lembaga Kemajuan Ikan (LKIM)","Kuala Terengganu","TRG"
"21080","Pusat Penyelidikan Ikan","Kuala Terengganu","TRG"
"21080","Rusila","Kuala Terengganu","TRG"
"21080","Taman Aquarius","Kuala Terengganu","TRG"
"21080","Taman Desa Jaya","Kuala Terengganu","TRG"
"21080","Taman Medan Jaya","Kuala Terengganu","TRG"
"21080","Taman Permin Jaya","Kuala Terengganu","TRG"
"21090","Pulau Redang","Kuala Terengganu","TRG"
"21100","Bukit Besar","Kuala Terengganu","TRG"
"21100","Gong Kapas","Kuala Terengganu","TRG"
"21100","Jalan Bukit Kechil","Kuala Terengganu","TRG"
"21100","Jalan Dato Bentara Setia","Kuala Terengganu","TRG"
"21100","Jalan Gong Penaga","Kuala Terengganu","TRG"
"21100","Jalan Ibrahim","Kuala Terengganu","TRG"
"21100","Jalan Panji Alam","Kuala Terengganu","TRG"
"21100","Jalan Pintasan","Kuala Terengganu","TRG"
"21100","Jalan Sultan Mohamad","Kuala Terengganu","TRG"
"21100","Kampung Bukit Bayas","Kuala Terengganu","TRG"
"21100","Kampung Bukit Besar","Kuala Terengganu","TRG"
"21100","Kampung Bukit Depu","Kuala Terengganu","TRG"
"21100","Kampung Bukit Kechil","Kuala Terengganu","TRG"
"21100","Kampung Bukit Tanah","Kuala Terengganu","TRG"
"21100","Kampung Cik Damat","Kuala Terengganu","TRG"
"21100","Kampung Gelong Bilal","Kuala Terengganu","TRG"
"21100","Kampung Gong Baru","Kuala Terengganu","TRG"
"21100","Kampung Gong Kapas","Kuala Terengganu","TRG"
"21100","Kampung Gong Nangka","Kuala Terengganu","TRG"
"21100","Kampung Gong Pak Maseh","Kuala Terengganu","TRG"
"21100","Kampung Gong Parit","Kuala Terengganu","TRG"
"21100","Kampung Gong Penaga","Kuala Terengganu","TRG"
"21100","Kampung Gong Tok Nasek","Kuala Terengganu","TRG"
"21100","Kampung Kubor Kechil","Kuala Terengganu","TRG"
"21100","Kampung Nibong","Kuala Terengganu","TRG"
"21100","Kampung Padang","Kuala Terengganu","TRG"
"21100","Kampung Pasir Panjang","Kuala Terengganu","TRG"
"21100","Kampung Paya Jambol","Kuala Terengganu","TRG"
"21100","Kampung Seberang Bukit Bayas","Kuala Terengganu","TRG"
"21100","Kampung Sungai Durhaka","Kuala Terengganu","TRG"
"21100","Lorong Beringin","Kuala Terengganu","TRG"
"21100","Lorong Gemia Rendang","Kuala Terengganu","TRG"
"21100","Lorong Jambu","Kuala Terengganu","TRG"
"21100","Lorong Kemunting","Kuala Terengganu","TRG"
"21100","Lorong Masjid Haji Kadir","Kuala Terengganu","TRG"
"21100","Lorong Masjid Raja","Kuala Terengganu","TRG"
"21100","Lorong Paya Jambol","Kuala Terengganu","TRG"
"21100","Lorong Sagu","Kuala Terengganu","TRG"
"21100","Lorong Surau Baharu","Kuala Terengganu","TRG"
"21100","Lorong Tembesu","Kuala Terengganu","TRG"
"21100","Lorong Tunku Ahmad","Kuala Terengganu","TRG"
"21100","Pusat Membeli Belah Giant","Kuala Terengganu","TRG"
"21100","Sekolah Menengah Sains Terengganu","Kuala Terengganu","TRG"
"21100","Taman Budaya","Kuala Terengganu","TRG"
"21100","Taman Had","Kuala Terengganu","TRG"
"21100","Taman Salimor 1","Kuala Terengganu","TRG"
"21100","Taman Telok Adis Indah","Kuala Terengganu","TRG"
"21109","Gong Kapas - Beg berkunci","Kuala Terengganu","TRG"
"21200","Batu Enam","Kuala Terengganu","TRG"
"21200","Belara","Kuala Terengganu","TRG"
"21200","Binjai Manis","Kuala Terengganu","TRG"
"21200","Jalan Kelantan (Km 7 - 13)","Kuala Terengganu","TRG"
"21200","Kampung Banggol Ayer Lilih","Kuala Terengganu","TRG"
"21200","Kampung Banggol Dama","Kuala Terengganu","TRG"
"21200","Kampung Banggol Limau","Kuala Terengganu","TRG"
"21200","Kampung Banggol Manir","Kuala Terengganu","TRG"
"21200","Kampung Banggol Tuan Muda","Kuala Terengganu","TRG"
"21200","Kampung Baru Tetambah","Kuala Terengganu","TRG"
"21200","Kampung Batu Hampar","Kuala Terengganu","TRG"
"21200","Kampung Batu Lapan","Kuala Terengganu","TRG"
"21200","Kampung Beladau Kolam","Kuala Terengganu","TRG"
"21200","Kampung Bukit Datu","Kuala Terengganu","TRG"
"21200","Kampung Bukit Kandis","Kuala Terengganu","TRG"
"21200","Kampung Bukit Petiti Belara","Kuala Terengganu","TRG"
"21200","Kampung Bukit Seraman","Kuala Terengganu","TRG"
"21200","Kampung Bukit Tok Ris","Kuala Terengganu","TRG"
"21200","Kampung Bukit Tumboh","Kuala Terengganu","TRG"
"21200","Kampung Bukit Tunggal","Kuala Terengganu","TRG"
"21200","Kampung Buloh Gading","Kuala Terengganu","TRG"
"21200","Kampung Durian Mas","Kuala Terengganu","TRG"
"21200","Kampung Dusun Pinang","Kuala Terengganu","TRG"
"21200","Kampung Dusun Tembakan","Kuala Terengganu","TRG"
"21200","Kampung Dusun","Kuala Terengganu","TRG"
"21200","Kampung Gong Kijang","Kuala Terengganu","TRG"
"21200","Kampung Gong Pak Damak","Kuala Terengganu","TRG"
"21200","Kampung Gong Sentol","Kuala Terengganu","TRG"
"21200","Kampung Jeram","Kuala Terengganu","TRG"
"21200","Kampung Kebor Ayer","Kuala Terengganu","TRG"
"21200","Kampung Kebor Besar","Kuala Terengganu","TRG"
"21200","Kampung Kedai Manir","Kuala Terengganu","TRG"
"21200","Kampung Kesom Che Nordin","Kuala Terengganu","TRG"
"21200","Kampung Kesom Padang Tambak","Kuala Terengganu","TRG"
"21200","Kampung Kesom","Kuala Terengganu","TRG"
"21200","Kampung Kota","Kuala Terengganu","TRG"
"21200","Kampung Kuala Belara","Kuala Terengganu","TRG"
"21200","Kampung Kubang Bujok","Kuala Terengganu","TRG"
"21200","Kampung Kubang Ikan","Kuala Terengganu","TRG"
"21200","Kampung Kubang Jela","Kuala Terengganu","TRG"
"21200","Kampung Kubang Tepak","Kuala Terengganu","TRG"
"21200","Kampung Masjid Haji Hussin","Kuala Terengganu","TRG"
"21200","Kampung Padang Machang","Kuala Terengganu","TRG"
"21200","Kampung Padang Tenger","Kuala Terengganu","TRG"
"21200","Kampung Padang Ujib","Kuala Terengganu","TRG"
"21200","Kampung Pak Katak","Kuala Terengganu","TRG"
"21200","Kampung Parit Dicap","Kuala Terengganu","TRG"
"21200","Kampung Pasir Tebakang","Kuala Terengganu","TRG"
"21200","Kampung Paya Datu","Kuala Terengganu","TRG"
"21200","Kampung Paya Limau Amas","Kuala Terengganu","TRG"
"21200","Kampung Pelam","Kuala Terengganu","TRG"
"21200","Kampung Pengkalan Arang","Kuala Terengganu","TRG"
"21200","Kampung Pengkalan Batu","Kuala Terengganu","TRG"
"21200","Kampung Peradong","Kuala Terengganu","TRG"
"21200","Kampung Petai Bubus","Kuala Terengganu","TRG"
"21200","Kampung Pujuk","Kuala Terengganu","TRG"
"21200","Kampung Pulau Bahagia","Kuala Terengganu","TRG"
"21200","Kampung Seberang Bukit Tumboh","Kuala Terengganu","TRG"
"21200","Kampung Seberang Tuan Chik Haji","Kuala Terengganu","TRG"
"21200","Kampung Sekati","Kuala Terengganu","TRG"
"21200","Kampung Serdang Baru","Kuala Terengganu","TRG"
"21200","Kampung Tanah Lot (Batu 8)","Kuala Terengganu","TRG"
"21200","Kampung Tanjong Bunut","Kuala Terengganu","TRG"
"21200","Kampung Tanjong Sabtu","Kuala Terengganu","TRG"
"21200","Kampung Tanjung Serdang","Kuala Terengganu","TRG"
"21200","Kampung Tebauk","Kuala Terengganu","TRG"
"21200","Kampung Telari","Kuala Terengganu","TRG"
"21200","Kampung Telok Menara","Kuala Terengganu","TRG"
"21200","Kampung Telok Pasu","Kuala Terengganu","TRG"
"21200","Kampung Tengah","Kuala Terengganu","TRG"
"21200","Kampung Tetambah","Kuala Terengganu","TRG"
"21200","Kampung Tok Harun","Kuala Terengganu","TRG"
"21200","Kampung Tualang","Kuala Terengganu","TRG"
"21200","Kampung Wakaf Tembesu","Kuala Terengganu","TRG"
"21200","Manir","Kuala Terengganu","TRG"
"21209","Manir - Beg berkunci","Kuala Terengganu","TRG"
"21210","Kampung Bukit Aman","Kuala Terengganu","TRG"
"21210","Kampung Bukit Lawan","Kuala Terengganu","TRG"
"21210","Kampung Bukit Tadok","Kuala Terengganu","TRG"
"21210","Kampung Chepoh","Kuala Terengganu","TRG"
"21210","Kampung Getang","Kuala Terengganu","TRG"
"21210","Kampung Kubang Palas","Kuala Terengganu","TRG"
"21210","Kampung Lubok Batu (Kuala Telemong)","Kuala Terengganu","TRG"
"21210","Kampung Naga Mengulor","Kuala Terengganu","TRG"
"21210","Kampung Pulau Manis (Kuala Telemong)","Kuala Terengganu","TRG"
"21210","Kampung Tanjong Mesah","Kuala Terengganu","TRG"
"21210","Kampung Tok Iman Lapar","Kuala Terengganu","TRG"
"21220","Kuala Telemong","Kuala Terengganu","TRG"
"21300","Batalion 104 Infanteri","Kuala Terengganu","TRG"
"21300","Batalion 18 RAMD","Kuala Terengganu","TRG"
"21300","Batu 12 (Jalan Gong Badak)","Kuala Terengganu","TRG"
"21300","IBN PGA 9 Kubang Badak","Kuala Terengganu","TRG"
"21300","Jalan Maskayu @ Jalan Tok Jembal","Kuala Terengganu","TRG"
"21300","Jalan Pak Yusof","Kuala Terengganu","TRG"
"21300","Jalan Tanah Lot Wakaf Tembusu","Kuala Terengganu","TRG"
"21300","Kampung Alor Kuda Bukit Tok Beng","Kuala Terengganu","TRG"
"21300","Kampung Banggol Buloh","Kuala Terengganu","TRG"
"21300","Kampung Banggol Pauh","Kuala Terengganu","TRG"
"21300","Kampung Banggol Putat","Kuala Terengganu","TRG"
"21300","Kampung Baru Pusu Tiga","Kuala Terengganu","TRG"
"21300","Kampung Baru Seberang Takir","Kuala Terengganu","TRG"
"21300","Kampung Baru Tok Mer","Kuala Terengganu","TRG"
"21300","Kampung Batu 13 (Jalan Lapangan Terbang)","Kuala Terengganu","TRG"
"21300","Kampung Bukit Tok Beng","Kuala Terengganu","TRG"
"21300","Kampung Duyong Haji Muda","Kuala Terengganu","TRG"
"21300","Kampung Duyong Kecil","Kuala Terengganu","TRG"
"21300","Kampung Duyong","Kuala Terengganu","TRG"
"21300","Kampung Duyun Haji Umar","Kuala Terengganu","TRG"
"21300","Kampung Duyung Besar","Kuala Terengganu","TRG"
"21300","Kampung Gong Badak","Kuala Terengganu","TRG"
"21300","Kampung Gong Katut","Kuala Terengganu","TRG"
"21300","Kampung Gong Kuin","Kuala Terengganu","TRG"
"21300","Kampung Guchil","Kuala Terengganu","TRG"
"21300","Kampung Hujung Tanjung Luang","Kuala Terengganu","TRG"
"21300","Kampung Hulur Takur","Kuala Terengganu","TRG"
"21300","Kampung Kayu Kelat","Kuala Terengganu","TRG"
"21300","Kampung Kebun Melaka","Kuala Terengganu","TRG"
"21300","Kampung Kelantan","Kuala Terengganu","TRG"
"21300","Kampung Kubang Badak","Kuala Terengganu","TRG"
"21300","Kampung Padang Ulu Takir","Kuala Terengganu","TRG"
"21300","Kampung Pak Tijah","Kuala Terengganu","TRG"
"21300","Kampung Paya Putat","Kuala Terengganu","TRG"
"21300","Kampung Pengkalan Belat","Kuala Terengganu","TRG"
"21300","Kampung Pengkalan Titian","Kuala Terengganu","TRG"
"21300","Kampung Pulau Duyung @ Kampung Pulau Ketam","Kuala Terengganu","TRG"
"21300","Kampung Seberang Tok Abu","Kuala Terengganu","TRG"
"21300","Kampung Sepetir","Kuala Terengganu","TRG"
"21300","Kampung Tanah Lot Telok Ketapang","Kuala Terengganu","TRG"
"21300","Kampung Tanjong Jaafar","Kuala Terengganu","TRG"
"21300","Kampung Telaga Batin","Kuala Terengganu","TRG"
"21300","Kampung Telaga Daing","Kuala Terengganu","TRG"
"21300","Kampung Telok Ketapang","Kuala Terengganu","TRG"
"21300","Kampung Tok Jembal","Kuala Terengganu","TRG"
"21300","Kampung Tok Mer","Kuala Terengganu","TRG"
"21300","Kampung Ujung Pasir Puteh","Kuala Terengganu","TRG"
"21300","Kubang Badak","Kuala Terengganu","TRG"
"21300","Lapangan Terbang Sultan Mahmud","Kuala Terengganu","TRG"
"21300","Percetakan Yayasan Islam","Kuala Terengganu","TRG"
"21300","Rumah Murah 100","Kuala Terengganu","TRG"
"21300","Rumah Murah 62","Kuala Terengganu","TRG"
"21300","Rumah Murah Gong Badak","Kuala Terengganu","TRG"
"21300","Rumah Murah Telaga Daing","Kuala Terengganu","TRG"
"21300","Seberang Takir","Kuala Terengganu","TRG"
"21300","Taman Desa Permai","Kuala Terengganu","TRG"
"21300","Taman Gong Badak","Kuala Terengganu","TRG"
"21300","Taman Jaya (Seberang Takir)","Kuala Terengganu","TRG"
"21300","Taman Salwa","Kuala Terengganu","TRG"
"21300","Taman Setia Damai","Kuala Terengganu","TRG"
"21300","Tanah Lot Batu 10","Kuala Terengganu","TRG"
"21300","Zon Perindustrian Gong Badak","Kuala Terengganu","TRG"
"21309","Seberang Takir - Beg berkunci","Kuala Terengganu","TRG"
"21400","Bukit Payong","Bukit Payong","TRG"
"21400","Kampung Alor Limbat","Bukit Payong","TRG"
"21400","Kampung Banggol Kapas","Bukit Payong","TRG"
"21400","Kampung Banggol Tasek","Bukit Payong","TRG"
"21400","Kampung Binjai Bongkok","Bukit Payong","TRG"
"21400","Kampung Kubang Belukar","Bukit Payong","TRG"
"21400","Kampung Kubang Panjang","Bukit Payong","TRG"
"21400","Kampung Mak Kemas","Bukit Payong","TRG"
"21400","Kampung Nyut-Nyut","Bukit Payong","TRG"
"21400","Kampung Padang Ayer Deras","Bukit Payong","TRG"
"21400","Kampung Padang Kabar","Bukit Payong","TRG"
"21400","Kampung Padang Mengkuang","Bukit Payong","TRG"
"21400","Kampung Padang Midin","Bukit Payong","TRG"
"21400","Kampung Pak Madah","Bukit Payong","TRG"
"21400","Kampung Pantai Ali","Bukit Payong","TRG"
"21400","Kampung Pasir Tinggi","Bukit Payong","TRG"
"21400","Kampung Rawai","Bukit Payong","TRG"
"21400","Kampung Tasek","Bukit Payong","TRG"
"21400","Kampung Tebakang","Bukit Payong","TRG"
"21400","Kampung Telaga Mengkudu","Bukit Payong","TRG"
"21400","Kampung Undang","Bukit Payong","TRG"
"21400","Kampung Wakaf Dua","Bukit Payong","TRG"
"21400","Rejimen 512 - Askar Wataniah","Bukit Payong","TRG"
"21400","Taman Koperasi","Bukit Payong","TRG"
"21400","Taman Mewah","Bukit Payong","TRG"
"21400","Taman Padang Midin","Bukit Payong","TRG"
"21450","Chalok","Chalok","TRG"
"21450","Felda Chalok Barat","Chalok","TRG"
"21450","Felda Chalok","Chalok","TRG"
"21450","Kampung Batu Hampar (Chalok)","Chalok","TRG"
"21450","Kampung Bukit Kecil","Chalok","TRG"
"21450","Kampung Bukit Layak","Chalok","TRG"
"21450","Kampung Bukit Mak Jintan","Chalok","TRG"
"21450","Kampung Bukit Merah","Chalok","TRG"
"21450","Kampung Bukit Mok Som","Chalok","TRG"
"21450","Kampung Bukit Pinang","Chalok","TRG"
"21450","Kampung Bukit Putera","Chalok","TRG"
"21450","Kampung Bukit Tok Hat","Chalok","TRG"
"21450","Kampung Chabang Bari","Chalok","TRG"
"21450","Kampung Chalok Barat","Chalok","TRG"
"21450","Kampung Gong Terap Chalok","Chalok","TRG"
"21450","Kampung Jelapang","Chalok","TRG"
"21450","Kampung Kubang Puyu","Chalok","TRG"
"21450","Kampung Lubuk Panjang","Chalok","TRG"
"21450","Kampung Rahmat","Chalok","TRG"
"21450","Kampung Sungai Lerek","Chalok","TRG"
"21450","Kampung Sungai Pinang","Chalok","TRG"
"21450","Kampung Sungai Rakit","Chalok","TRG"
"21450","Kampung Tapah","Chalok","TRG"
"21450","Kampung Ulu Chalok","Chalok","TRG"
"21450","Kubang Puyu","Chalok","TRG"
"21450","Taman Tasek","Chalok","TRG"
"21500","Alor Lik","Sungai Tong","TRG"
"21500","Kampung Banggol Setor","Sungai Tong","TRG"
"21500","Kampung Batu 28","Sungai Tong","TRG"
"21500","Kampung Batu 30","Sungai Tong","TRG"
"21500","Kampung Bukit Mundok","Sungai Tong","TRG"
"21500","Kampung Bukit Nenas","Sungai Tong","TRG"
"21500","Kampung Bukit Sungai Tong","Sungai Tong","TRG"
"21500","Kampung Jaya Sungai Tong","Sungai Tong","TRG"
"21500","Kampung Jelapang","Sungai Tong","TRG"
"21500","Kampung Kuala Tayor","Sungai Tong","TRG"
"21500","Kampung Langkap","Sungai Tong","TRG"
"21500","Kampung Nibong Sungai Tong","Sungai Tong","TRG"
"21500","Kampung Nibong","Sungai Tong","TRG"
"21500","Kampung Pak Ba","Sungai Tong","TRG"
"21500","Kampung Payong","Sungai Tong","TRG"
"21500","Kampung Pelong","Sungai Tong","TRG"
"21500","Kampung Pengkalan Merbau","Sungai Tong","TRG"
"21500","Kampung Simpang Langkap","Sungai Tong","TRG"
"21500","Kampung Sungai Bari","Sungai Tong","TRG"
"21500","Kampung Tayor Tengah","Sungai Tong","TRG"
"21500","LKTP Belara","Sungai Tong","TRG"
"21500","Ladang Bari","Sungai Tong","TRG"
"21500","Pakoh Jaya","Sungai Tong","TRG"
"21500","Seri Langkap","Sungai Tong","TRG"
"21500","Sungai Lerak","Sungai Tong","TRG"
"21500","Sungai Tong","Sungai Tong","TRG"
"21600","Alor Gali","Marang","TRG"
"21600","Alor Tuman","Marang","TRG"
"21600","Asing","Marang","TRG"
"21600","Barat","Marang","TRG"
"21600","Bukit Baharu","Marang","TRG"
"21600","Bukit Gegading","Marang","TRG"
"21600","Bukit Jejulong","Marang","TRG"
"21600","Bukit Kulim","Marang","TRG"
"21600","Bukit Parit","Marang","TRG"
"21600","Durian Penjara","Marang","TRG"
"21600","Gong Beris","Marang","TRG"
"21600","Jabatan Penjara","Marang","TRG"
"21600","Kampung Batangan","Marang","TRG"
"21600","Kampung Bukit Gasing","Marang","TRG"
"21600","Kampung Gong Nangka","Marang","TRG"
"21600","Kampung Jenang","Marang","TRG"
"21600","Kampung Kayu Kelat","Marang","TRG"
"21600","Kampung Kelulut","Marang","TRG"
"21600","Kampung Kijing","Marang","TRG"
"21600","Kampung Masjid Haji Said","Marang","TRG"
"21600","Kampung Pantai Seberang Marang","Marang","TRG"
"21600","Kampung Paya","Marang","TRG"
"21600","Kampung Ru Dua","Marang","TRG"
"21600","Kampung Ru Muda","Marang","TRG"
"21600","Kampung Ru Rendang","Marang","TRG"
"21600","Kampung Sentul Patah","Marang","TRG"
"21600","Kampung Star Kiri","Marang","TRG"
"21600","Kampung Sungai Kerak","Marang","TRG"
"21600","Kampung Surau Haji Ibrahim","Marang","TRG"
"21600","Kampung Surau Haji Mat","Marang","TRG"
"21600","Kampung Tuman","Marang","TRG"
"21600","Ladang Fikri","Marang","TRG"
"21600","Marang","Marang","TRG"
"21600","Pengkalan Kuin","Marang","TRG"
"21600","Pulau Kerengga","Marang","TRG"
"21600","Rambai Jantan","Marang","TRG"
"21600","Setar Kanan","Marang","TRG"
"21600","Taman Hidayah","Marang","TRG"
"21600","Taman Kalongan Melor","Marang","TRG"
"21600","Taman Kernia Jaya","Marang","TRG"
"21600","Taman Laila","Marang","TRG"
"21600","Taman Mas Murni (Fasa 1 & 2)","Marang","TRG"
"21600","Taman Perpindahan Sungai Kerak","Marang","TRG"
"21600","Taman Perumahan Kelulut","Marang","TRG"
"21600","Taman Perumahan Perkaya","Marang","TRG"
"21600","Temiang Ulu","Marang","TRG"
"21600","Teratak Batu","Marang","TRG"
"21610","Jambu Bongkok","Marang","TRG"
"21610","Kampung Durian Pulut Merchang","Marang","TRG"
"21610","Kampung Gong Balai","Marang","TRG"
"21610","Kampung Gong Kassim","Marang","TRG"
"21610","Kampung Jambu Bongkok","Marang","TRG"
"21610","Kampung Padang Pauh","Marang","TRG"
"21610","Kampung Pasir Puteh","Marang","TRG"
"21610","Kampung Tok Fakir Merchang","Marang","TRG"
"21610","Merchang","Marang","TRG"
"21700","Binjai Kertas","Kuala Berang","TRG"
"21700","Kampung Alor Kiambang","Kuala Berang","TRG"
"21700","Kampung Basung","Kuala Berang","TRG"
"21700","Kampung Batu 23 (Jalan Kuala Berang)","Kuala Berang","TRG"
"21700","Kampung Batu 23","Kuala Berang","TRG"
"21700","Kampung Batu 24","Kuala Berang","TRG"
"21700","Kampung Baung","Kuala Berang","TRG"
"21700","Kampung Binjai Kertas","Kuala Berang","TRG"
"21700","Kampung Bukit Acheh","Kuala Berang","TRG"
"21700","Kampung Bukit Beruang","Kuala Berang","TRG"
"21700","Kampung Bukit Biah","Kuala Berang","TRG"
"21700","Kampung Bukit Gemuruh","Kuala Berang","TRG"
"21700","Kampung Bukit Martiya","Kuala Berang","TRG"
"21700","Kampung Bukit Tok Bat","Kuala Berang","TRG"
"21700","Kampung Buloh","Kuala Berang","TRG"
"21700","Kampung Butut","Kuala Berang","TRG"
"21700","Kampung Capu","Kuala Berang","TRG"
"21700","Kampung Cekering","Kuala Berang","TRG"
"21700","Kampung Ceting","Kuala Berang","TRG"
"21700","Kampung Dura","Kuala Berang","TRG"
"21700","Kampung Durian Bador","Kuala Berang","TRG"
"21700","Kampung Dusun","Kuala Berang","TRG"
"21700","Kampung Gaong","Kuala Berang","TRG"
"21700","Kampung Gerdong","Kuala Berang","TRG"
"21700","Kampung Hulu Sat","Kuala Berang","TRG"
"21700","Kampung Jenagor","Kuala Berang","TRG"
"21700","Kampung Kemat","Kuala Berang","TRG"
"21700","Kampung Kepah","Kuala Berang","TRG"
"21700","Kampung Kuala Akub","Kuala Berang","TRG"
"21700","Kampung Kuala Jeneris","Kuala Berang","TRG"
"21700","Kampung Kuala Menjing","Kuala Berang","TRG"
"21700","Kampung Kuala Ping","Kuala Berang","TRG"
"21700","Kampung Kuala Por","Kuala Berang","TRG"
"21700","Kampung Kuala Pueh","Kuala Berang","TRG"
"21700","Kampung Langgar Hilir","Kuala Berang","TRG"
"21700","Kampung Langgar Hulu","Kuala Berang","TRG"
"21700","Kampung Langgar","Kuala Berang","TRG"
"21700","Kampung Lubuk Pait","Kuala Berang","TRG"
"21700","Kampung Matang","Kuala Berang","TRG"
"21700","Kampung Nasi Dingin","Kuala Berang","TRG"
"21700","Kampung Nibong","Kuala Berang","TRG"
"21700","Kampung Padang Ipoh","Kuala Berang","TRG"
"21700","Kampung Padang Lebak","Kuala Berang","TRG"
"21700","Kampung Padang Setebu","Kuala Berang","TRG"
"21700","Kampung Padang Star","Kuala Berang","TRG"
"21700","Kampung Pasir Dula","Kuala Berang","TRG"
"21700","Kampung Pasir Nering","Kuala Berang","TRG"
"21700","Kampung Pasir Nyior","Kuala Berang","TRG"
"21700","Kampung Pasir Pelata","Kuala Berang","TRG"
"21700","Kampung Pasir Sipor","Kuala Berang","TRG"
"21700","Kampung Pauh","Kuala Berang","TRG"
"21700","Kampung Payang Kayu","Kuala Berang","TRG"
"21700","Kampung Pelandan","Kuala Berang","TRG"
"21700","Kampung Pulau Kudat","Kuala Berang","TRG"
"21700","Kampung Rahmat","Kuala Berang","TRG"
"21700","Kampung Sekayu","Kuala Berang","TRG"
"21700","Kampung Sungai Berua","Kuala Berang","TRG"
"21700","Kampung Sungai Ular","Kuala Berang","TRG"
"21700","Kampung Tajin","Kuala Berang","TRG"
"21700","Kampung Tanjong Baru","Kuala Berang","TRG"
"21700","Kampung Tapah","Kuala Berang","TRG"
"21700","Kampung Telaga","Kuala Berang","TRG"
"21700","Kampung Temir","Kuala Berang","TRG"
"21700","Kampung Tengkawang","Kuala Berang","TRG"
"21700","Kampung Teris","Kuala Berang","TRG"
"21700","Kampung Tok Bintang","Kuala Berang","TRG"
"21700","Kampung Tok Lawik","Kuala Berang","TRG"
"21700","Kenyir","Kuala Berang","TRG"
"21700","Kuala Berang","Kuala Berang","TRG"
"21700","Kuala Jeneris","Kuala Berang","TRG"
"21700","Kuala Menjing","Kuala Berang","TRG"
"21700","Kuala Ping","Kuala Berang","TRG"
"21700","Kuala Pueh","Kuala Berang","TRG"
"21700","Matang","Kuala Berang","TRG"
"21700","Sungai Gawi","Kuala Berang","TRG"
"21700","Ulu Sat","Kuala Berang","TRG"
"21800","Ajil","Ajil","TRG"
"21800","Bukit Jabar","Ajil","TRG"
"21800","Bukit Pachat","Ajil","TRG"
"21800","Cherang Nibong","Ajil","TRG"
"21800","Durian Kassim","Ajil","TRG"
"21800","Felda Bukit Bading","Ajil","TRG"
"21800","Felda Mengkawang","Ajil","TRG"
"21800","Felda Tersat","Ajil","TRG"
"21800","Kampung Ajal","Ajil","TRG"
"21800","Kampung Baru Ajil","Ajil","TRG"
"21800","Kampung Batu 18","Ajil","TRG"
"21800","Kampung Batu 21","Ajil","TRG"
"21800","Kampung Belukar Bukit","Ajil","TRG"
"21800","Kampung Betong","Ajil","TRG"
"21800","Kampung Bukit Apit","Ajil","TRG"
"21800","Kampung Bukit Ara","Ajil","TRG"
"21800","Kampung Bukit Biman","Ajil","TRG"
"21800","Kampung Bukit Perah","Ajil","TRG"
"21800","Kampung Bukit Perpat","Ajil","TRG"
"21800","Kampung Chenderong Balai","Ajil","TRG"
"21800","Kampung Chenderong Lebam","Ajil","TRG"
"21800","Kampung Datuk Amar","Ajil","TRG"
"21800","Kampung Durian Rendang","Ajil","TRG"
"21800","Kampung Gunong","Ajil","TRG"
"21800","Kampung Jabar","Ajil","TRG"
"21800","Kampung Jak","Ajil","TRG"
"21800","Kampung Jerlang","Ajil","TRG"
"21800","Kampung Kolam Ajil","Ajil","TRG"
"21800","Kampung Kua","Ajil","TRG"
"21800","Kampung Lerek","Ajil","TRG"
"21800","Kampung Lubok Periok","Ajil","TRG"
"21800","Kampung Machang","Ajil","TRG"
"21800","Kampung Matang","Ajil","TRG"
"21800","Kampung Menerong","Ajil","TRG"
"21800","Kampung Panggong","Ajil","TRG"
"21800","Kampung Penek","Ajil","TRG"
"21800","Kampung Pengkalan Ajal","Ajil","TRG"
"21800","Kampung Peris","Ajil","TRG"
"21800","Kampung Pulai Api","Ajil","TRG"
"21800","Kampung Setia Jaya","Ajil","TRG"
"21800","Kampung Sungai Siput","Ajil","TRG"
"21800","Kampung Tok Gebok","Ajil","TRG"
"21800","Kampung Tok Rendok","Ajil","TRG"
"21800","Kampung Tulang Daing","Ajil","TRG"
"21800","Menerung","Ajil","TRG"
"21810","Kampung Baru Sungai Binjai","Ajil","TRG"
"21810","Kampung Jaya Baru Nasri","Ajil","TRG"
"21810","Kampung Landas","Ajil","TRG"
"21810","Kampung Pelar","Ajil","TRG"
"21810","Kampung Peroh","Ajil","TRG"
"21810","Kampung Tok Dor","Ajil","TRG"
"21820","Felda Jerangau Barat","Ajil","TRG"
"21820","Kampung Baru Mardi","Ajil","TRG"
"21820","Kampung Batu 32","Ajil","TRG"
"21820","Kampung Landas Estate","Ajil","TRG"
"21820","LKTP Bukit Bading","Ajil","TRG"
"22000","Alor Lintah","Jerteh","TRG"
"22000","Balik Bukit","Jerteh","TRG"
"22000","Bukit Kenak","Jerteh","TRG"
"22000","Bukit Puteri","Jerteh","TRG"
"22000","Felda Selaseh","Jerteh","TRG"
"22000","Gong Nering","Jerteh","TRG"
"22000","Jerteh","Jerteh","TRG"
"22000","Kampung Alor Belanga","Jerteh","TRG"
"22000","Kampung Alor Keladi","Jerteh","TRG"
"22000","Kampung Alor Selising","Jerteh","TRG"
"22000","Kampung Awek Darau","Jerteh","TRG"
"22000","Kampung Ayer Terjun","Jerteh","TRG"
"22000","Kampung Baru","Jerteh","TRG"
"22000","Kampung Baruh Mesin","Jerteh","TRG"
"22000","Kampung Berhala Tambun","Jerteh","TRG"
"22000","Kampung Beris Pak Abu","Jerteh","TRG"
"22000","Kampung Bukit China","Jerteh","TRG"
"22000","Kampung Bukit Tempurong","Jerteh","TRG"
"22000","Kampung Cerang Melintang","Jerteh","TRG"
"22000","Kampung Dalam Huma","Jerteh","TRG"
"22000","Kampung Darau","Jerteh","TRG"
"22000","Kampung Denger","Jerteh","TRG"
"22000","Kampung Durian Merkah","Jerteh","TRG"
"22000","Kampung Durian Telor","Jerteh","TRG"
"22000","Kampung Gegar Batang","Jerteh","TRG"
"22000","Kampung Gerai Muda","Jerteh","TRG"
"22000","Kampung Gerai Tua","Jerteh","TRG"
"22000","Kampung Gong Badang","Jerteh","TRG"
"22000","Kampung Gong Bukit Kenak","Jerteh","TRG"
"22000","Kampung Gong Chenerai","Jerteh","TRG"
"22000","Kampung Gong Duek","Jerteh","TRG"
"22000","Kampung Gong Guchil","Jerteh","TRG"
"22000","Kampung Gong Jaga","Jerteh","TRG"
"22000","Kampung Gong Mat Som","Jerteh","TRG"
"22000","Kampung Gong Nangka","Jerteh","TRG"
"22000","Kampung Gong Pak Cheng","Jerteh","TRG"
"22000","Kampung Gong Pasir","Jerteh","TRG"
"22000","Kampung Gong Penaga","Jerteh","TRG"
"22000","Kampung Gong Rengas","Jerteh","TRG"
"22000","Kampung Gong Tanah Merah","Jerteh","TRG"
"22000","Kampung Gong Terap","Jerteh","TRG"
"22000","Kampung Hutan Nangka","Jerteh","TRG"
"22000","Kampung Kolam Jerteh","Jerteh","TRG"
"22000","Kampung Kubang Bemban","Jerteh","TRG"
"22000","Kampung Lao Lok","Jerteh","TRG"
"22000","Kampung Lapan Kejor","Jerteh","TRG"
"22000","Kampung Lapan Kotak","Jerteh","TRG"
"22000","Kampung Lubok Kawah","Jerteh","TRG"
"22000","Kampung Nyior Tujuh","Jerteh","TRG"
"22000","Kampung Padang Landak","Jerteh","TRG"
"22000","Kampung Padang Luas","Jerteh","TRG"
"22000","Kampung Pak Da Malik","Jerteh","TRG"
"22000","Kampung Pak Wong","Jerteh","TRG"
"22000","Kampung Paroh","Jerteh","TRG"
"22000","Kampung Pasir Akar","Jerteh","TRG"
"22000","Kampung Pekakok","Jerteh","TRG"
"22000","Kampung Pelagat","Jerteh","TRG"
"22000","Kampung Pengkalan Setol","Jerteh","TRG"
"22000","Kampung Pondok Paku","Jerteh","TRG"
"22000","Kampung Pulai Rimau","Jerteh","TRG"
"22000","Kampung Pulau Panjang","Jerteh","TRG"
"22000","Kampung Pulau Ribu","Jerteh","TRG"
"22000","Kampung Pusu Tinggi","Jerteh","TRG"
"22000","Kampung Seberang Panggong","Jerteh","TRG"
"22000","Kampung Tanah Merah","Jerteh","TRG"
"22000","Kampung Tanjong Alir","Jerteh","TRG"
"22000","Kampung Tasek Mengkuang","Jerteh","TRG"
"22000","Kampung Tasek","Jerteh","TRG"
"22000","Kampung Telaga Nibong","Jerteh","TRG"
"22000","Kampung Telok","Jerteh","TRG"
"22000","Kampung Tok Dat","Jerteh","TRG"
"22000","Kampung Tok Motong","Jerteh","TRG"
"22000","Kerandang","Jerteh","TRG"
"22000","LKTP Jerangau","Jerteh","TRG"
"22000","Pasir Akar","Jerteh","TRG"
"22000","Pulau Berangan","Jerteh","TRG"
"22000","TUDM Bukit Putri","Jerteh","TRG"
"22000","Taman Bakti","Jerteh","TRG"
"22000","Taman Desa Aman","Jerteh","TRG"
"22000","Taman Desa Saujana","Jerteh","TRG"
"22000","Taman Desa Sepakat","Jerteh","TRG"
"22000","Taman Desa Tani","Jerteh","TRG"
"22000","Taman Desa Tanjung","Jerteh","TRG"
"22000","Taman Jaya","Jerteh","TRG"
"22000","Taman Pelagat","Jerteh","TRG"
"22000","Taman Saujana","Jerteh","TRG"
"22000","Taman Seri Nering","Jerteh","TRG"
"22000","Taman Seri Sepakat","Jerteh","TRG"
"22000","Taman Teratur","Jerteh","TRG"
"22000","Taman Tuah","Jerteh","TRG"
"22000","Tok Kundur","Jerteh","TRG"
"22010","Bukit Payong (Jerteh)","Jerteh","TRG"
"22010","Felcra Keruak","Jerteh","TRG"
"22010","Kampung Bekok","Jerteh","TRG"
"22010","Kampung Belaoh","Jerteh","TRG"
"22010","Kampung Bukit Mali","Jerteh","TRG"
"22010","Kampung Bukit Payong","Jerteh","TRG"
"22010","Kampung Cawangan","Jerteh","TRG"
"22010","Kampung Dengir Tenang","Jerteh","TRG"
"22010","Kampung Keruak","Jerteh","TRG"
"22010","Kampung Kuala Sayak","Jerteh","TRG"
"22010","Kampung La","Jerteh","TRG"
"22010","Kampung Mata Ayer","Jerteh","TRG"
"22010","Kampung Padang Bual","Jerteh","TRG"
"22010","Kampung Panchor","Jerteh","TRG"
"22010","Kampung Seberang Lalang","Jerteh","TRG"
"22020","Apal","Jerteh","TRG"
"22020","Bukit Jerok","Jerteh","TRG"
"22020","Jabi","Jerteh","TRG"
"22020","Kampung Anak Ikan","Jerteh","TRG"
"22020","Kampung Anak Musang","Jerteh","TRG"
"22020","Kampung Bakat","Jerteh","TRG"
"22020","Kampung Baru Tok Dor","Jerteh","TRG"
"22020","Kampung Gong Lilit","Jerteh","TRG"
"22020","Kampung Gong Pasir Jabi","Jerteh","TRG"
"22020","Kampung Gong Pasir Oh","Jerteh","TRG"
"22020","Kampung Gong Penaga Jabi","Jerteh","TRG"
"22020","Kampung Kepala Gajah","Jerteh","TRG"
"22020","Kampung Kuala Lubang","Jerteh","TRG"
"22020","Kampung Lay Out (Jabi)","Jerteh","TRG"
"22020","Kampung Oh","Jerteh","TRG"
"22020","Kampung Padang Lengkuas","Jerteh","TRG"
"22020","Kampung Pasir Tawar","Jerteh","TRG"
"22020","Kampung Pohon Tar","Jerteh","TRG"
"22020","Kampung Pulau Kala","Jerteh","TRG"
"22020","Kampung Renek","Jerteh","TRG"
"22020","Kampung Tempinis","Jerteh","TRG"
"22020","Kampung Tok Dor","Jerteh","TRG"
"22020","LKTP Tenang","Jerteh","TRG"
"22100","Balik Bukit","Permaisuri","TRG"
"22100","Bukit Kemudu","Permaisuri","TRG"
"22100","Bukit Pari","Permaisuri","TRG"
"22100","Bukit Pelong","Permaisuri","TRG"
"22100","Jalan Penarek","Permaisuri","TRG"
"22100","Jalan Ulu Serdang","Permaisuri","TRG"
"22100","Kampung Alor Pasir","Permaisuri","TRG"
"22100","Kampung Alor Serdang","Permaisuri","TRG"
"22100","Kampung Apek","Permaisuri","TRG"
"22100","Kampung Bahagia","Permaisuri","TRG"
"22100","Kampung Banggol","Permaisuri","TRG"
"22100","Kampung Bari Kecil","Permaisuri","TRG"
"22100","Kampung Besut","Permaisuri","TRG"
"22100","Kampung Bintang","Permaisuri","TRG"
"22100","Kampung Bukit Pelong","Permaisuri","TRG"
"22100","Kampung Bukit Swee","Permaisuri","TRG"
"22100","Kampung Buloh","Permaisuri","TRG"
"22100","Kampung Buruk","Permaisuri","TRG"
"22100","Kampung Che Long","Permaisuri","TRG"
"22100","Kampung Che Mohd","Permaisuri","TRG"
"22100","Kampung Guntong Dalam","Permaisuri","TRG"
"22100","Kampung Guntong Luar","Permaisuri","TRG"
"22100","Kampung Guntong","Permaisuri","TRG"
"22100","Kampung Kederang","Permaisuri","TRG"
"22100","Kampung Kuari Batu","Permaisuri","TRG"
"22100","Kampung Nyatok","Permaisuri","TRG"
"22100","Kampung Padang Serai","Permaisuri","TRG"
"22100","Kampung Padang","Permaisuri","TRG"
"22100","Kampung Pak Kancil","Permaisuri","TRG"
"22100","Kampung Panchor Merah","Permaisuri","TRG"
"22100","Kampung Pancur Merah","Permaisuri","TRG"
"22100","Kampung Permaisuri","Permaisuri","TRG"
"22100","Kampung Seri Bayas","Permaisuri","TRG"
"22100","Kampung Tasek","Permaisuri","TRG"
"22100","Kampung Ulu Kekabu","Permaisuri","TRG"
"22100","Kampung Ulu Seladang","Permaisuri","TRG"
"22100","Perumahan Binjai Manis","Permaisuri","TRG"
"22107","Permaisuri - Peti surat","Permaisuri","TRG"
"22109","Permaisuri - Beg berkunci","Permaisuri","TRG"
"22110","Kampung Beris Tokku","Permaisuri","TRG"
"22110","Kampung Fikri","Permaisuri","TRG"
"22110","Kampung Gong Batu","Permaisuri","TRG"
"22110","Kampung Saujana","Permaisuri","TRG"
"22110","Kuala Setiu Baru","Permaisuri","TRG"
"22110","Kuala Setiu Lama","Permaisuri","TRG"
"22110","Lorong Saga Saujana","Permaisuri","TRG"
"22110","Lorong Saga","Permaisuri","TRG"
"22110","Lorong Seliat Saujana","Permaisuri","TRG"
"22110","Lorong Senandong Saujana","Permaisuri","TRG"
"22110","Lorong Senandong","Permaisuri","TRG"
"22110","Lorong Senayong Saujana","Permaisuri","TRG"
"22110","Lorong Senayong","Permaisuri","TRG"
"22110","Lorong Siakap Saujana","Permaisuri","TRG"
"22110","Lorong Siakap","Permaisuri","TRG"
"22110","Lorong Silat","Permaisuri","TRG"
"22120","Jalan Aman Rhu Sepuluh Penarek","Permaisuri","TRG"
"22120","Jalan Aman","Permaisuri","TRG"
"22120","Jalan Bahagia Rhu Sepuluh Penarek","Permaisuri","TRG"
"22120","Jalan Bahagia","Permaisuri","TRG"
"22120","Jalan Makmur Rhu Sepuluh Penarek","Permaisuri","TRG"
"22120","Jalan Makmur","Permaisuri","TRG"
"22120","Kampung Bari Kecil","Permaisuri","TRG"
"22120","Kampung Baru Penarek","Permaisuri","TRG"
"22120","Kampung Bukit Chalok Penarek","Permaisuri","TRG"
"22120","Kampung Mangkok","Permaisuri","TRG"
"22120","Kampung Penarek","Permaisuri","TRG"
"22120","Kampung Penarik","Permaisuri","TRG"
"22120","Setiu","Permaisuri","TRG"
"22200","Alor Lintang","Kampung Raja","TRG"
"22200","Besut","Kampung Raja","TRG"
"22200","Bukit Tanah","Kampung Raja","TRG"
"22200","Gong Bayor","Kampung Raja","TRG"
"22200","Gong Jelutong","Kampung Raja","TRG"
"22200","Gong Medang","Kampung Raja","TRG"
"22200","Kampung Alor Simpol","Kampung Raja","TRG"
"22200","Kampung Amir","Kampung Raja","TRG"
"22200","Kampung Ayer Tawar","Kampung Raja","TRG"
"22200","Kampung Baru Ayer Tawar","Kampung Raja","TRG"
"22200","Kampung Baru Batu Tumboh","Kampung Raja","TRG"
"22200","Kampung Baru Gong Bayor","Kampung Raja","TRG"
"22200","Kampung Beting Lintang","Kampung Raja","TRG"
"22200","Kampung Gelang Mas","Kampung Raja","TRG"
"22200","Kampung Gong Kepas","Kampung Raja","TRG"
"22200","Kampung Gong Machang","Kampung Raja","TRG"
"22200","Kampung Gong Tiang Layar","Kampung Raja","TRG"
"22200","Kampung Gong Tiong","Kampung Raja","TRG"
"22200","Kampung Keluang","Kampung Raja","TRG"
"22200","Kampung Laha","Kampung Raja","TRG"
"22200","Kampung Laman","Kampung Raja","TRG"
"22200","Kampung Lohor","Kampung Raja","TRG"
"22200","Kampung Padang Baloh","Kampung Raja","TRG"
"22200","Kampung Pak Kiang","Kampung Raja","TRG"
"22200","Kampung Parit","Kampung Raja","TRG"
"22200","Kampung Paya Rawa","Kampung Raja","TRG"
"22200","Kampung Pengkalan Nyireh","Kampung Raja","TRG"
"22200","Kampung Pinang","Kampung Raja","TRG"
"22200","Kampung Raja Besut","Kampung Raja","TRG"
"22200","Kampung Rhu Sepuluh","Kampung Raja","TRG"
"22200","Kampung Sentosa","Kampung Raja","TRG"
"22200","Kampung Tok Fakir Besut","Kampung Raja","TRG"
"22200","Kampung Tok Pek","Kampung Raja","TRG"
"22200","Kampung Wakaf Kubor","Kampung Raja","TRG"
"22200","Kedeper","Kampung Raja","TRG"
"22200","Kubang Ikan","Kampung Raja","TRG"
"22200","Pak Mentosa","Kampung Raja","TRG"
"22200","Pekan Sehari Tembila","Kampung Raja","TRG"
"22200","Pengkalan Kubor","Kampung Raja","TRG"
"22200","Pengkalan Teras","Kampung Raja","TRG"
"22200","Seberang Kastam","Kampung Raja","TRG"
"22200","Seberang Limbongan","Kampung Raja","TRG"
"22200","Teluk Kubor","Kampung Raja","TRG"
"22200","Tembila","Kampung Raja","TRG"
"22300","Alor Pak Ndok","Kuala Besut","TRG"
"22300","Alor Peroi","Kuala Besut","TRG"
"22300","Alor Pisang","Kuala Besut","TRG"
"22300","Alor Teratai","Kuala Besut","TRG"
"22300","Beris Alor Peroi","Kuala Besut","TRG"
"22300","Beris Alor Pisang","Kuala Besut","TRG"
"22300","Beris Cawat","Kuala Besut","TRG"
"22300","Gong Manok","Kuala Besut","TRG"
"22300","Gong Nering","Kuala Besut","TRG"
"22300","Gong Surau","Kuala Besut","TRG"
"22300","Kampung Baru","Kuala Besut","TRG"
"22300","Kampung Beris Panggong","Kuala Besut","TRG"
"22300","Kampung Gertak Seratus","Kuala Besut","TRG"
"22300","Kampung Kayu Kelat","Kuala Besut","TRG"
"22300","Kampung Lampu","Kuala Besut","TRG"
"22300","Kampung Nail","Kuala Besut","TRG"
"22300","Kampung Nangka","Kuala Besut","TRG"
"22300","Kampung Paya","Kuala Besut","TRG"
"22300","Kampung Sungai","Kuala Besut","TRG"
"22300","Kampung Tengah (Kuala Besut)","Kuala Besut","TRG"
"22300","Kampung Timur","Kuala Besut","TRG"
"22300","Kuala Bedah","Kuala Besut","TRG"
"22300","Kuala Besut","Kuala Besut","TRG"
"22300","Pacakan","Kuala Besut","TRG"
"22300","Pulau Perhentian","Kuala Besut","TRG"
"22300","Pulau Salim","Kuala Besut","TRG"
"22300","Teluk Budu","Kuala Besut","TRG"
"22300","Tok Saboh","Kuala Besut","TRG"
"22307","Kuala Besut - Peti surat","Kuala Besut","TRG"
"22309","Kuala Besut - Beg berkunci","Kuala Besut","TRG"
"23000","Alor Rekan Bemban","Dungun","TRG"
"23000","Bangunan Abdullah Osman","Dungun","TRG"
"23000","Bangunan Haji Wahab","Dungun","TRG"
"23000","Bangunan Maidam","Dungun","TRG"
"23000","Bangunan Yayasan Islam","Dungun","TRG"
"23000","Bukit Tok Bilal","Dungun","TRG"
"23000","Dungun (Batu 48)","Dungun","TRG"
"23000","Dungun Beach Resort","Dungun","TRG"
"23000","Dungun","Dungun","TRG"
"23000","Jongok Batu","Dungun","TRG"
"23000","Kampung Alor Jejawi","Dungun","TRG"
"23000","Kampung Alor Tembusu","Dungun","TRG"
"23000","Kampung Bahagia Tok Kah","Dungun","TRG"
"23000","Kampung Balai Besar","Dungun","TRG"
"23000","Kampung Batu Enam","Dungun","TRG"
"23000","Kampung Batu Lima","Dungun","TRG"
"23000","Kampung Batu Puteh","Dungun","TRG"
"23000","Kampung Batu Tiong","Dungun","TRG"
"23000","Kampung Batu Tujuh","Dungun","TRG"
"23000","Kampung Binjai","Dungun","TRG"
"23000","Kampung Bukit Belah","Dungun","TRG"
"23000","Kampung Bukit Merah Padang Pulut","Dungun","TRG"
"23000","Kampung Bukit Murai","Dungun","TRG"
"23000","Kampung Bukit Pauh","Dungun","TRG"
"23000","Kampung Bukit Tok Bilal","Dungun","TRG"
"23000","Kampung Che Lijah","Dungun","TRG"
"23000","Kampung Delong","Dungun","TRG"
"23000","Kampung Gong Pasir","Dungun","TRG"
"23000","Kampung Jongkok Batu","Dungun","TRG"
"23000","Kampung Kemudi","Dungun","TRG"
"23000","Kampung Padang Jambu","Dungun","TRG"
"23000","Kampung Padang Pulut","Dungun","TRG"
"23000","Kampung Pak Sabah","Dungun","TRG"
"23000","Kampung Peladang","Dungun","TRG"
"23000","Kampung Pulau Serai","Dungun","TRG"
"23000","Kampung Raja Wali","Dungun","TRG"
"23000","Kampung Rantau Abang","Dungun","TRG"
"23000","Kampung Rhu Batil","Dungun","TRG"
"23000","Kampung Serdang","Dungun","TRG"
"23000","Kampung Sukur","Dungun","TRG"
"23000","Kampung Sungai Pimpin","Dungun","TRG"
"23000","Kampung Talong","Dungun","TRG"
"23000","Kampung Tanjong Batu","Dungun","TRG"
"23000","Kampung Tanjong Pagar","Dungun","TRG"
"23000","Kampung Tanjong Pati","Dungun","TRG"
"23000","Kampung Tok Kah","Dungun","TRG"
"23000","Kompleks Perniagaan Sura Gate","Dungun","TRG"
"23000","Kuala Dungun","Dungun","TRG"
"23000","Kuala Jengal","Dungun","TRG"
"23000","Kumpal","Dungun","TRG"
"23000","Padang Pulut","Dungun","TRG"
"23000","Pasir Raja","Dungun","TRG"
"23000","Rantau Abang","Dungun","TRG"
"23000","Seberang Pintasan","Dungun","TRG"
"23000","Sukur","Dungun","TRG"
"23000","Sura Gate","Dungun","TRG"
"23000","Sura Hujong","Dungun","TRG"
"23000","Talong","Dungun","TRG"
"23000","Taman Alina","Dungun","TRG"
"23000","Taman Anggerik","Dungun","TRG"
"23000","Taman Anjaria","Dungun","TRG"
"23000","Taman Bersekutu","Dungun","TRG"
"23000","Taman Bijaya Sura","Dungun","TRG"
"23000","Taman Bukit Bauk 1,2","Dungun","TRG"
"23000","Taman Bukit Catak","Dungun","TRG"
"23000","Taman Bunga Raya","Dungun","TRG"
"23000","Taman Cempaka","Dungun","TRG"
"23000","Taman Cenderawasih","Dungun","TRG"
"23000","Taman Delima","Dungun","TRG"
"23000","Taman Gemilang","Dungun","TRG"
"23000","Taman Gong Pasir","Dungun","TRG"
"23000","Taman Haji Idris","Dungun","TRG"
"23000","Taman Harmoni","Dungun","TRG"
"23000","Taman Himiran","Dungun","TRG"
"23000","Taman Intan","Dungun","TRG"
"23000","Taman Jaya","Dungun","TRG"
"23000","Taman Jejawi","Dungun","TRG"
"23000","Taman Kurnia Jaya","Dungun","TRG"
"23000","Taman Mas Intan","Dungun","TRG"
"23000","Taman Mawar","Dungun","TRG"
"23000","Taman Melati","Dungun","TRG"
"23000","Taman Melor 4 Fasa 2","Dungun","TRG"
"23000","Taman Melor","Dungun","TRG"
"23000","Taman Mesra","Dungun","TRG"
"23000","Taman Murni","Dungun","TRG"
"23000","Taman Mutiara","Dungun","TRG"
"23000","Taman Norlida","Dungun","TRG"
"23000","Taman Omar Al Khatab","Dungun","TRG"
"23000","Taman Pantai Sura","Dungun","TRG"
"23000","Taman Pelangi 1 & 2","Dungun","TRG"
"23000","Taman Perdana Bukit Catak","Dungun","TRG"
"23000","Taman Permint Indah","Dungun","TRG"
"23000","Taman Rakyat","Dungun","TRG"
"23000","Taman Raya","Dungun","TRG"
"23000","Taman Ros","Dungun","TRG"
"23000","Taman Rumbia","Dungun","TRG"
"23000","Taman Saeda","Dungun","TRG"
"23000","Taman Selasih Perdana","Dungun","TRG"
"23000","Taman Seri Dungun","Dungun","TRG"
"23000","Taman Setia","Dungun","TRG"
"23000","Taman Sri Bayu","Dungun","TRG"
"23000","Taman Sri Intan","Dungun","TRG"
"23000","Taman Sri Tanjung","Dungun","TRG"
"23000","Taman Sura Jaya","Dungun","TRG"
"23000","Taman Sura Jetty","Dungun","TRG"
"23000","Taman Sura Perdana","Dungun","TRG"
"23000","Taman Sura Permai","Dungun","TRG"
"23000","Taman Sura Tengah 1","Dungun","TRG"
"23000","Taman Sura","Dungun","TRG"
"23000","Taman Sutera","Dungun","TRG"
"23000","Taman Telok Lipat","Dungun","TRG"
"23000","Taman Wahyu","Dungun","TRG"
"23000","Taman Zaharah","Dungun","TRG"
"23000","Tanjung Jara Beach Resort","Dungun","TRG"
"23007","Dungun - Peti surat","Dungun","TRG"
"23009","Dungun - Beg berkunci","Dungun","TRG"
"23050","Kampung Baru Kuala Abang","Dungun","TRG"
"23050","Kampung Kertas Pulas","Dungun","TRG"
"23050","Kampung Kuala Abang","Dungun","TRG"
"23050","Kampung Kubang Putat","Dungun","TRG"
"23050","Kampung Kubang Temiang","Dungun","TRG"
"23100","Jalan Besar Paka","Paka","TRG"
"23100","Jalan Klinik","Paka","TRG"
"23100","Jalan Santong","Paka","TRG"
"23100","Kampung Air Hitam","Paka","TRG"
"23100","Kampung Baru Paka","Paka","TRG"
"23100","Kampung Baru Tebing Tembah","Paka","TRG"
"23100","Kampung Bukit Merah","Paka","TRG"
"23100","Kampung Cacar Baru","Paka","TRG"
"23100","Kampung Cacar","Paka","TRG"
"23100","Kampung Durian Mentangau","Paka","TRG"
"23100","Kampung Gemia","Paka","TRG"
"23100","Kampung Layout Cacar","Paka","TRG"
"23100","Kampung Limbong","Paka","TRG"
"23100","Kampung Masjid","Paka","TRG"
"23100","Kampung Nyior","Paka","TRG"
"23100","Kampung Pantai Laut","Paka","TRG"
"23100","Kampung Pinang Merah","Paka","TRG"
"23100","Kampung Santong","Paka","TRG"
"23100","Kampung Seberang Alor","Paka","TRG"
"23100","Kampung Tebing Tembah","Paka","TRG"
"23100","Kampung Tok Harun","Paka","TRG"
"23100","Kampung Wakaf Hijau","Paka","TRG"
"23100","Paka","Paka","TRG"
"23200","Bukit Besi","Bukit Besi","TRG"
"23200","Dendang","Bukit Besi","TRG"
"23200","Jerangau","Bukit Besi","TRG"
"23200","Kampung Baru","Bukit Besi","TRG"
"23200","Kampung Besol","Bukit Besi","TRG"
"23200","Kampung Jerangau","Bukit Besi","TRG"
"23200","Kampung Kubur","Bukit Besi","TRG"
"23200","Pinang","Bukit Besi","TRG"
"23200","Rasau","Bukit Besi","TRG"
"23300","Bandar Ketengah Jaya","Ketengah Jaya","TRG"
"23300","Felda Kerteh (1 - 6)","Ketengah Jaya","TRG"
"23300","Kampung Padang Lalang","Ketengah Jaya","TRG"
"23400","Al Muktafi Billah Shah","Al Muktatfi Billah Shah","TRG"
"24000","Bakau Tinggi","Cukai","TRG"
"24000","Binjai","Cukai","TRG"
"24000","Bukit Kuang","Cukai","TRG"
"24000","Cukai","Cukai","TRG"
"24000","Desa Darul Iman","Cukai","TRG"
"24000","Dusun Nyior","Cukai","TRG"
"24000","Geliga Permai","Cukai","TRG"
"24000","Jalan Abdul Rahman","Cukai","TRG"
"24000","Jalan Air Puteh","Cukai","TRG"
"24000","Jalan Che Teng","Cukai","TRG"
"24000","Jalan Da Omar","Cukai","TRG"
"24000","Jalan Datok","Cukai","TRG"
"24000","Jalan Feri Lama","Cukai","TRG"
"24000","Jalan Hospital","Cukai","TRG"
"24000","Jalan Injin Gergaji","Cukai","TRG"
"24000","Jalan Jakar","Cukai","TRG"
"24000","Jalan Kenanga","Cukai","TRG"
"24000","Jalan Kubang Kurus","Cukai","TRG"
"24000","Jalan Mak Dayang","Cukai","TRG"
"24000","Jalan Masjid Lama","Cukai","TRG"
"24000","Jalan Pasar","Cukai","TRG"
"24000","Jalan Penghiburan","Cukai","TRG"
"24000","Jalan Sulaiman","Cukai","TRG"
"24000","Jalan Taha","Cukai","TRG"
"24000","Jalan Teratai","Cukai","TRG"
"24000","Kampung Air","Cukai","TRG"
"24000","Kampung Bakau Tinggi","Cukai","TRG"
"24000","Kampung Banggol Kanan","Cukai","TRG"
"24000","Kampung Banggol Kiri","Cukai","TRG"
"24000","Kampung Batu 4 (Binjai)","Cukai","TRG"
"24000","Kampung Belakang Esso","Cukai","TRG"
"24000","Kampung Belakang Hospital","Cukai","TRG"
"24000","Kampung Besut","Cukai","TRG"
"24000","Kampung Bukit Kuang","Cukai","TRG"
"24000","Kampung Bukit Mentok","Cukai","TRG"
"24000","Kampung Cina","Cukai","TRG"
"24000","Kampung Darat Olong","Cukai","TRG"
"24000","Kampung Dusun Nyior","Cukai","TRG"
"24000","Kampung Fikri","Cukai","TRG"
"24000","Kampung Geliga Baru","Cukai","TRG"
"24000","Kampung Geliga Besar","Cukai","TRG"
"24000","Kampung Geliga Haji Ali","Cukai","TRG"
"24000","Kampung Geliga Jambatan","Cukai","TRG"
"24000","Kampung Geliga Mengambang","Cukai","TRG"
"24000","Kampung Geliga","Cukai","TRG"
"24000","Kampung Gong Limau","Cukai","TRG"
"24000","Kampung Gong Pauh","Cukai","TRG"
"24000","Kampung Jabur Kubur","Cukai","TRG"
"24000","Kampung Jaya","Cukai","TRG"
"24000","Kampung Kuala Kemaman","Cukai","TRG"
"24000","Kampung Lot Seri Jaya","Cukai","TRG"
"24000","Kampung Mak Chili","Cukai","TRG"
"24000","Kampung Mak Cili Paya","Cukai","TRG"
"24000","Kampung Mak Dayang","Cukai","TRG"
"24000","Kampung Padang Lalang","Cukai","TRG"
"24000","Kampung Paman","Cukai","TRG"
"24000","Kampung Pancor","Cukai","TRG"
"24000","Kampung Pandan","Cukai","TRG"
"24000","Kampung Pasir Minal","Cukai","TRG"
"24000","Kampung Paya Berenjut","Cukai","TRG"
"24000","Kampung Pengkalan Binjai","Cukai","TRG"
"24000","Kampung Pengkalan Cicar","Cukai","TRG"
"24000","Kampung Pengkalan Pandan","Cukai","TRG"
"24000","Kampung Pulau Tempurong","Cukai","TRG"
"24000","Kampung Sungai Pinang","Cukai","TRG"
"24000","Kampung Tanah Lot Geliga","Cukai","TRG"
"24000","Kampung Tempurong","Cukai","TRG"
"24000","Kampung Tengah","Cukai","TRG"
"24000","Kampung Tuan","Cukai","TRG"
"24000","Kampung Wakaf Jambu","Cukai","TRG"
"24000","Kuala Kemaman","Cukai","TRG"
"24000","Padang Lalang","Cukai","TRG"
"24000","Pasir Minar","Cukai","TRG"
"24000","Pengkalan Binjai","Cukai","TRG"
"24000","Pengkalan Cicar","Cukai","TRG"
"24000","Pengkalan Sir","Cukai","TRG"
"24000","Pulau Tempurong","Cukai","TRG"
"24000","Taman Air Puteh","Cukai","TRG"
"24000","Taman Anggerik","Cukai","TRG"
"24000","Taman Bahagia","Cukai","TRG"
"24000","Taman Baiduri","Cukai","TRG"
"24000","Taman Bakar Daud","Cukai","TRG"
"24000","Taman Berjaya","Cukai","TRG"
"24000","Taman Bersekutu","Cukai","TRG"
"24000","Taman Bukit Mentok","Cukai","TRG"
"24000","Taman Bunga Tanjung","Cukai","TRG"
"24000","Taman Cempaka","Cukai","TRG"
"24000","Taman Cendana","Cukai","TRG"
"24000","Taman Chua Ah Kee","Cukai","TRG"
"24000","Taman Cukai Utama","Cukai","TRG"
"24000","Taman Cukai","Cukai","TRG"
"24000","Taman Dahlia","Cukai","TRG"
"24000","Taman Darul Iman 1","Cukai","TRG"
"24000","Taman Darul Iman 2","Cukai","TRG"
"24000","Taman Darul Iman 3","Cukai","TRG"
"24000","Taman Darul Iman","Cukai","TRG"
"24000","Taman Dataran Geliga","Cukai","TRG"
"24000","Taman Delima","Cukai","TRG"
"24000","Taman Desa Awana","Cukai","TRG"
"24000","Taman Desa Cukai","Cukai","TRG"
"24000","Taman Desa Impian","Cukai","TRG"
"24000","Taman Desa Permai 1","Cukai","TRG"
"24000","Taman Desa Permai 2","Cukai","TRG"
"24000","Taman Desa Sentosa","Cukai","TRG"
"24000","Taman Desa Seri Geliga","Cukai","TRG"
"24000","Taman Geliga Besar","Cukai","TRG"
"24000","Taman Geliga Maju","Cukai","TRG"
"24000","Taman Geliga Sakti","Cukai","TRG"
"24000","Taman Geliga","Cukai","TRG"
"24000","Taman Ghulam","Cukai","TRG"
"24000","Taman Gong Pauh","Cukai","TRG"
"24000","Taman Haji Hamzah","Cukai","TRG"
"24000","Taman Haji Wan Ngah","Cukai","TRG"
"24000","Taman Haji Yaacob","Cukai","TRG"
"24000","Taman Idaman","Cukai","TRG"
"24000","Taman Indah","Cukai","TRG"
"24000","Taman Intan","Cukai","TRG"
"24000","Taman Isora","Cukai","TRG"
"24000","Taman Itafah","Cukai","TRG"
"24000","Taman Jakar Jaya","Cukai","TRG"
"24000","Taman Kediaman Indah","Cukai","TRG"
"24000","Taman Kekwa","Cukai","TRG"
"24000","Taman Kemaman","Cukai","TRG"
"24000","Taman Kenari","Cukai","TRG"
"24000","Taman LGL","Cukai","TRG"
"24000","Taman Lembah Geliga","Cukai","TRG"
"24000","Taman Lim Guan Lim","Cukai","TRG"
"24000","Taman Maheran","Cukai","TRG"
"24000","Taman Mak Cili","Cukai","TRG"
"24000","Taman Mat Nor","Cukai","TRG"
"24000","Taman Mawar","Cukai","TRG"
"24000","Taman Melor 2","Cukai","TRG"
"24000","Taman Melor","Cukai","TRG"
"24000","Taman Merpati","Cukai","TRG"
"24000","Taman Mohd Nor","Cukai","TRG"
"24000","Taman Muda","Cukai","TRG"
"24000","Taman Muhibbah","Cukai","TRG"
"24000","Taman Pantai","Cukai","TRG"
"24000","Taman Peladang","Cukai","TRG"
"24000","Taman Pelangi","Cukai","TRG"
"24000","Taman Permai Jaya","Cukai","TRG"
"24000","Taman Perumahan Haji Ismail","Cukai","TRG"
"24000","Taman Perumahan Perwaja","Cukai","TRG"
"24000","Taman Rahmat","Cukai","TRG"
"24000","Taman Samudra","Cukai","TRG"
"24000","Taman Sangsura","Cukai","TRG"
"24000","Taman Selera","Cukai","TRG"
"24000","Taman Seri Cukai","Cukai","TRG"
"24000","Taman Seri Geliga","Cukai","TRG"
"24000","Taman Seri Indah","Cukai","TRG"
"24000","Taman Seri Jakar","Cukai","TRG"
"24000","Taman Seri Jaya","Cukai","TRG"
"24000","Taman Seri Kalongan 2","Cukai","TRG"
"24000","Taman Seri Kalongan","Cukai","TRG"
"24000","Taman Seri Kemaman","Cukai","TRG"
"24000","Taman Seri Pandan 2","Cukai","TRG"
"24000","Taman Seri Pandan","Cukai","TRG"
"24000","Taman Seri Pauh","Cukai","TRG"
"24000","Taman Si Buyung","Cukai","TRG"
"24000","Taman Taja","Cukai","TRG"
"24000","Tanjung Berhala","Cukai","TRG"
"24000","Teluk Kalong","Cukai","TRG"
"24000","Teluk Puchong","Cukai","TRG"
"24000","Tok Kapor","Cukai","TRG"
"24000","Zon Perindustrian Jakar (1 & 2)","Cukai","TRG"
"24007","Cukai - Peti surat","Cukai","TRG"
"24009","Cukai - Beg berkunci","Cukai","TRG"
"24050","Arkid Mara","Ayer Puteh","TRG"
"24050","Ayer Puteh","Ayer Puteh","TRG"
"24050","Ceneh Baru","Ceneh","TRG"
"24050","Ceneh","Ceneh","TRG"
"24050","Cerul Baru","Ceneh","TRG"
"24050","Dadong","Ayer Puteh","TRG"
"24050","Kampung Baran","Ayer Puteh","TRG"
"24050","Kampung Batu 14","Ayer Puteh","TRG"
"24050","Kampung Batu 16","Ayer Puteh","TRG"
"24050","Kampung Habib Mohsin","Ayer Puteh","TRG"
"24050","Kampung Hilir Pasir Gajah","Ayer Puteh","TRG"
"24050","Kampung Hulu Pasir Gajah","Ayer Puteh","TRG"
"24050","Kampung Hulu Seberang Tayor","Ayer Puteh","TRG"
"24050","Kampung Hulu","Ayer Puteh","TRG"
"24050","Kampung Kubang Kurus","Ayer Puteh","TRG"
"24050","Kampung Laut Pasir Gajah","Ayer Puteh","TRG"
"24050","Kampung Sungai Mas","Ayer Puteh","TRG"
"24050","Kampung Tanah Lot Ayer Puteh","Ayer Puteh","TRG"
"24050","Kampung Tanah Lot Pasir Gajah","Ayer Puteh","TRG"
"24050","Kampung Tengah Pasir Gajah","Ayer Puteh","TRG"
"24050","Ladang Tebak","Ayer Puteh","TRG"
"24050","Padang Kubu","Ayer Puteh","TRG"
"24050","Pasir Gajah","Ayer Puteh","TRG"
"24050","RKT Seberang Tayor","Ayer Puteh","TRG"
"24050","Seberang Tayor","Ayer Puteh","TRG"
"24060","Kampung Yak Yah","Ceneh","TRG"
"24060","Lot 144","Ceneh","TRG"
"24060","Neram I","Ceneh","TRG"
"24060","Neram","Ceneh","TRG"
"24100","Kampung Atas Tebing","Kijal","TRG"
"24100","Kampung Baru Bukit Anak Dara","Kijal","TRG"
"24100","Kampung Baru Kanan","Kijal","TRG"
"24100","Kampung Baru Titian Berayong","Kijal","TRG"
"24100","Kampung Beris Nenas","Kijal","TRG"
"24100","Kampung Bukit Anak Dara","Kijal","TRG"
"24100","Kampung Bukit Sembilan","Kijal","TRG"
"24100","Kampung Che Wan","Kijal","TRG"
"24100","Kampung Darat Air Puteh","Kijal","TRG"
"24100","Kampung Darat Haji Awang","Kijal","TRG"
"24100","Kampung Darat Kijal","Kijal","TRG"
"24100","Kampung Darat Penunjuk","Kijal","TRG"
"24100","Kampung Darat Stesyen Bawah","Kijal","TRG"
"24100","Kampung Ibai","Kijal","TRG"
"24100","Kampung Ibok","Kijal","TRG"
"24100","Kampung Jong Berlaboh","Kijal","TRG"
"24100","Kampung Lasir Darat Kijal","Kijal","TRG"
"24100","Kampung Masjid (Kijal)","Kijal","TRG"
"24100","Kampung Mentauh","Kijal","TRG"
"24100","Kampung Meraga Beris","Kijal","TRG"
"24100","Kampung Padang Kemunting","Kijal","TRG"
"24100","Kampung Pantai Penunjuk","Kijal","TRG"
"24100","Kampung Penunjuk","Kijal","TRG"
"24100","Kampung Pondok Limau","Kijal","TRG"
"24100","Kampung Pondok Paska","Kijal","TRG"
"24100","Kampung Simpang Bukit Kemuning","Kijal","TRG"
"24100","Kampung Simpang Empat","Kijal","TRG"
"24100","Kampung Tengah Bawah Tebing","Kijal","TRG"
"24100","Kampung Tengah Ibok","Kijal","TRG"
"24100","Kampung Tengah Pantai","Kijal","TRG"
"24100","Kampung Tengah","Kijal","TRG"
"24100","Kampung Titian Berayong","Kijal","TRG"
"24100","Kijal Beach Resort","Kijal","TRG"
"24100","Kijal","Kijal","TRG"
"24100","Simpang Pelatoh","Kijal","TRG"
"24100","Teladas","Kijal","TRG"
"24107","Kijal - Peti surat","Kijal","TRG"
"24109","Kijal - Beg berkunci","Kijal","TRG"
"24200","Ayer Jerneh","Kemasek","TRG"
"24200","Bandar D","Kemasek","TRG"
"24200","Kampung Baru Semanyor","Kemasek","TRG"
"24200","Kampung Batu 6 1/2 (Ayer Jerneh)","Kemasek","TRG"
"24200","Kampung Bukit Kijang","Kemasek","TRG"
"24200","Kampung Bukit Pak Long","Kemasek","TRG"
"24200","Kampung Bukit Teruna Payoh","Kemasek","TRG"
"24200","Kampung Gong Chengal","Kemasek","TRG"
"24200","Kampung Loke Kod Ayer Jernih","Kemasek","TRG"
"24200","Kampung Melayu Ayer Jerneh","Kemasek","TRG"
"24200","Kampung Padang","Kemasek","TRG"
"24200","Kampung Payoh","Kemasek","TRG"
"24200","Kampung Seberang Payoh","Kemasek","TRG"
"24200","Kampung Semanyor","Kemasek","TRG"
"24200","Kemasek","Kemasek","TRG"
"24200","Seri Bandi","Kemasek","TRG"
"24200","Taman Wan Adnan","Kemasek","TRG"
"24207","Kemasek - Peti surat","Kemasek","TRG"
"24209","Kemasek - Beg berkunci","Kemasek","TRG"
"24300","Bandar Baru","Kerteh","TRG"
"24300","EstateTengah / Petronas","Kerteh","TRG"
"24300","Jalan Besar","Kerteh","TRG"
"24300","Jalan Chabang","Kerteh","TRG"
"24300","Jalan Federal","Kerteh","TRG"
"24300","Kampung Api Rokok","Kerteh","TRG"
"24300","Kampung Bangsal Arang","Kerteh","TRG"
"24300","Kampung Baru Chabang","Kerteh","TRG"
"24300","Kampung Baru","Kerteh","TRG"
"24300","Kampung Batu Puteh","Kerteh","TRG"
"24300","Kampung Bukit Pahang Estate","Kerteh","TRG"
"24300","Kampung Cabang","Kerteh","TRG"
"24300","Kampung Gelugor","Kerteh","TRG"
"24300","Kampung Kolam Austasia","Kerteh","TRG"
"24300","Kampung Labohan","Kerteh","TRG"
"24300","Kampung Padang Bola","Kerteh","TRG"
"24300","Kampung Pengkalan Ranggon","Kerteh","TRG"
"24300","Kampung Ranggon Estate","Kerteh","TRG"
"24300","Kampung Seberang Lalang","Kerteh","TRG"
"24300","Kampung Telaga Papan","Kerteh","TRG"
"24300","Kampung Tengah","Kerteh","TRG"
"24300","Kerteh","Kerteh","TRG"
"24300","Kompleks Rantau Petronas","Kerteh","TRG"
"24300","Nyor Matel","Kerteh","TRG"
"24300","Rantau Petronas","Kerteh","TRG"